name p10_grf_mean_speed_1.0
datacolumns 13
datarows 100
range 0.00000000 0.99000000
endheader
time	grf_x_l_mean	grf_x_l_var	grf_y_l_mean	grf_y_l_var	grf_z_l_mean	grf_z_l_var	grf_x_r_mean	grf_x_r_var	grf_y_r_mean	grf_y_r_var	grf_z_r_mean	grf_z_r_var
0.0000000000	83.7602918524	1.0000000000	1018.5007200877	1.0000000000	0.0000000000	0.0000000000	15.5548837948	1.0000000000	10.9580127862	1.0000000000	0.0000000000	0.0000000000
0.0100000000	91.8586847411	1.0000000000	1010.1334119521	1.0000000000	0.0000000000	0.0000000000	29.9185422222	1.0000000000	50.7214931857	1.0000000000	0.0000000000	0.0000000000
0.0200000000	102.3861205988	1.0000000000	995.8363648554	1.0000000000	0.0000000000	0.0000000000	40.0107190357	1.0000000000	116.8581343398	1.0000000000	0.0000000000	0.0000000000
0.0300000000	114.1305172684	1.0000000000	971.8910650437	1.0000000000	0.0000000000	0.0000000000	31.8851489208	1.0000000000	199.8261073486	1.0000000000	0.0000000000	0.0000000000
0.0400000000	125.1958867937	1.0000000000	934.2887505843	1.0000000000	0.0000000000	0.0000000000	8.3943794119	1.0000000000	289.8254857081	1.0000000000	0.0000000000	0.0000000000
0.0500000000	136.7786584273	1.0000000000	881.2435438653	1.0000000000	0.0000000000	0.0000000000	-16.2165592497	1.0000000000	381.7911691794	1.0000000000	0.0000000000	0.0000000000
0.0600000000	145.2342292842	1.0000000000	811.0507824100	1.0000000000	0.0000000000	0.0000000000	-39.1318332764	1.0000000000	470.8129117736	1.0000000000	0.0000000000	0.0000000000
0.0700000000	148.8556317618	1.0000000000	722.9592113696	1.0000000000	0.0000000000	0.0000000000	-57.7765716592	1.0000000000	551.4531914525	1.0000000000	0.0000000000	0.0000000000
0.0800000000	146.3961974790	1.0000000000	619.5706682072	1.0000000000	0.0000000000	0.0000000000	-71.1323557872	1.0000000000	622.8925822207	1.0000000000	0.0000000000	0.0000000000
0.0900000000	133.5771976275	1.0000000000	504.6718644329	1.0000000000	0.0000000000	0.0000000000	-83.2061064282	1.0000000000	686.5640335496	1.0000000000	0.0000000000	0.0000000000
0.1000000000	112.3512789107	1.0000000000	385.4420246839	1.0000000000	0.0000000000	0.0000000000	-91.4711824538	1.0000000000	743.7411307616	1.0000000000	0.0000000000	0.0000000000
0.1100000000	82.6184072688	1.0000000000	273.0368225558	1.0000000000	0.0000000000	0.0000000000	-97.0388051231	1.0000000000	797.5966719150	1.0000000000	0.0000000000	0.0000000000
0.1200000000	49.2194345069	1.0000000000	177.2464525075	1.0000000000	0.0000000000	0.0000000000	-101.2623751132	1.0000000000	850.8542892237	1.0000000000	0.0000000000	0.0000000000
0.1300000000	20.3246931180	1.0000000000	104.1554701556	1.0000000000	0.0000000000	0.0000000000	-101.8811022577	1.0000000000	903.5255911798	1.0000000000	0.0000000000	0.0000000000
0.1400000000	-1.0485989233	1.0000000000	55.2099008030	1.0000000000	0.0000000000	0.0000000000	-101.0684816546	1.0000000000	953.4287280930	1.0000000000	0.0000000000	0.0000000000
0.1500000000	-11.0052707143	1.0000000000	25.4923509513	1.0000000000	0.0000000000	0.0000000000	-98.3606416133	1.0000000000	995.8136989993	1.0000000000	0.0000000000	0.0000000000
0.1600000000	-12.1028293193	1.0000000000	8.9336021641	1.0000000000	0.0000000000	0.0000000000	-93.5005769239	1.0000000000	1026.4384997077	1.0000000000	0.0000000000	0.0000000000
0.1700000000	-8.9852360952	1.0000000000	1.2889673189	1.0000000000	0.0000000000	0.0000000000	-87.8893812532	1.0000000000	1043.3288365076	1.0000000000	0.0000000000	0.0000000000
0.1800000000	0.0000000000	1.0000000000	0.0000000000	1.0000000000	0.0000000000	0.0000000000	-80.3808570700	1.0000000000	1046.4545550208	1.0000000000	0.0000000000	0.0000000000
0.1900000000	0.0000000000	1.0000000000	0.0000000000	1.0000000000	0.0000000000	0.0000000000	-72.3504393494	1.0000000000	1037.0406579927	1.0000000000	0.0000000000	0.0000000000
0.2000000000	0.0000000000	1.0000000000	0.0000000000	1.0000000000	0.0000000000	0.0000000000	-63.7884872056	1.0000000000	1017.1246546800	1.0000000000	0.0000000000	0.0000000000
0.2100000000	0.4639967828	1.0000000000	0.0520863035	1.0000000000	0.0000000000	0.0000000000	-54.7854771898	1.0000000000	990.6447508438	1.0000000000	0.0000000000	0.0000000000
0.2200000000	0.1024291974	1.0000000000	0.3851414298	1.0000000000	0.0000000000	0.0000000000	-46.2834461236	1.0000000000	961.8076935879	1.0000000000	0.0000000000	0.0000000000
0.2300000000	0.2123306830	1.0000000000	0.5855290145	1.0000000000	0.0000000000	0.0000000000	-37.8187415672	1.0000000000	933.2723737810	1.0000000000	0.0000000000	0.0000000000
0.2400000000	-0.2313358787	1.0000000000	0.4953044962	1.0000000000	0.0000000000	0.0000000000	-30.0691468216	1.0000000000	906.9719419740	1.0000000000	0.0000000000	0.0000000000
0.2500000000	-0.5759588460	1.0000000000	0.2254426385	1.0000000000	0.0000000000	0.0000000000	-22.8960788950	1.0000000000	884.1338960018	1.0000000000	0.0000000000	0.0000000000
0.2600000000	-0.3771753145	1.0000000000	0.1857930075	1.0000000000	0.0000000000	0.0000000000	-16.4096398851	1.0000000000	865.5265485982	1.0000000000	0.0000000000	0.0000000000
0.2700000000	-0.6038310951	1.0000000000	0.1730843324	1.0000000000	0.0000000000	0.0000000000	-10.7786471168	1.0000000000	851.5694110175	1.0000000000	0.0000000000	0.0000000000
0.2800000000	-0.4520405193	1.0000000000	0.0678058928	1.0000000000	0.0000000000	0.0000000000	-5.2814872157	1.0000000000	842.5642855498	1.0000000000	0.0000000000	0.0000000000
0.2900000000	-0.4483018573	1.0000000000	0.1066021649	1.0000000000	0.0000000000	0.0000000000	-0.2464373120	1.0000000000	839.3742459104	1.0000000000	0.0000000000	0.0000000000
0.3000000000	-0.5530264018	1.0000000000	0.1606568165	1.0000000000	0.0000000000	0.0000000000	4.7490384686	1.0000000000	842.0840863401	1.0000000000	0.0000000000	0.0000000000
0.3100000000	-0.4164430393	1.0000000000	0.1568640662	1.0000000000	0.0000000000	0.0000000000	9.9111494916	1.0000000000	850.1639092672	1.0000000000	0.0000000000	0.0000000000
0.3200000000	-0.5380261153	1.0000000000	0.2360126275	1.0000000000	0.0000000000	0.0000000000	15.0016119688	1.0000000000	862.9332879323	1.0000000000	0.0000000000	0.0000000000
0.3300000000	-0.5109093479	1.0000000000	0.2468961540	1.0000000000	0.0000000000	0.0000000000	20.4844310761	1.0000000000	879.0264701231	1.0000000000	0.0000000000	0.0000000000
0.3400000000	-0.4591768580	1.0000000000	0.1865458414	1.0000000000	0.0000000000	0.0000000000	25.9501926263	1.0000000000	897.0242001483	1.0000000000	0.0000000000	0.0000000000
0.3500000000	-0.5711742089	1.0000000000	0.1756585784	1.0000000000	0.0000000000	0.0000000000	31.4967889840	1.0000000000	915.4789070701	1.0000000000	0.0000000000	0.0000000000
0.3600000000	-0.5391252750	1.0000000000	0.1132526331	1.0000000000	0.0000000000	0.0000000000	37.1255736397	1.0000000000	933.3342438322	1.0000000000	0.0000000000	0.0000000000
0.3700000000	-0.5719214943	1.0000000000	0.0602119947	1.0000000000	0.0000000000	0.0000000000	42.3338695851	1.0000000000	950.2177744487	1.0000000000	0.0000000000	0.0000000000
0.3800000000	-0.5626185279	1.0000000000	0.0556561306	1.0000000000	0.0000000000	0.0000000000	47.5943028682	1.0000000000	965.6341145240	1.0000000000	0.0000000000	0.0000000000
0.3900000000	-0.5315940222	1.0000000000	0.0619306465	1.0000000000	0.0000000000	0.0000000000	52.7932350541	1.0000000000	979.2697796981	1.0000000000	0.0000000000	0.0000000000
0.4000000000	-0.5512409396	1.0000000000	0.1347626915	1.0000000000	0.0000000000	0.0000000000	57.7817085654	1.0000000000	991.3274809896	1.0000000000	0.0000000000	0.0000000000
0.4100000000	-0.4997234017	1.0000000000	0.2406065853	1.0000000000	0.0000000000	0.0000000000	62.8042722121	1.0000000000	1001.9604762064	1.0000000000	0.0000000000	0.0000000000
0.4200000000	-0.5979145346	1.0000000000	0.1760889548	1.0000000000	0.0000000000	0.0000000000	67.5215495339	1.0000000000	1011.2044943530	1.0000000000	0.0000000000	0.0000000000
0.4300000000	0.0000000000	1.0000000000	0.0000000000	1.0000000000	0.0000000000	0.0000000000	72.1544252437	1.0000000000	1019.4072729221	1.0000000000	0.0000000000	0.0000000000
0.4400000000	0.0000000000	1.0000000000	0.0000000000	1.0000000000	0.0000000000	0.0000000000	76.8337035105	1.0000000000	1026.9423705965	1.0000000000	0.0000000000	0.0000000000
0.4500000000	0.0000000000	1.0000000000	0.0000000000	1.0000000000	0.0000000000	0.0000000000	81.7123030181	1.0000000000	1034.0672972236	1.0000000000	0.0000000000	0.0000000000
0.4600000000	0.0000000000	1.0000000000	0.0000000000	1.0000000000	0.0000000000	0.0000000000	87.5955952875	1.0000000000	1040.8895398943	1.0000000000	0.0000000000	0.0000000000
0.4700000000	0.0000000000	1.0000000000	0.0000000000	1.0000000000	0.0000000000	0.0000000000	94.8981132922	1.0000000000	1046.9898420177	1.0000000000	0.0000000000	0.0000000000
0.4800000000	6.1015962124	1.0000000000	1.4368217243	1.0000000000	0.0000000000	0.0000000000	104.0717938475	1.0000000000	1051.2564289299	1.0000000000	0.0000000000	0.0000000000
0.4900000000	12.9263489390	1.0000000000	25.6132103584	1.0000000000	0.0000000000	0.0000000000	115.2794901930	1.0000000000	1051.6034728350	1.0000000000	0.0000000000	0.0000000000
0.5000000000	19.1407518871	1.0000000000	73.1019984797	1.0000000000	0.0000000000	0.0000000000	127.8916656075	1.0000000000	1045.3765463675	1.0000000000	0.0000000000	0.0000000000
0.5100000000	18.6963676971	1.0000000000	144.7496132152	1.0000000000	0.0000000000	0.0000000000	141.2503600341	1.0000000000	1029.8206511737	1.0000000000	0.0000000000	0.0000000000
0.5200000000	6.0488799802	1.0000000000	232.6138297748	1.0000000000	0.0000000000	0.0000000000	154.1133537056	1.0000000000	1002.0130775664	1.0000000000	0.0000000000	0.0000000000
0.5300000000	-17.3068970224	1.0000000000	324.5662178174	1.0000000000	0.0000000000	0.0000000000	165.2249568453	1.0000000000	958.9845534181	1.0000000000	0.0000000000	0.0000000000
0.5400000000	-43.2703554374	1.0000000000	410.9741583911	1.0000000000	0.0000000000	0.0000000000	173.5305268426	1.0000000000	898.4550927588	1.0000000000	0.0000000000	0.0000000000
0.5500000000	-65.7325940314	1.0000000000	486.2365861438	1.0000000000	0.0000000000	0.0000000000	177.0635986736	1.0000000000	819.4450095227	1.0000000000	0.0000000000	0.0000000000
0.5600000000	-83.0655613301	1.0000000000	548.7933543123	1.0000000000	0.0000000000	0.0000000000	173.7502496946	1.0000000000	722.3973034610	1.0000000000	0.0000000000	0.0000000000
0.5700000000	-95.9691168286	1.0000000000	601.4877494538	1.0000000000	0.0000000000	0.0000000000	162.2243739226	1.0000000000	610.3875770088	1.0000000000	0.0000000000	0.0000000000
0.5800000000	-106.4059870327	1.0000000000	649.7180904156	1.0000000000	0.0000000000	0.0000000000	141.8341740710	1.0000000000	489.8248605268	1.0000000000	0.0000000000	0.0000000000
0.5900000000	-115.3250462159	1.0000000000	698.6218608095	1.0000000000	0.0000000000	0.0000000000	114.1554483019	1.0000000000	369.6644731287	1.0000000000	0.0000000000	0.0000000000
0.6000000000	-122.9707160689	1.0000000000	752.0190121197	1.0000000000	0.0000000000	0.0000000000	82.8178801308	1.0000000000	260.1586227911	1.0000000000	0.0000000000	0.0000000000
0.6100000000	-129.3275932277	1.0000000000	811.1299975711	1.0000000000	0.0000000000	0.0000000000	52.5503801779	1.0000000000	169.5333925998	1.0000000000	0.0000000000	0.0000000000
0.6200000000	-133.4483555984	1.0000000000	872.5577473262	1.0000000000	0.0000000000	0.0000000000	27.8555781007	1.0000000000	101.2459282225	1.0000000000	0.0000000000	0.0000000000
0.6300000000	-134.8515167281	1.0000000000	929.7843271906	1.0000000000	0.0000000000	0.0000000000	10.6953048488	1.0000000000	54.5145206596	1.0000000000	0.0000000000	0.0000000000
0.6400000000	-133.4425110234	1.0000000000	976.7011048338	1.0000000000	0.0000000000	0.0000000000	0.8067980316	1.0000000000	25.7491495795	1.0000000000	0.0000000000	0.0000000000
0.6500000000	-129.1958728146	1.0000000000	1009.7614694644	1.0000000000	0.0000000000	0.0000000000	-3.2867524785	1.0000000000	9.9215146278	1.0000000000	0.0000000000	0.0000000000
0.6600000000	-122.6333931705	1.0000000000	1028.6463236343	1.0000000000	0.0000000000	0.0000000000	-3.7572140079	1.0000000000	2.2729421637	1.0000000000	0.0000000000	0.0000000000
0.6700000000	-114.3075278628	1.0000000000	1034.8404294000	1.0000000000	0.0000000000	0.0000000000	0.0000000000	1.0000000000	0.0000000000	1.0000000000	0.0000000000	0.0000000000
0.6800000000	-104.9831132168	1.0000000000	1030.1610094968	1.0000000000	0.0000000000	0.0000000000	0.0000000000	1.0000000000	0.0000000000	1.0000000000	0.0000000000	0.0000000000
0.6900000000	-95.3699655069	1.0000000000	1016.5683456603	1.0000000000	0.0000000000	0.0000000000	0.0000000000	1.0000000000	0.0000000000	1.0000000000	0.0000000000	0.0000000000
0.7000000000	-85.7581629554	1.0000000000	996.2946714557	1.0000000000	0.0000000000	0.0000000000	0.0000000000	1.0000000000	0.0000000000	1.0000000000	0.0000000000	0.0000000000
0.7100000000	-76.3752167270	1.0000000000	971.9806622320	1.0000000000	0.0000000000	0.0000000000	0.0000000000	1.0000000000	0.0000000000	1.0000000000	0.0000000000	0.0000000000
0.7200000000	-67.3027189918	1.0000000000	946.2779549954	1.0000000000	0.0000000000	0.0000000000	0.8801755683	1.0000000000	0.0445985036	1.0000000000	0.0000000000	0.0000000000
0.7300000000	-58.6247729378	1.0000000000	921.3214471779	1.0000000000	0.0000000000	0.0000000000	0.7575066414	1.0000000000	0.0058986650	1.0000000000	0.0000000000	0.0000000000
0.7400000000	-50.5990784823	1.0000000000	898.5783311290	1.0000000000	0.0000000000	0.0000000000	0.0000000000	1.0000000000	0.0000000000	1.0000000000	0.0000000000	0.0000000000
0.7500000000	-43.3825397479	1.0000000000	879.0400895050	1.0000000000	0.0000000000	0.0000000000	0.0000000000	1.0000000000	0.0000000000	1.0000000000	0.0000000000	0.0000000000
0.7600000000	-36.8882971915	1.0000000000	863.2572771406	1.0000000000	0.0000000000	0.0000000000	0.0000000000	1.0000000000	0.0000000000	1.0000000000	0.0000000000	0.0000000000
0.7700000000	-31.0176545363	1.0000000000	851.4002078165	1.0000000000	0.0000000000	0.0000000000	0.0000000000	1.0000000000	0.0000000000	1.0000000000	0.0000000000	0.0000000000
0.7800000000	-25.4820818208	1.0000000000	843.6205944617	1.0000000000	0.0000000000	0.0000000000	0.0000000000	1.0000000000	0.0000000000	1.0000000000	0.0000000000	0.0000000000
0.7900000000	-20.1165509608	1.0000000000	840.0160859270	1.0000000000	0.0000000000	0.0000000000	0.0000000000	1.0000000000	0.0000000000	1.0000000000	0.0000000000	0.0000000000
0.8000000000	-14.8793127755	1.0000000000	840.6920953254	1.0000000000	0.0000000000	0.0000000000	0.4108182960	1.0000000000	0.0242116654	1.0000000000	0.0000000000	0.0000000000
0.8100000000	-9.6023144254	1.0000000000	845.7168820767	1.0000000000	0.0000000000	0.0000000000	0.3345661043	1.0000000000	0.0467841722	1.0000000000	0.0000000000	0.0000000000
0.8200000000	-4.3633151293	1.0000000000	854.8552352089	1.0000000000	0.0000000000	0.0000000000	0.2124990745	1.0000000000	0.0530235098	1.0000000000	0.0000000000	0.0000000000
0.8300000000	0.8602025122	1.0000000000	867.5239497291	1.0000000000	0.0000000000	0.0000000000	0.1472085464	1.0000000000	0.0451761370	1.0000000000	0.0000000000	0.0000000000
0.8400000000	6.0469668230	1.0000000000	882.8235784750	1.0000000000	0.0000000000	0.0000000000	0.1417920577	1.0000000000	0.0270787246	1.0000000000	0.0000000000	0.0000000000
0.8500000000	11.0857448511	1.0000000000	899.7866716146	1.0000000000	0.0000000000	0.0000000000	0.1573904010	1.0000000000	0.0131309200	1.0000000000	0.0000000000	0.0000000000
0.8600000000	16.1565984909	1.0000000000	917.2685941731	1.0000000000	0.0000000000	0.0000000000	0.1691513783	1.0000000000	0.0021521872	1.0000000000	0.0000000000	0.0000000000
0.8700000000	21.2463352799	1.0000000000	934.0956016239	1.0000000000	0.0000000000	0.0000000000	0.0000000000	1.0000000000	0.0000000000	1.0000000000	0.0000000000	0.0000000000
0.8800000000	26.5033794898	1.0000000000	949.3872874854	1.0000000000	0.0000000000	0.0000000000	0.1714386929	1.0000000000	0.0096581229	1.0000000000	0.0000000000	0.0000000000
0.8900000000	32.0946577601	1.0000000000	962.6337591649	1.0000000000	0.0000000000	0.0000000000	0.1724008113	1.0000000000	0.0673251082	1.0000000000	0.0000000000	0.0000000000
0.9000000000	37.9502949712	1.0000000000	974.1107546627	1.0000000000	0.0000000000	0.0000000000	0.1583565482	1.0000000000	0.1740997650	1.0000000000	0.0000000000	0.0000000000
0.9100000000	44.0930217625	1.0000000000	984.6225700955	1.0000000000	0.0000000000	0.0000000000	0.1182292401	1.0000000000	0.2965312550	1.0000000000	0.0000000000	0.0000000000
0.9200000000	50.2008551470	1.0000000000	994.7940180610	1.0000000000	0.0000000000	0.0000000000	-0.0345788567	1.0000000000	0.3290128789	1.0000000000	0.0000000000	0.0000000000
0.9300000000	55.9675034552	1.0000000000	1004.6136533457	1.0000000000	0.0000000000	0.0000000000	0.0000000000	1.0000000000	0.0000000000	1.0000000000	0.0000000000	0.0000000000
0.9400000000	61.1560898006	1.0000000000	1013.3637062658	1.0000000000	0.0000000000	0.0000000000	0.0000000000	1.0000000000	0.0000000000	1.0000000000	0.0000000000	0.0000000000
0.9500000000	65.5581892562	1.0000000000	1020.0362045826	1.0000000000	0.0000000000	0.0000000000	0.0000000000	1.0000000000	0.0000000000	1.0000000000	0.0000000000	0.0000000000
0.9600000000	69.4540869517	1.0000000000	1023.8644331971	1.0000000000	0.0000000000	0.0000000000	0.0000000000	1.0000000000	0.0000000000	1.0000000000	0.0000000000	0.0000000000
0.9700000000	73.2532843646	1.0000000000	1024.7650497232	1.0000000000	0.0000000000	0.0000000000	0.0000000000	1.0000000000	0.0000000000	1.0000000000	0.0000000000	0.0000000000
0.9800000000	77.7228377841	1.0000000000	1022.9248294340	1.0000000000	0.0000000000	0.0000000000	0.0000000000	1.0000000000	0.0000000000	1.0000000000	0.0000000000	0.0000000000
0.9900000000	83.7018223891	1.0000000000	1018.2541478900	1.0000000000	0.0000000000	0.0000000000	15.5648564828	1.0000000000	10.9675047895	1.0000000000	0.0000000000	0.0000000000
