name p10_grf_mean_speed_1.6
datacolumns 13
datarows 100
range 0.00000000 0.99000000
endheader
time	grf_x_l_mean	grf_x_l_var	grf_y_l_mean	grf_y_l_var	grf_z_l_mean	grf_z_l_var	grf_x_r_mean	grf_x_r_var	grf_y_r_mean	grf_y_r_var	grf_z_r_mean	grf_z_r_var
0.0000000000	194.1391036463	1.0000000000	1201.4282072433	1.0000000000	0.0000000000	0.0000000000	20.3300632176	1.0000000000	11.8447469584	1.0000000000	0.0000000000	0.0000000000
0.0100000000	217.7414320149	1.0000000000	1185.9730887040	1.0000000000	0.0000000000	0.0000000000	31.9690568016	1.0000000000	67.0258809096	1.0000000000	0.0000000000	0.0000000000
0.0200000000	241.9417170693	1.0000000000	1151.8148014822	1.0000000000	0.0000000000	0.0000000000	40.5836033815	1.0000000000	160.6275499630	1.0000000000	0.0000000000	0.0000000000
0.0300000000	264.0468615797	1.0000000000	1095.4148460003	1.0000000000	0.0000000000	0.0000000000	35.9245241788	1.0000000000	289.0715680792	1.0000000000	0.0000000000	0.0000000000
0.0400000000	280.5248907869	1.0000000000	1013.8240722169	1.0000000000	0.0000000000	0.0000000000	8.0061785785	1.0000000000	434.0476781304	1.0000000000	0.0000000000	0.0000000000
0.0500000000	285.2687183149	1.0000000000	905.3973753838	1.0000000000	0.0000000000	0.0000000000	-37.4225792592	1.0000000000	573.2799544465	1.0000000000	0.0000000000	0.0000000000
0.0600000000	275.1974415863	1.0000000000	772.1989803097	1.0000000000	0.0000000000	0.0000000000	-83.8424676556	1.0000000000	692.7401886067	1.0000000000	0.0000000000	0.0000000000
0.0700000000	248.6050608396	1.0000000000	622.0180683938	1.0000000000	0.0000000000	0.0000000000	-122.8906250658	1.0000000000	789.5147072534	1.0000000000	0.0000000000	0.0000000000
0.0800000000	204.4277693106	1.0000000000	467.7532806320	1.0000000000	0.0000000000	0.0000000000	-156.4021462484	1.0000000000	866.4318234659	1.0000000000	0.0000000000	0.0000000000
0.0900000000	149.1676182682	1.0000000000	324.0058177294	1.0000000000	0.0000000000	0.0000000000	-183.4790038891	1.0000000000	929.8165967413	1.0000000000	0.0000000000	0.0000000000
0.1000000000	94.1146293460	1.0000000000	204.1905110791	1.0000000000	0.0000000000	0.0000000000	-203.2009916285	1.0000000000	989.1061336987	1.0000000000	0.0000000000	0.0000000000
0.1100000000	47.0174460214	1.0000000000	116.0537290345	1.0000000000	0.0000000000	0.0000000000	-217.1066810639	1.0000000000	1049.4350123265	1.0000000000	0.0000000000	0.0000000000
0.1200000000	14.3056050210	1.0000000000	58.2718409294	1.0000000000	0.0000000000	0.0000000000	-224.2367536789	1.0000000000	1107.4622654543	1.0000000000	0.0000000000	0.0000000000
0.1300000000	-3.1980449725	1.0000000000	23.9750676651	1.0000000000	0.0000000000	0.0000000000	-222.7787101414	1.0000000000	1157.3492691012	1.0000000000	0.0000000000	0.0000000000
0.1400000000	-11.0857173463	1.0000000000	6.3900625807	1.0000000000	0.0000000000	0.0000000000	-214.6254196221	1.0000000000	1195.5368014059	1.0000000000	0.0000000000	0.0000000000
0.1500000000	0.0000000000	1.0000000000	0.0000000000	1.0000000000	0.0000000000	0.0000000000	-201.7731791489	1.0000000000	1218.4796069545	1.0000000000	0.0000000000	0.0000000000
0.1600000000	0.0000000000	1.0000000000	0.0000000000	1.0000000000	0.0000000000	0.0000000000	-183.1732037832	1.0000000000	1221.5804053191	1.0000000000	0.0000000000	0.0000000000
0.1700000000	0.0000000000	1.0000000000	0.0000000000	1.0000000000	0.0000000000	0.0000000000	-161.2846585248	1.0000000000	1203.8499810459	1.0000000000	0.0000000000	0.0000000000
0.1800000000	0.0000000000	1.0000000000	0.0000000000	1.0000000000	0.0000000000	0.0000000000	-139.0606366310	1.0000000000	1169.0076235836	1.0000000000	0.0000000000	0.0000000000
0.1900000000	0.0000000000	1.0000000000	0.0000000000	1.0000000000	0.0000000000	0.0000000000	-116.3045481747	1.0000000000	1121.0443007185	1.0000000000	0.0000000000	0.0000000000
0.2000000000	0.0000000000	1.0000000000	0.0000000000	1.0000000000	0.0000000000	0.0000000000	-93.6627985560	1.0000000000	1061.7577716820	1.0000000000	0.0000000000	0.0000000000
0.2100000000	0.0000000000	1.0000000000	0.0000000000	1.0000000000	0.0000000000	0.0000000000	-73.8510058006	1.0000000000	993.9133753991	1.0000000000	0.0000000000	0.0000000000
0.2200000000	0.0000000000	1.0000000000	0.0000000000	1.0000000000	0.0000000000	0.0000000000	-56.3384384889	1.0000000000	923.1239398893	1.0000000000	0.0000000000	0.0000000000
0.2300000000	0.0000000000	1.0000000000	0.0000000000	1.0000000000	0.0000000000	0.0000000000	-41.0392318675	1.0000000000	854.4252876062	1.0000000000	0.0000000000	0.0000000000
0.2400000000	0.0000000000	1.0000000000	0.0000000000	1.0000000000	0.0000000000	0.0000000000	-28.9927462336	1.0000000000	789.9115947746	1.0000000000	0.0000000000	0.0000000000
0.2500000000	0.0000000000	1.0000000000	0.0000000000	1.0000000000	0.0000000000	0.0000000000	-19.7694685944	1.0000000000	731.0904918530	1.0000000000	0.0000000000	0.0000000000
0.2600000000	0.0000000000	1.0000000000	0.0000000000	1.0000000000	0.0000000000	0.0000000000	-12.0672715582	1.0000000000	680.7480668594	1.0000000000	0.0000000000	0.0000000000
0.2700000000	0.0000000000	1.0000000000	0.0000000000	1.0000000000	0.0000000000	0.0000000000	-6.0074647042	1.0000000000	640.7072653910	1.0000000000	0.0000000000	0.0000000000
0.2800000000	0.0000000000	1.0000000000	0.0000000000	1.0000000000	0.0000000000	0.0000000000	-1.2970010299	1.0000000000	610.6814882235	1.0000000000	0.0000000000	0.0000000000
0.2900000000	0.0000000000	1.0000000000	0.0000000000	1.0000000000	0.0000000000	0.0000000000	2.9191542617	1.0000000000	590.6883670167	1.0000000000	0.0000000000	0.0000000000
0.3000000000	0.0000000000	1.0000000000	0.0000000000	1.0000000000	0.0000000000	0.0000000000	6.2561614804	1.0000000000	581.1526270787	1.0000000000	0.0000000000	0.0000000000
0.3100000000	0.0000000000	1.0000000000	0.0000000000	1.0000000000	0.0000000000	0.0000000000	9.3440235395	1.0000000000	581.0681938941	1.0000000000	0.0000000000	0.0000000000
0.3200000000	0.0000000000	1.0000000000	0.0000000000	1.0000000000	0.0000000000	0.0000000000	12.8261159885	1.0000000000	589.2157459219	1.0000000000	0.0000000000	0.0000000000
0.3300000000	0.0000000000	1.0000000000	0.0000000000	1.0000000000	0.0000000000	0.0000000000	16.4064996620	1.0000000000	605.9963503617	1.0000000000	0.0000000000	0.0000000000
0.3400000000	0.0000000000	1.0000000000	0.0000000000	1.0000000000	0.0000000000	0.0000000000	20.4593422767	1.0000000000	631.5265889504	1.0000000000	0.0000000000	0.0000000000
0.3500000000	0.0000000000	1.0000000000	0.0000000000	1.0000000000	0.0000000000	0.0000000000	26.2696641572	1.0000000000	664.4963674615	1.0000000000	0.0000000000	0.0000000000
0.3600000000	0.0000000000	1.0000000000	0.0000000000	1.0000000000	0.0000000000	0.0000000000	33.3905511714	1.0000000000	704.4319517085	1.0000000000	0.0000000000	0.0000000000
0.3700000000	0.0000000000	1.0000000000	0.0000000000	1.0000000000	0.0000000000	0.0000000000	41.2829367583	1.0000000000	751.1912077156	1.0000000000	0.0000000000	0.0000000000
0.3800000000	0.0000000000	1.0000000000	0.0000000000	1.0000000000	0.0000000000	0.0000000000	50.5779227931	1.0000000000	802.7329007823	1.0000000000	0.0000000000	0.0000000000
0.3900000000	0.0000000000	1.0000000000	0.0000000000	1.0000000000	0.0000000000	0.0000000000	61.1225922787	1.0000000000	856.3483704234	1.0000000000	0.0000000000	0.0000000000
0.4000000000	1.3276642879	1.0000000000	0.1948274523	1.0000000000	0.0000000000	0.0000000000	72.3193631714	1.0000000000	910.6753249605	1.0000000000	0.0000000000	0.0000000000
0.4100000000	0.8105281746	1.0000000000	0.2392862255	1.0000000000	0.0000000000	0.0000000000	84.8312788349	1.0000000000	964.5734933737	1.0000000000	0.0000000000	0.0000000000
0.4200000000	0.0000000000	1.0000000000	0.0000000000	1.0000000000	0.0000000000	0.0000000000	98.6245051063	1.0000000000	1016.2832918935	1.0000000000	0.0000000000	0.0000000000
0.4300000000	0.0000000000	1.0000000000	0.0000000000	1.0000000000	0.0000000000	0.0000000000	113.0400280108	1.0000000000	1064.7222680979	1.0000000000	0.0000000000	0.0000000000
0.4400000000	0.0000000000	1.0000000000	0.0000000000	1.0000000000	0.0000000000	0.0000000000	128.7581242401	1.0000000000	1109.3389201250	1.0000000000	0.0000000000	0.0000000000
0.4500000000	0.0000000000	1.0000000000	0.0000000000	1.0000000000	0.0000000000	0.0000000000	146.0379302358	1.0000000000	1148.8767320808	1.0000000000	0.0000000000	0.0000000000
0.4600000000	0.0000000000	1.0000000000	0.0000000000	1.0000000000	0.0000000000	0.0000000000	163.9747889538	1.0000000000	1181.4288294880	1.0000000000	0.0000000000	0.0000000000
0.4700000000	0.0000000000	1.0000000000	0.0000000000	1.0000000000	0.0000000000	0.0000000000	182.6651152890	1.0000000000	1204.9104451815	1.0000000000	0.0000000000	0.0000000000
0.4800000000	0.0000000000	1.0000000000	0.0000000000	1.0000000000	0.0000000000	0.0000000000	202.8632721986	1.0000000000	1216.7508633207	1.0000000000	0.0000000000	0.0000000000
0.4900000000	18.5165012840	1.0000000000	23.5331673674	1.0000000000	0.0000000000	0.0000000000	223.7082680799	1.0000000000	1213.8635957947	1.0000000000	0.0000000000	0.0000000000
0.5000000000	25.3533194503	1.0000000000	87.9906886625	1.0000000000	0.0000000000	0.0000000000	244.3921664318	1.0000000000	1193.3807652235	1.0000000000	0.0000000000	0.0000000000
0.5100000000	26.5588346315	1.0000000000	191.6063859023	1.0000000000	0.0000000000	0.0000000000	264.2820557760	1.0000000000	1152.6389669786	1.0000000000	0.0000000000	0.0000000000
0.5200000000	13.0699830974	1.0000000000	327.1651148320	1.0000000000	0.0000000000	0.0000000000	280.4766261447	1.0000000000	1088.5902494127	1.0000000000	0.0000000000	0.0000000000
0.5300000000	-22.1386539693	1.0000000000	472.6765812792	1.0000000000	0.0000000000	0.0000000000	288.2055542233	1.0000000000	998.1295497744	1.0000000000	0.0000000000	0.0000000000
0.5400000000	-71.2088972988	1.0000000000	605.3777383681	1.0000000000	0.0000000000	0.0000000000	283.6915748172	1.0000000000	880.6020842658	1.0000000000	0.0000000000	0.0000000000
0.5500000000	-117.9727152923	1.0000000000	714.9311209485	1.0000000000	0.0000000000	0.0000000000	265.5017244450	1.0000000000	740.8151783487	1.0000000000	0.0000000000	0.0000000000
0.5600000000	-155.8479254045	1.0000000000	802.2780060390	1.0000000000	0.0000000000	0.0000000000	232.1344979799	1.0000000000	589.0556078115	1.0000000000	0.0000000000	0.0000000000
0.5700000000	-187.3981023314	1.0000000000	872.2741641433	1.0000000000	0.0000000000	0.0000000000	185.0374068767	1.0000000000	437.8076023269	1.0000000000	0.0000000000	0.0000000000
0.5800000000	-213.3853259466	1.0000000000	932.4013836231	1.0000000000	0.0000000000	0.0000000000	132.0024419792	1.0000000000	299.7449761492	1.0000000000	0.0000000000	0.0000000000
0.5900000000	-233.5733697806	1.0000000000	990.8704089618	1.0000000000	0.0000000000	0.0000000000	82.1212939208	1.0000000000	186.8812233669	1.0000000000	0.0000000000	0.0000000000
0.6000000000	-248.0190155449	1.0000000000	1050.4071960224	1.0000000000	0.0000000000	0.0000000000	41.3170052836	1.0000000000	105.4086195499	1.0000000000	0.0000000000	0.0000000000
0.6100000000	-255.6868189223	1.0000000000	1107.7633083289	1.0000000000	0.0000000000	0.0000000000	13.8213737842	1.0000000000	52.1564097974	1.0000000000	0.0000000000	0.0000000000
0.6200000000	-255.6420885669	1.0000000000	1159.0625300849	1.0000000000	0.0000000000	0.0000000000	-1.2201305174	1.0000000000	20.0104558118	1.0000000000	0.0000000000	0.0000000000
0.6300000000	-249.4014232570	1.0000000000	1200.4064817728	1.0000000000	0.0000000000	0.0000000000	-7.6194496773	1.0000000000	3.5120861806	1.0000000000	0.0000000000	0.0000000000
0.6400000000	-237.5421662272	1.0000000000	1225.7576245357	1.0000000000	0.0000000000	0.0000000000	0.0000000000	1.0000000000	0.0000000000	1.0000000000	0.0000000000	0.0000000000
0.6500000000	-219.7773579834	1.0000000000	1230.7989250723	1.0000000000	0.0000000000	0.0000000000	0.0000000000	1.0000000000	0.0000000000	1.0000000000	0.0000000000	0.0000000000
0.6600000000	-198.5604825626	1.0000000000	1216.5941994429	1.0000000000	0.0000000000	0.0000000000	0.0000000000	1.0000000000	0.0000000000	1.0000000000	0.0000000000	0.0000000000
0.6700000000	-175.3531502132	1.0000000000	1185.6795220724	1.0000000000	0.0000000000	0.0000000000	0.0000000000	1.0000000000	0.0000000000	1.0000000000	0.0000000000	0.0000000000
0.6800000000	-150.4263881350	1.0000000000	1139.0663135652	1.0000000000	0.0000000000	0.0000000000	0.0000000000	1.0000000000	0.0000000000	1.0000000000	0.0000000000	0.0000000000
0.6900000000	-125.8643431013	1.0000000000	1079.0316601800	1.0000000000	0.0000000000	0.0000000000	3.0303531617	1.0000000000	0.1752142738	1.0000000000	0.0000000000	0.0000000000
0.7000000000	-103.5064527468	1.0000000000	1010.7491132288	1.0000000000	0.0000000000	0.0000000000	2.4741035965	1.0000000000	0.0296260344	1.0000000000	0.0000000000	0.0000000000
0.7100000000	-82.9534204666	1.0000000000	938.6333713291	1.0000000000	0.0000000000	0.0000000000	2.5340864864	1.0000000000	0.1939292228	1.0000000000	0.0000000000	0.0000000000
0.7200000000	-65.2176812808	1.0000000000	864.9854767306	1.0000000000	0.0000000000	0.0000000000	2.7981579330	1.0000000000	0.3837974514	1.0000000000	0.0000000000	0.0000000000
0.7300000000	-51.1345431361	1.0000000000	793.5533258241	1.0000000000	0.0000000000	0.0000000000	2.0470059605	1.0000000000	0.1401365664	1.0000000000	0.0000000000	0.0000000000
0.7400000000	-39.3617946312	1.0000000000	729.1963977327	1.0000000000	0.0000000000	0.0000000000	0.0000000000	1.0000000000	0.0000000000	1.0000000000	0.0000000000	0.0000000000
0.7500000000	-29.4557793106	1.0000000000	673.9763536118	1.0000000000	0.0000000000	0.0000000000	0.0000000000	1.0000000000	0.0000000000	1.0000000000	0.0000000000	0.0000000000
0.7600000000	-22.0895019395	1.0000000000	628.0712627647	1.0000000000	0.0000000000	0.0000000000	0.0000000000	1.0000000000	0.0000000000	1.0000000000	0.0000000000	0.0000000000
0.7700000000	-16.1771693654	1.0000000000	593.0776629287	1.0000000000	0.0000000000	0.0000000000	0.0000000000	1.0000000000	0.0000000000	1.0000000000	0.0000000000	0.0000000000
0.7800000000	-10.8161737237	1.0000000000	569.8229704600	1.0000000000	0.0000000000	0.0000000000	0.0000000000	1.0000000000	0.0000000000	1.0000000000	0.0000000000	0.0000000000
0.7900000000	-6.7658761683	1.0000000000	556.2999986550	1.0000000000	0.0000000000	0.0000000000	0.0000000000	1.0000000000	0.0000000000	1.0000000000	0.0000000000	0.0000000000
0.8000000000	-3.6872573061	1.0000000000	551.1066809195	1.0000000000	0.0000000000	0.0000000000	0.0000000000	1.0000000000	0.0000000000	1.0000000000	0.0000000000	0.0000000000
0.8100000000	-0.4577689699	1.0000000000	554.6955351147	1.0000000000	0.0000000000	0.0000000000	0.0000000000	1.0000000000	0.0000000000	1.0000000000	0.0000000000	0.0000000000
0.8200000000	2.8314676468	1.0000000000	566.4315222662	1.0000000000	0.0000000000	0.0000000000	0.0000000000	1.0000000000	0.0000000000	1.0000000000	0.0000000000	0.0000000000
0.8300000000	6.4210061575	1.0000000000	584.5701341300	1.0000000000	0.0000000000	0.0000000000	0.0000000000	1.0000000000	0.0000000000	1.0000000000	0.0000000000	0.0000000000
0.8400000000	11.3024006031	1.0000000000	609.0998959049	1.0000000000	0.0000000000	0.0000000000	0.0000000000	1.0000000000	0.0000000000	1.0000000000	0.0000000000	0.0000000000
0.8500000000	17.3513708486	1.0000000000	641.0539301991	1.0000000000	0.0000000000	0.0000000000	0.0000000000	1.0000000000	0.0000000000	1.0000000000	0.0000000000	0.0000000000
0.8600000000	24.5971970533	1.0000000000	679.8664043673	1.0000000000	0.0000000000	0.0000000000	0.0000000000	1.0000000000	0.0000000000	1.0000000000	0.0000000000	0.0000000000
0.8700000000	33.4275000992	1.0000000000	724.2742525765	1.0000000000	0.0000000000	0.0000000000	0.0000000000	1.0000000000	0.0000000000	1.0000000000	0.0000000000	0.0000000000
0.8800000000	43.2049511556	1.0000000000	774.1513437802	1.0000000000	0.0000000000	0.0000000000	0.0000000000	1.0000000000	0.0000000000	1.0000000000	0.0000000000	0.0000000000
0.8900000000	53.2814006818	1.0000000000	828.9360738129	1.0000000000	0.0000000000	0.0000000000	1.6550691226	1.0000000000	0.0909511696	1.0000000000	0.0000000000	0.0000000000
0.9000000000	64.2141667211	1.0000000000	885.9663316019	1.0000000000	0.0000000000	0.0000000000	1.5806430968	1.0000000000	0.2439110133	1.0000000000	0.0000000000	0.0000000000
0.9100000000	75.7753391120	1.0000000000	942.5504407974	1.0000000000	0.0000000000	0.0000000000	1.4856211670	1.0000000000	0.0142173680	1.0000000000	0.0000000000	0.0000000000
0.9200000000	87.2530015686	1.0000000000	997.4786795622	1.0000000000	0.0000000000	0.0000000000	0.0000000000	1.0000000000	0.0000000000	1.0000000000	0.0000000000	0.0000000000
0.9300000000	99.2399868983	1.0000000000	1049.0947478477	1.0000000000	0.0000000000	0.0000000000	0.0000000000	1.0000000000	0.0000000000	1.0000000000	0.0000000000	0.0000000000
0.9400000000	111.8813704066	1.0000000000	1094.9052225274	1.0000000000	0.0000000000	0.0000000000	0.0000000000	1.0000000000	0.0000000000	1.0000000000	0.0000000000	0.0000000000
0.9500000000	124.6447875343	1.0000000000	1133.7518170190	1.0000000000	0.0000000000	0.0000000000	0.0000000000	1.0000000000	0.0000000000	1.0000000000	0.0000000000	0.0000000000
0.9600000000	138.4646913456	1.0000000000	1165.6542937296	1.0000000000	0.0000000000	0.0000000000	0.0000000000	1.0000000000	0.0000000000	1.0000000000	0.0000000000	0.0000000000
0.9700000000	154.6990410647	1.0000000000	1189.3818598442	1.0000000000	0.0000000000	0.0000000000	0.0000000000	1.0000000000	0.0000000000	1.0000000000	0.0000000000	0.0000000000
0.9800000000	173.3200361531	1.0000000000	1202.3349033234	1.0000000000	0.0000000000	0.0000000000	0.0000000000	1.0000000000	0.0000000000	1.0000000000	0.0000000000	0.0000000000
0.9900000000	194.4377625548	1.0000000000	1202.2078815386	1.0000000000	0.0000000000	0.0000000000	20.3227441223	1.0000000000	11.8466961962	1.0000000000	0.0000000000	0.0000000000
