name p10_grf_mean_speed_1.4
datacolumns 13
datarows 100
range 0.00000000 0.99000000
endheader
time	grf_x_l_mean	grf_x_l_var	grf_y_l_mean	grf_y_l_var	grf_z_l_mean	grf_z_l_var	grf_x_r_mean	grf_x_r_var	grf_y_r_mean	grf_y_r_var	grf_z_r_mean	grf_z_r_var
0.0000000000	139.5851149137	1.0000000000	1131.2097943373	1.0000000000	0.0000000000	0.0000000000	19.4581053758	1.0000000000	11.4834072980	1.0000000000	0.0000000000	0.0000000000
0.0100000000	157.2455780957	1.0000000000	1123.7677118456	1.0000000000	0.0000000000	0.0000000000	33.8381565729	1.0000000000	59.0410518140	1.0000000000	0.0000000000	0.0000000000
0.0200000000	177.6034850120	1.0000000000	1103.8348559638	1.0000000000	0.0000000000	0.0000000000	46.3890097710	1.0000000000	139.1098440153	1.0000000000	0.0000000000	0.0000000000
0.0300000000	199.0878130384	1.0000000000	1067.8552792006	1.0000000000	0.0000000000	0.0000000000	45.4668028357	1.0000000000	246.4100814969	1.0000000000	0.0000000000	0.0000000000
0.0400000000	217.9580394257	1.0000000000	1010.6732340513	1.0000000000	0.0000000000	0.0000000000	21.2468315330	1.0000000000	364.8788121509	1.0000000000	0.0000000000	0.0000000000
0.0500000000	230.2797300194	1.0000000000	928.8417990479	1.0000000000	0.0000000000	0.0000000000	-17.5375282713	1.0000000000	479.3583034283	1.0000000000	0.0000000000	0.0000000000
0.0600000000	234.8558256933	1.0000000000	822.9234090101	1.0000000000	0.0000000000	0.0000000000	-55.4172228093	1.0000000000	581.6181300810	1.0000000000	0.0000000000	0.0000000000
0.0700000000	226.3545641572	1.0000000000	696.0614160829	1.0000000000	0.0000000000	0.0000000000	-87.9614855945	1.0000000000	668.9657565029	1.0000000000	0.0000000000	0.0000000000
0.0800000000	201.1985656098	1.0000000000	554.8067537767	1.0000000000	0.0000000000	0.0000000000	-116.1258936781	1.0000000000	741.7583260476	1.0000000000	0.0000000000	0.0000000000
0.0900000000	162.8535490057	1.0000000000	411.5624623128	1.0000000000	0.0000000000	0.0000000000	-136.9407103405	1.0000000000	805.4220041749	1.0000000000	0.0000000000	0.0000000000
0.1000000000	115.7156226199	1.0000000000	281.7493163420	1.0000000000	0.0000000000	0.0000000000	-152.8246136214	1.0000000000	868.6544457595	1.0000000000	0.0000000000	0.0000000000
0.1100000000	66.8663699545	1.0000000000	175.8086950846	1.0000000000	0.0000000000	0.0000000000	-165.6256315483	1.0000000000	934.5285087558	1.0000000000	0.0000000000	0.0000000000
0.1200000000	28.5675397760	1.0000000000	97.8109820975	1.0000000000	0.0000000000	0.0000000000	-172.6807360581	1.0000000000	999.7564463964	1.0000000000	0.0000000000	0.0000000000
0.1300000000	3.0656180599	1.0000000000	47.4189725037	1.0000000000	0.0000000000	0.0000000000	-173.4649562989	1.0000000000	1060.3344848111	1.0000000000	0.0000000000	0.0000000000
0.1400000000	-11.4299897822	1.0000000000	19.5814162616	1.0000000000	0.0000000000	0.0000000000	-170.9252976893	1.0000000000	1111.7836491023	1.0000000000	0.0000000000	0.0000000000
0.1500000000	-14.5448034496	1.0000000000	5.3244639913	1.0000000000	0.0000000000	0.0000000000	-163.4022099854	1.0000000000	1147.6919851368	1.0000000000	0.0000000000	0.0000000000
0.1600000000	0.0000000000	1.0000000000	0.0000000000	1.0000000000	0.0000000000	0.0000000000	-150.9618311712	1.0000000000	1164.3661938821	1.0000000000	0.0000000000	0.0000000000
0.1700000000	0.0000000000	1.0000000000	0.0000000000	1.0000000000	0.0000000000	0.0000000000	-137.0245100357	1.0000000000	1163.3906087223	1.0000000000	0.0000000000	0.0000000000
0.1800000000	0.0000000000	1.0000000000	0.0000000000	1.0000000000	0.0000000000	0.0000000000	-122.0012764850	1.0000000000	1147.3039497142	1.0000000000	0.0000000000	0.0000000000
0.1900000000	0.0000000000	1.0000000000	0.0000000000	1.0000000000	0.0000000000	0.0000000000	-105.1960090160	1.0000000000	1117.2312791500	1.0000000000	0.0000000000	0.0000000000
0.2000000000	0.0000000000	1.0000000000	0.0000000000	1.0000000000	0.0000000000	0.0000000000	-89.3089041715	1.0000000000	1074.7208515689	1.0000000000	0.0000000000	0.0000000000
0.2100000000	0.3386675625	1.0000000000	0.0299697597	1.0000000000	0.0000000000	0.0000000000	-74.2708995485	1.0000000000	1023.5047989311	1.0000000000	0.0000000000	0.0000000000
0.2200000000	1.2944353520	1.0000000000	0.4477887806	1.0000000000	0.0000000000	0.0000000000	-59.7814461519	1.0000000000	968.4291910935	1.0000000000	0.0000000000	0.0000000000
0.2300000000	0.2490888748	1.0000000000	0.1145332207	1.0000000000	0.0000000000	0.0000000000	-47.4988846447	1.0000000000	912.9513637523	1.0000000000	0.0000000000	0.0000000000
0.2400000000	0.0000000000	1.0000000000	0.0000000000	1.0000000000	0.0000000000	0.0000000000	-36.9495709793	1.0000000000	858.9062323938	1.0000000000	0.0000000000	0.0000000000
0.2500000000	0.5334343031	1.0000000000	0.0038635161	1.0000000000	0.0000000000	0.0000000000	-27.3585321057	1.0000000000	808.6338099218	1.0000000000	0.0000000000	0.0000000000
0.2600000000	0.0000000000	1.0000000000	0.0000000000	1.0000000000	0.0000000000	0.0000000000	-19.4051373617	1.0000000000	764.9284287180	1.0000000000	0.0000000000	0.0000000000
0.2700000000	0.0000000000	1.0000000000	0.0000000000	1.0000000000	0.0000000000	0.0000000000	-12.8217367595	1.0000000000	729.0530126098	1.0000000000	0.0000000000	0.0000000000
0.2800000000	0.0000000000	1.0000000000	0.0000000000	1.0000000000	0.0000000000	0.0000000000	-6.7066567809	1.0000000000	701.3619466464	1.0000000000	0.0000000000	0.0000000000
0.2900000000	0.1972018891	1.0000000000	0.0294247944	1.0000000000	0.0000000000	0.0000000000	-1.7645397235	1.0000000000	682.1245421119	1.0000000000	0.0000000000	0.0000000000
0.3000000000	0.0000000000	1.0000000000	0.0000000000	1.0000000000	0.0000000000	0.0000000000	2.8213974910	1.0000000000	670.9938235021	1.0000000000	0.0000000000	0.0000000000
0.3100000000	0.0000000000	1.0000000000	0.0000000000	1.0000000000	0.0000000000	0.0000000000	7.3150312202	1.0000000000	667.6913083342	1.0000000000	0.0000000000	0.0000000000
0.3200000000	0.0000000000	1.0000000000	0.0000000000	1.0000000000	0.0000000000	0.0000000000	11.0411451049	1.0000000000	672.3634088564	1.0000000000	0.0000000000	0.0000000000
0.3300000000	0.0000000000	1.0000000000	0.0000000000	1.0000000000	0.0000000000	0.0000000000	15.0895716082	1.0000000000	684.4949139340	1.0000000000	0.0000000000	0.0000000000
0.3400000000	0.0000000000	1.0000000000	0.0000000000	1.0000000000	0.0000000000	0.0000000000	20.4091241102	1.0000000000	703.6854814101	1.0000000000	0.0000000000	0.0000000000
0.3500000000	0.0000000000	1.0000000000	0.0000000000	1.0000000000	0.0000000000	0.0000000000	25.8747018705	1.0000000000	730.7492787968	1.0000000000	0.0000000000	0.0000000000
0.3600000000	-0.6256843387	1.0000000000	0.2163347091	1.0000000000	0.0000000000	0.0000000000	32.0827711276	1.0000000000	765.3837636160	1.0000000000	0.0000000000	0.0000000000
0.3700000000	-0.3884359213	1.0000000000	0.2393471576	1.0000000000	0.0000000000	0.0000000000	39.6800929626	1.0000000000	805.4110613372	1.0000000000	0.0000000000	0.0000000000
0.3800000000	-0.2954731913	1.0000000000	0.2301752014	1.0000000000	0.0000000000	0.0000000000	47.5485594821	1.0000000000	848.7749059611	1.0000000000	0.0000000000	0.0000000000
0.3900000000	-0.6659145588	1.0000000000	0.6996180482	1.0000000000	0.0000000000	0.0000000000	55.6429528714	1.0000000000	893.7827834312	1.0000000000	0.0000000000	0.0000000000
0.4000000000	-0.4935214659	1.0000000000	0.9555947606	1.0000000000	0.0000000000	0.0000000000	64.6213989854	1.0000000000	938.2388339815	1.0000000000	0.0000000000	0.0000000000
0.4100000000	-0.5076677786	1.0000000000	0.5385562916	1.0000000000	0.0000000000	0.0000000000	73.2894460628	1.0000000000	980.2939848316	1.0000000000	0.0000000000	0.0000000000
0.4200000000	0.0000000000	1.0000000000	0.0000000000	1.0000000000	0.0000000000	0.0000000000	82.1559041687	1.0000000000	1018.9373719328	1.0000000000	0.0000000000	0.0000000000
0.4300000000	0.0000000000	1.0000000000	0.0000000000	1.0000000000	0.0000000000	0.0000000000	92.2544303275	1.0000000000	1053.6871705299	1.0000000000	0.0000000000	0.0000000000
0.4400000000	0.0000000000	1.0000000000	0.0000000000	1.0000000000	0.0000000000	0.0000000000	102.7024987052	1.0000000000	1084.9890714024	1.0000000000	0.0000000000	0.0000000000
0.4500000000	0.0000000000	1.0000000000	0.0000000000	1.0000000000	0.0000000000	0.0000000000	113.5080088362	1.0000000000	1113.3064110204	1.0000000000	0.0000000000	0.0000000000
0.4600000000	0.0000000000	1.0000000000	0.0000000000	1.0000000000	0.0000000000	0.0000000000	126.2296308693	1.0000000000	1137.4212592001	1.0000000000	0.0000000000	0.0000000000
0.4700000000	0.0000000000	1.0000000000	0.0000000000	1.0000000000	0.0000000000	0.0000000000	140.4788594041	1.0000000000	1155.1197955279	1.0000000000	0.0000000000	0.0000000000
0.4800000000	0.0000000000	1.0000000000	0.0000000000	1.0000000000	0.0000000000	0.0000000000	155.8994996043	1.0000000000	1164.7843074107	1.0000000000	0.0000000000	0.0000000000
0.4900000000	15.6588017858	1.0000000000	27.8477582184	1.0000000000	0.0000000000	0.0000000000	173.3645357105	1.0000000000	1164.5768328384	1.0000000000	0.0000000000	0.0000000000
0.5000000000	23.3782804125	1.0000000000	87.6790926472	1.0000000000	0.0000000000	0.0000000000	192.0067220081	1.0000000000	1151.1643578774	1.0000000000	0.0000000000	0.0000000000
0.5100000000	25.0327340553	1.0000000000	179.2676549520	1.0000000000	0.0000000000	0.0000000000	210.4000341485	1.0000000000	1120.8439776396	1.0000000000	0.0000000000	0.0000000000
0.5200000000	12.6203719056	1.0000000000	293.8432407424	1.0000000000	0.0000000000	0.0000000000	227.4648040394	1.0000000000	1070.7642337012	1.0000000000	0.0000000000	0.0000000000
0.5300000000	-17.3853371621	1.0000000000	414.4071590291	1.0000000000	0.0000000000	0.0000000000	239.5173129145	1.0000000000	998.4272026711	1.0000000000	0.0000000000	0.0000000000
0.5400000000	-56.5104865825	1.0000000000	525.3092184503	1.0000000000	0.0000000000	0.0000000000	243.0405336762	1.0000000000	902.2261632444	1.0000000000	0.0000000000	0.0000000000
0.5500000000	-92.5399646310	1.0000000000	618.9656181086	1.0000000000	0.0000000000	0.0000000000	236.7632238726	1.0000000000	783.6250138771	1.0000000000	0.0000000000	0.0000000000
0.5600000000	-122.1157857172	1.0000000000	695.2078134055	1.0000000000	0.0000000000	0.0000000000	217.7552802387	1.0000000000	647.9852611242	1.0000000000	0.0000000000	0.0000000000
0.5700000000	-146.5079891361	1.0000000000	758.1860650928	1.0000000000	0.0000000000	0.0000000000	184.9228651882	1.0000000000	504.3497162390	1.0000000000	0.0000000000	0.0000000000
0.5800000000	-165.9135131103	1.0000000000	815.0731113468	1.0000000000	0.0000000000	0.0000000000	142.8908502313	1.0000000000	365.7124176750	1.0000000000	0.0000000000	0.0000000000
0.5900000000	-181.9595445594	1.0000000000	872.5550228642	1.0000000000	0.0000000000	0.0000000000	97.8015225859	1.0000000000	245.4045169482	1.0000000000	0.0000000000	0.0000000000
0.6000000000	-194.7756842507	1.0000000000	932.5448229591	1.0000000000	0.0000000000	0.0000000000	56.5223733619	1.0000000000	150.5096263849	1.0000000000	0.0000000000	0.0000000000
0.6100000000	-202.5746231236	1.0000000000	993.1041406501	1.0000000000	0.0000000000	0.0000000000	25.6659887585	1.0000000000	81.6506098234	1.0000000000	0.0000000000	0.0000000000
0.6200000000	-205.7353087041	1.0000000000	1050.9446132920	1.0000000000	0.0000000000	0.0000000000	5.7595140262	1.0000000000	37.4918174579	1.0000000000	0.0000000000	0.0000000000
0.6300000000	-204.8080419509	1.0000000000	1100.6408970664	1.0000000000	0.0000000000	0.0000000000	-5.0124835058	1.0000000000	13.7422159288	1.0000000000	0.0000000000	0.0000000000
0.6400000000	-198.1134971467	1.0000000000	1135.8815258327	1.0000000000	0.0000000000	0.0000000000	-7.9756705441	1.0000000000	2.1463137480	1.0000000000	0.0000000000	0.0000000000
0.6500000000	-186.8250685398	1.0000000000	1153.9834886840	1.0000000000	0.0000000000	0.0000000000	0.0000000000	1.0000000000	0.0000000000	1.0000000000	0.0000000000	0.0000000000
0.6600000000	-172.8939886273	1.0000000000	1155.7779479825	1.0000000000	0.0000000000	0.0000000000	0.0000000000	1.0000000000	0.0000000000	1.0000000000	0.0000000000	0.0000000000
0.6700000000	-156.0271017670	1.0000000000	1141.9645908740	1.0000000000	0.0000000000	0.0000000000	0.0000000000	1.0000000000	0.0000000000	1.0000000000	0.0000000000	0.0000000000
0.6800000000	-137.5593749742	1.0000000000	1113.3609151067	1.0000000000	0.0000000000	0.0000000000	0.0000000000	1.0000000000	0.0000000000	1.0000000000	0.0000000000	0.0000000000
0.6900000000	-119.6834447724	1.0000000000	1072.6825238232	1.0000000000	0.0000000000	0.0000000000	0.0000000000	1.0000000000	0.0000000000	1.0000000000	0.0000000000	0.0000000000
0.7000000000	-102.1633670300	1.0000000000	1023.1910301940	1.0000000000	0.0000000000	0.0000000000	0.0000000000	1.0000000000	0.0000000000	1.0000000000	0.0000000000	0.0000000000
0.7100000000	-85.8515299424	1.0000000000	967.5117937372	1.0000000000	0.0000000000	0.0000000000	1.6531989651	1.0000000000	0.2178203648	1.0000000000	0.0000000000	0.0000000000
0.7200000000	-72.0091509864	1.0000000000	909.3691396874	1.0000000000	0.0000000000	0.0000000000	1.2020276764	1.0000000000	0.1267855970	1.0000000000	0.0000000000	0.0000000000
0.7300000000	-59.4913203201	1.0000000000	853.1217352036	1.0000000000	0.0000000000	0.0000000000	0.0000000000	1.0000000000	0.0000000000	1.0000000000	0.0000000000	0.0000000000
0.7400000000	-48.0703131280	1.0000000000	801.4386970695	1.0000000000	0.0000000000	0.0000000000	0.0000000000	1.0000000000	0.0000000000	1.0000000000	0.0000000000	0.0000000000
0.7500000000	-38.7738987303	1.0000000000	756.1218635272	1.0000000000	0.0000000000	0.0000000000	0.0000000000	1.0000000000	0.0000000000	1.0000000000	0.0000000000	0.0000000000
0.7600000000	-30.5526925194	1.0000000000	719.3670822942	1.0000000000	0.0000000000	0.0000000000	0.9869686999	1.0000000000	0.0236043222	1.0000000000	0.0000000000	0.0000000000
0.7700000000	-22.9239964629	1.0000000000	691.8675236051	1.0000000000	0.0000000000	0.0000000000	0.9802857036	1.0000000000	0.3356737559	1.0000000000	0.0000000000	0.0000000000
0.7800000000	-17.0267299647	1.0000000000	672.4645510432	1.0000000000	0.0000000000	0.0000000000	0.6663969303	1.0000000000	0.3898694880	1.0000000000	0.0000000000	0.0000000000
0.7900000000	-12.3995598154	1.0000000000	660.6869221509	1.0000000000	0.0000000000	0.0000000000	0.0000000000	1.0000000000	0.0000000000	1.0000000000	0.0000000000	0.0000000000
0.8000000000	-8.1845532598	1.0000000000	656.5508861934	1.0000000000	0.0000000000	0.0000000000	0.0000000000	1.0000000000	0.0000000000	1.0000000000	0.0000000000	0.0000000000
0.8100000000	-4.6822364258	1.0000000000	658.8484613419	1.0000000000	0.0000000000	0.0000000000	0.0000000000	1.0000000000	0.0000000000	1.0000000000	0.0000000000	0.0000000000
0.8200000000	-1.2380877851	1.0000000000	666.4926610184	1.0000000000	0.0000000000	0.0000000000	0.5009364871	1.0000000000	0.0017036072	1.0000000000	0.0000000000	0.0000000000
0.8300000000	2.9548023657	1.0000000000	679.9468723845	1.0000000000	0.0000000000	0.0000000000	0.0000000000	1.0000000000	0.0000000000	1.0000000000	0.0000000000	0.0000000000
0.8400000000	7.6993245394	1.0000000000	699.5026211710	1.0000000000	0.0000000000	0.0000000000	0.0000000000	1.0000000000	0.0000000000	1.0000000000	0.0000000000	0.0000000000
0.8500000000	13.4314652094	1.0000000000	724.3259723243	1.0000000000	0.0000000000	0.0000000000	0.0000000000	1.0000000000	0.0000000000	1.0000000000	0.0000000000	0.0000000000
0.8600000000	20.4061118754	1.0000000000	754.0779652844	1.0000000000	0.0000000000	0.0000000000	0.0000000000	1.0000000000	0.0000000000	1.0000000000	0.0000000000	0.0000000000
0.8700000000	27.8769153121	1.0000000000	788.8147151184	1.0000000000	0.0000000000	0.0000000000	0.0000000000	1.0000000000	0.0000000000	1.0000000000	0.0000000000	0.0000000000
0.8800000000	35.7706417542	1.0000000000	827.2234869157	1.0000000000	0.0000000000	0.0000000000	0.5413541759	1.0000000000	0.0523908128	1.0000000000	0.0000000000	0.0000000000
0.8900000000	44.2440996512	1.0000000000	867.3892414701	1.0000000000	0.0000000000	0.0000000000	0.5462735502	1.0000000000	0.2792343772	1.0000000000	0.0000000000	0.0000000000
0.9000000000	52.6227942728	1.0000000000	908.4711031688	1.0000000000	0.0000000000	0.0000000000	0.3947770391	1.0000000000	0.5707640803	1.0000000000	0.0000000000	0.0000000000
0.9100000000	60.9761104003	1.0000000000	949.4904561115	1.0000000000	0.0000000000	0.0000000000	0.1364136855	1.0000000000	0.6806357935	1.0000000000	0.0000000000	0.0000000000
0.9200000000	69.6690404474	1.0000000000	988.4169028317	1.0000000000	0.0000000000	0.0000000000	-0.0226450560	1.0000000000	0.1524126044	1.0000000000	0.0000000000	0.0000000000
0.9300000000	78.1768325899	1.0000000000	1023.8706778160	1.0000000000	0.0000000000	0.0000000000	0.0000000000	1.0000000000	0.0000000000	1.0000000000	0.0000000000	0.0000000000
0.9400000000	86.4282137094	1.0000000000	1055.4352523782	1.0000000000	0.0000000000	0.0000000000	0.0000000000	1.0000000000	0.0000000000	1.0000000000	0.0000000000	0.0000000000
0.9500000000	94.8050758824	1.0000000000	1082.1840497044	1.0000000000	0.0000000000	0.0000000000	0.0000000000	1.0000000000	0.0000000000	1.0000000000	0.0000000000	0.0000000000
0.9600000000	103.2771152721	1.0000000000	1103.1783345146	1.0000000000	0.0000000000	0.0000000000	0.0000000000	1.0000000000	0.0000000000	1.0000000000	0.0000000000	0.0000000000
0.9700000000	112.7432788683	1.0000000000	1118.6327130980	1.0000000000	0.0000000000	0.0000000000	0.0000000000	1.0000000000	0.0000000000	1.0000000000	0.0000000000	0.0000000000
0.9800000000	124.7016405397	1.0000000000	1128.5312009531	1.0000000000	0.0000000000	0.0000000000	0.0000000000	1.0000000000	0.0000000000	1.0000000000	0.0000000000	0.0000000000
0.9900000000	139.5401212755	1.0000000000	1131.0844982399	1.0000000000	0.0000000000	0.0000000000	19.4519545322	1.0000000000	11.4755274315	1.0000000000	0.0000000000	0.0000000000
