name p10_grf_mean_speed_1.2
datacolumns 13
datarows 100
range 0.00000000 0.99000000
endheader
time	grf_x_l_mean	grf_x_l_var	grf_y_l_mean	grf_y_l_var	grf_z_l_mean	grf_z_l_var	grf_x_r_mean	grf_x_r_var	grf_y_r_mean	grf_y_r_var	grf_z_r_mean	grf_z_r_var
0.0000000000	107.4102006851	1.0000000000	1052.8784006887	1.0000000000	0.0000000000	0.0000000000	18.9556658297	1.0000000000	11.2130194093	1.0000000000	0.0000000000	0.0000000000
0.0100000000	115.9069167435	1.0000000000	1047.6437743677	1.0000000000	0.0000000000	0.0000000000	35.1578230011	1.0000000000	56.6819715137	1.0000000000	0.0000000000	0.0000000000
0.0200000000	129.0700243838	1.0000000000	1037.7081760071	1.0000000000	0.0000000000	0.0000000000	49.1801694399	1.0000000000	133.6714551657	1.0000000000	0.0000000000	0.0000000000
0.0300000000	146.1615720698	1.0000000000	1019.0657633722	1.0000000000	0.0000000000	0.0000000000	46.7122210065	1.0000000000	233.5936813834	1.0000000000	0.0000000000	0.0000000000
0.0400000000	164.1390700505	1.0000000000	985.6989613199	1.0000000000	0.0000000000	0.0000000000	20.0034204912	1.0000000000	338.7602103585	1.0000000000	0.0000000000	0.0000000000
0.0500000000	181.0584686754	1.0000000000	933.2765838059	1.0000000000	0.0000000000	0.0000000000	-17.1736447330	1.0000000000	437.3198447645	1.0000000000	0.0000000000	0.0000000000
0.0600000000	195.8031889464	1.0000000000	859.6290125359	1.0000000000	0.0000000000	0.0000000000	-50.0396458515	1.0000000000	525.8104487119	1.0000000000	0.0000000000	0.0000000000
0.0700000000	202.1167883911	1.0000000000	763.2778549816	1.0000000000	0.0000000000	0.0000000000	-78.6071179453	1.0000000000	603.3738686817	1.0000000000	0.0000000000	0.0000000000
0.0800000000	196.9421379225	1.0000000000	645.6257312558	1.0000000000	0.0000000000	0.0000000000	-102.3212759891	1.0000000000	670.6191166362	1.0000000000	0.0000000000	0.0000000000
0.0900000000	178.8887756731	1.0000000000	514.0446810465	1.0000000000	0.0000000000	0.0000000000	-120.1747327569	1.0000000000	732.7521703204	1.0000000000	0.0000000000	0.0000000000
0.1000000000	144.7266490198	1.0000000000	379.4208982872	1.0000000000	0.0000000000	0.0000000000	-136.0112708411	1.0000000000	793.1428637324	1.0000000000	0.0000000000	0.0000000000
0.1100000000	101.2737525359	1.0000000000	254.8547537513	1.0000000000	0.0000000000	0.0000000000	-147.2140998307	1.0000000000	851.1625128903	1.0000000000	0.0000000000	0.0000000000
0.1200000000	57.2226750203	1.0000000000	154.1511654790	1.0000000000	0.0000000000	0.0000000000	-152.0741422647	1.0000000000	908.5485219237	1.0000000000	0.0000000000	0.0000000000
0.1300000000	19.6582246992	1.0000000000	84.2657211822	1.0000000000	0.0000000000	0.0000000000	-153.7946224649	1.0000000000	966.6536261530	1.0000000000	0.0000000000	0.0000000000
0.1400000000	-3.1469094495	1.0000000000	41.1273339016	1.0000000000	0.0000000000	0.0000000000	-150.9300560198	1.0000000000	1020.0475693859	1.0000000000	0.0000000000	0.0000000000
0.1500000000	-12.8156881990	1.0000000000	17.2034533399	1.0000000000	0.0000000000	0.0000000000	-143.2680672311	1.0000000000	1062.0930966792	1.0000000000	0.0000000000	0.0000000000
0.1600000000	-14.7799860061	1.0000000000	5.8626872419	1.0000000000	0.0000000000	0.0000000000	-134.1950315433	1.0000000000	1090.3344026795	1.0000000000	0.0000000000	0.0000000000
0.1700000000	-9.7811060179	1.0000000000	0.7982766125	1.0000000000	0.0000000000	0.0000000000	-123.3548681413	1.0000000000	1103.6222620866	1.0000000000	0.0000000000	0.0000000000
0.1800000000	0.0000000000	1.0000000000	0.0000000000	1.0000000000	0.0000000000	0.0000000000	-110.9995758146	1.0000000000	1100.8597426144	1.0000000000	0.0000000000	0.0000000000
0.1900000000	0.0000000000	1.0000000000	0.0000000000	1.0000000000	0.0000000000	0.0000000000	-99.0698476284	1.0000000000	1082.8452466964	1.0000000000	0.0000000000	0.0000000000
0.2000000000	0.0000000000	1.0000000000	0.0000000000	1.0000000000	0.0000000000	0.0000000000	-86.2662763341	1.0000000000	1052.5813956799	1.0000000000	0.0000000000	0.0000000000
0.2100000000	0.0000000000	1.0000000000	0.0000000000	1.0000000000	0.0000000000	0.0000000000	-74.0716407683	1.0000000000	1013.6163955101	1.0000000000	0.0000000000	0.0000000000
0.2200000000	0.0000000000	1.0000000000	0.0000000000	1.0000000000	0.0000000000	0.0000000000	-63.0902636938	1.0000000000	969.1970422482	1.0000000000	0.0000000000	0.0000000000
0.2300000000	0.0000000000	1.0000000000	0.0000000000	1.0000000000	0.0000000000	0.0000000000	-52.3726644663	1.0000000000	923.1781417415	1.0000000000	0.0000000000	0.0000000000
0.2400000000	0.0000000000	1.0000000000	0.0000000000	1.0000000000	0.0000000000	0.0000000000	-42.5567495652	1.0000000000	879.4069521665	1.0000000000	0.0000000000	0.0000000000
0.2500000000	0.0000000000	1.0000000000	0.0000000000	1.0000000000	0.0000000000	0.0000000000	-33.8176385864	1.0000000000	840.0860108887	1.0000000000	0.0000000000	0.0000000000
0.2600000000	0.0000000000	1.0000000000	0.0000000000	1.0000000000	0.0000000000	0.0000000000	-25.5772295751	1.0000000000	807.2175862789	1.0000000000	0.0000000000	0.0000000000
0.2700000000	0.0000000000	1.0000000000	0.0000000000	1.0000000000	0.0000000000	0.0000000000	-18.3658818535	1.0000000000	782.2506721672	1.0000000000	0.0000000000	0.0000000000
0.2800000000	0.0000000000	1.0000000000	0.0000000000	1.0000000000	0.0000000000	0.0000000000	-11.5590818761	1.0000000000	764.6964510124	1.0000000000	0.0000000000	0.0000000000
0.2900000000	0.0000000000	1.0000000000	0.0000000000	1.0000000000	0.0000000000	0.0000000000	-5.5264334200	1.0000000000	754.0790642614	1.0000000000	0.0000000000	0.0000000000
0.3000000000	0.0000000000	1.0000000000	0.0000000000	1.0000000000	0.0000000000	0.0000000000	-0.4103251254	1.0000000000	750.2321287369	1.0000000000	0.0000000000	0.0000000000
0.3100000000	0.0000000000	1.0000000000	0.0000000000	1.0000000000	0.0000000000	0.0000000000	5.2908411729	1.0000000000	751.8710174391	1.0000000000	0.0000000000	0.0000000000
0.3200000000	0.0000000000	1.0000000000	0.0000000000	1.0000000000	0.0000000000	0.0000000000	11.2689576888	1.0000000000	758.7851770767	1.0000000000	0.0000000000	0.0000000000
0.3300000000	0.0000000000	1.0000000000	0.0000000000	1.0000000000	0.0000000000	0.0000000000	17.5721822464	1.0000000000	771.8309880345	1.0000000000	0.0000000000	0.0000000000
0.3400000000	0.0000000000	1.0000000000	0.0000000000	1.0000000000	0.0000000000	0.0000000000	25.2231810571	1.0000000000	790.4239418205	1.0000000000	0.0000000000	0.0000000000
0.3500000000	0.0000000000	1.0000000000	0.0000000000	1.0000000000	0.0000000000	0.0000000000	33.4210661197	1.0000000000	813.4858984188	1.0000000000	0.0000000000	0.0000000000
0.3600000000	0.0000000000	1.0000000000	0.0000000000	1.0000000000	0.0000000000	0.0000000000	41.8526700209	1.0000000000	840.3116042845	1.0000000000	0.0000000000	0.0000000000
0.3700000000	0.0000000000	1.0000000000	0.0000000000	1.0000000000	0.0000000000	0.0000000000	50.7035531655	1.0000000000	869.4453293351	1.0000000000	0.0000000000	0.0000000000
0.3800000000	0.0000000000	1.0000000000	0.0000000000	1.0000000000	0.0000000000	0.0000000000	58.7586537370	1.0000000000	899.0066830947	1.0000000000	0.0000000000	0.0000000000
0.3900000000	0.9676707233	1.0000000000	0.1622663836	1.0000000000	0.0000000000	0.0000000000	66.3415101906	1.0000000000	927.3472490064	1.0000000000	0.0000000000	0.0000000000
0.4000000000	1.0045285273	1.0000000000	0.5926525090	1.0000000000	0.0000000000	0.0000000000	73.7382476451	1.0000000000	953.3991873193	1.0000000000	0.0000000000	0.0000000000
0.4100000000	0.9051871852	1.0000000000	0.5858932056	1.0000000000	0.0000000000	0.0000000000	80.0799269911	1.0000000000	977.1249250291	1.0000000000	0.0000000000	0.0000000000
0.4200000000	0.5077120524	1.0000000000	0.1725019574	1.0000000000	0.0000000000	0.0000000000	86.1031892711	1.0000000000	998.6047162811	1.0000000000	0.0000000000	0.0000000000
0.4300000000	0.0000000000	1.0000000000	0.0000000000	1.0000000000	0.0000000000	0.0000000000	92.1626288181	1.0000000000	1017.5264908603	1.0000000000	0.0000000000	0.0000000000
0.4400000000	0.0000000000	1.0000000000	0.0000000000	1.0000000000	0.0000000000	0.0000000000	97.5067259160	1.0000000000	1034.2223281995	1.0000000000	0.0000000000	0.0000000000
0.4500000000	0.0000000000	1.0000000000	0.0000000000	1.0000000000	0.0000000000	0.0000000000	102.8261299584	1.0000000000	1049.5056359784	1.0000000000	0.0000000000	0.0000000000
0.4600000000	0.0000000000	1.0000000000	0.0000000000	1.0000000000	0.0000000000	0.0000000000	108.5271251262	1.0000000000	1063.3096717499	1.0000000000	0.0000000000	0.0000000000
0.4700000000	0.0000000000	1.0000000000	0.0000000000	1.0000000000	0.0000000000	0.0000000000	114.7425392507	1.0000000000	1074.7453033290	1.0000000000	0.0000000000	0.0000000000
0.4800000000	0.0000000000	1.0000000000	0.0000000000	1.0000000000	0.0000000000	0.0000000000	122.9482785305	1.0000000000	1082.8709470701	1.0000000000	0.0000000000	0.0000000000
0.4900000000	16.8999986890	1.0000000000	26.2156986687	1.0000000000	0.0000000000	0.0000000000	133.6418951323	1.0000000000	1086.3658996436	1.0000000000	0.0000000000	0.0000000000
0.5000000000	26.0239585723	1.0000000000	82.3567428392	1.0000000000	0.0000000000	0.0000000000	146.5405699329	1.0000000000	1082.7678298086	1.0000000000	0.0000000000	0.0000000000
0.5100000000	29.5380306871	1.0000000000	168.2919793831	1.0000000000	0.0000000000	0.0000000000	161.6679500399	1.0000000000	1068.6712838990	1.0000000000	0.0000000000	0.0000000000
0.5200000000	17.7958665708	1.0000000000	272.8966224908	1.0000000000	0.0000000000	0.0000000000	177.4848264245	1.0000000000	1040.1713618314	1.0000000000	0.0000000000	0.0000000000
0.5300000000	-11.4415899741	1.0000000000	377.6579967588	1.0000000000	0.0000000000	0.0000000000	191.4601968139	1.0000000000	993.4500036491	1.0000000000	0.0000000000	0.0000000000
0.5400000000	-46.7979955871	1.0000000000	469.6566239492	1.0000000000	0.0000000000	0.0000000000	202.4083560619	1.0000000000	926.0828480039	1.0000000000	0.0000000000	0.0000000000
0.5500000000	-77.6490010178	1.0000000000	546.5741763389	1.0000000000	0.0000000000	0.0000000000	207.7859225901	1.0000000000	837.3026282777	1.0000000000	0.0000000000	0.0000000000
0.5600000000	-102.6043014650	1.0000000000	611.2329333021	1.0000000000	0.0000000000	0.0000000000	203.6141684388	1.0000000000	727.6217838816	1.0000000000	0.0000000000	0.0000000000
0.5700000000	-122.6885408635	1.0000000000	667.8715265062	1.0000000000	0.0000000000	0.0000000000	188.4165247954	1.0000000000	600.9368557044	1.0000000000	0.0000000000	0.0000000000
0.5800000000	-139.8300367698	1.0000000000	722.2551861647	1.0000000000	0.0000000000	0.0000000000	161.5445951644	1.0000000000	466.7422845638	1.0000000000	0.0000000000	0.0000000000
0.5900000000	-154.9850902245	1.0000000000	778.0658197445	1.0000000000	0.0000000000	0.0000000000	124.1575592566	1.0000000000	337.0467940023	1.0000000000	0.0000000000	0.0000000000
0.6000000000	-166.5286328065	1.0000000000	835.8641718023	1.0000000000	0.0000000000	0.0000000000	83.4163646802	1.0000000000	222.8204237524	1.0000000000	0.0000000000	0.0000000000
0.6100000000	-174.5742554575	1.0000000000	896.3594601511	1.0000000000	0.0000000000	0.0000000000	46.4926235241	1.0000000000	133.4640259402	1.0000000000	0.0000000000	0.0000000000
0.6200000000	-179.1693344901	1.0000000000	957.9120783695	1.0000000000	0.0000000000	0.0000000000	18.1733025606	1.0000000000	72.6535122691	1.0000000000	0.0000000000	0.0000000000
0.6300000000	-178.4220248477	1.0000000000	1013.5375498472	1.0000000000	0.0000000000	0.0000000000	1.3395950201	1.0000000000	35.2738980599	1.0000000000	0.0000000000	0.0000000000
0.6400000000	-173.3098878562	1.0000000000	1056.7017312139	1.0000000000	0.0000000000	0.0000000000	-6.2218566698	1.0000000000	14.0397997085	1.0000000000	0.0000000000	0.0000000000
0.6500000000	-164.9282417287	1.0000000000	1085.1390139805	1.0000000000	0.0000000000	0.0000000000	-7.7341913505	1.0000000000	4.0494549335	1.0000000000	0.0000000000	0.0000000000
0.6600000000	-152.8178011209	1.0000000000	1098.0287450596	1.0000000000	0.0000000000	0.0000000000	-4.9367429511	1.0000000000	0.3343230271	1.0000000000	0.0000000000	0.0000000000
0.6700000000	-138.8196234933	1.0000000000	1095.7653777707	1.0000000000	0.0000000000	0.0000000000	0.0000000000	1.0000000000	0.0000000000	1.0000000000	0.0000000000	0.0000000000
0.6800000000	-124.1001766838	1.0000000000	1080.7537342576	1.0000000000	0.0000000000	0.0000000000	0.0000000000	1.0000000000	0.0000000000	1.0000000000	0.0000000000	0.0000000000
0.6900000000	-108.7817643979	1.0000000000	1054.6562618516	1.0000000000	0.0000000000	0.0000000000	0.0000000000	1.0000000000	0.0000000000	1.0000000000	0.0000000000	0.0000000000
0.7000000000	-95.0313897489	1.0000000000	1018.4550065187	1.0000000000	0.0000000000	0.0000000000	0.0000000000	1.0000000000	0.0000000000	1.0000000000	0.0000000000	0.0000000000
0.7100000000	-82.5926026737	1.0000000000	975.6253204053	1.0000000000	0.0000000000	0.0000000000	0.0000000000	1.0000000000	0.0000000000	1.0000000000	0.0000000000	0.0000000000
0.7200000000	-70.7016131930	1.0000000000	930.4685154820	1.0000000000	0.0000000000	0.0000000000	0.0000000000	1.0000000000	0.0000000000	1.0000000000	0.0000000000	0.0000000000
0.7300000000	-60.3045018906	1.0000000000	885.9099919557	1.0000000000	0.0000000000	0.0000000000	0.0000000000	1.0000000000	0.0000000000	1.0000000000	0.0000000000	0.0000000000
0.7400000000	-50.3541288222	1.0000000000	845.2210804173	1.0000000000	0.0000000000	0.0000000000	0.0000000000	1.0000000000	0.0000000000	1.0000000000	0.0000000000	0.0000000000
0.7500000000	-40.3145671142	1.0000000000	811.2108939105	1.0000000000	0.0000000000	0.0000000000	0.0000000000	1.0000000000	0.0000000000	1.0000000000	0.0000000000	0.0000000000
0.7600000000	-31.5889380881	1.0000000000	784.2056786700	1.0000000000	0.0000000000	0.0000000000	0.0000000000	1.0000000000	0.0000000000	1.0000000000	0.0000000000	0.0000000000
0.7700000000	-23.6003490300	1.0000000000	764.2774712010	1.0000000000	0.0000000000	0.0000000000	0.0000000000	1.0000000000	0.0000000000	1.0000000000	0.0000000000	0.0000000000
0.7800000000	-16.3271100962	1.0000000000	751.7830983031	1.0000000000	0.0000000000	0.0000000000	0.0000000000	1.0000000000	0.0000000000	1.0000000000	0.0000000000	0.0000000000
0.7900000000	-10.4067973027	1.0000000000	745.4303277941	1.0000000000	0.0000000000	0.0000000000	0.0000000000	1.0000000000	0.0000000000	1.0000000000	0.0000000000	0.0000000000
0.8000000000	-4.8576836449	1.0000000000	743.8585263399	1.0000000000	0.0000000000	0.0000000000	0.0000000000	1.0000000000	0.0000000000	1.0000000000	0.0000000000	0.0000000000
0.8100000000	0.3256463531	1.0000000000	747.0983832716	1.0000000000	0.0000000000	0.0000000000	0.0000000000	1.0000000000	0.0000000000	1.0000000000	0.0000000000	0.0000000000
0.8200000000	5.2327983174	1.0000000000	754.7034703743	1.0000000000	0.0000000000	0.0000000000	0.0000000000	1.0000000000	0.0000000000	1.0000000000	0.0000000000	0.0000000000
0.8300000000	10.8976272144	1.0000000000	765.9194773993	1.0000000000	0.0000000000	0.0000000000	0.0000000000	1.0000000000	0.0000000000	1.0000000000	0.0000000000	0.0000000000
0.8400000000	16.8882532991	1.0000000000	781.2863896477	1.0000000000	0.0000000000	0.0000000000	0.0000000000	1.0000000000	0.0000000000	1.0000000000	0.0000000000	0.0000000000
0.8500000000	23.2662874289	1.0000000000	800.9666147856	1.0000000000	0.0000000000	0.0000000000	0.0000000000	1.0000000000	0.0000000000	1.0000000000	0.0000000000	0.0000000000
0.8600000000	30.5625094119	1.0000000000	823.7162882145	1.0000000000	0.0000000000	0.0000000000	0.0000000000	1.0000000000	0.0000000000	1.0000000000	0.0000000000	0.0000000000
0.8700000000	37.7079588102	1.0000000000	848.7933947075	1.0000000000	0.0000000000	0.0000000000	0.0000000000	1.0000000000	0.0000000000	1.0000000000	0.0000000000	0.0000000000
0.8800000000	44.7764739198	1.0000000000	875.6267225296	1.0000000000	0.0000000000	0.0000000000	1.3906720322	1.0000000000	0.0965057815	1.0000000000	0.0000000000	0.0000000000
0.8900000000	52.2501231270	1.0000000000	902.6243211288	1.0000000000	0.0000000000	0.0000000000	1.5903567518	1.0000000000	0.3460925196	1.0000000000	0.0000000000	0.0000000000
0.9000000000	59.5014592532	1.0000000000	928.9299684915	1.0000000000	0.0000000000	0.0000000000	1.5694048288	1.0000000000	0.5079475652	1.0000000000	0.0000000000	0.0000000000
0.9100000000	66.9937396846	1.0000000000	954.7467324524	1.0000000000	0.0000000000	0.0000000000	1.3604149206	1.0000000000	0.6159730099	1.0000000000	0.0000000000	0.0000000000
0.9200000000	74.8059793887	1.0000000000	979.4435555806	1.0000000000	0.0000000000	0.0000000000	1.0353410688	1.0000000000	0.4479805134	1.0000000000	0.0000000000	0.0000000000
0.9300000000	81.9474446269	1.0000000000	1001.9835660337	1.0000000000	0.0000000000	0.0000000000	0.0000000000	1.0000000000	0.0000000000	1.0000000000	0.0000000000	0.0000000000
0.9400000000	88.4716071037	1.0000000000	1021.7214290468	1.0000000000	0.0000000000	0.0000000000	0.0000000000	1.0000000000	0.0000000000	1.0000000000	0.0000000000	0.0000000000
0.9500000000	93.7790610937	1.0000000000	1037.4647763462	1.0000000000	0.0000000000	0.0000000000	0.0000000000	1.0000000000	0.0000000000	1.0000000000	0.0000000000	0.0000000000
0.9600000000	97.1510058591	1.0000000000	1047.9637097569	1.0000000000	0.0000000000	0.0000000000	0.0000000000	1.0000000000	0.0000000000	1.0000000000	0.0000000000	0.0000000000
0.9700000000	99.7794581776	1.0000000000	1053.3966775039	1.0000000000	0.0000000000	0.0000000000	0.0000000000	1.0000000000	0.0000000000	1.0000000000	0.0000000000	0.0000000000
0.9800000000	102.7766244093	1.0000000000	1054.8118756132	1.0000000000	0.0000000000	0.0000000000	0.0000000000	1.0000000000	0.0000000000	1.0000000000	0.0000000000	0.0000000000
0.9900000000	107.3748337886	1.0000000000	1052.8420573527	1.0000000000	0.0000000000	0.0000000000	18.8903875058	1.0000000000	11.2207379114	1.0000000000	0.0000000000	0.0000000000
