name p11_grf_mean_speed_1.0
datacolumns 13
datarows 100
range 0.00000000 0.99000000
endheader
time	grf_x_l_mean	grf_x_l_var	grf_y_l_mean	grf_y_l_var	grf_z_l_mean	grf_z_l_var	grf_x_r_mean	grf_x_r_var	grf_y_r_mean	grf_y_r_var	grf_z_r_mean	grf_z_r_var
0.0000000000	127.5357402720	1.0000000000	906.0511989463	1.0000000000	0.0000000000	0.0000000000	12.5675467192	1.0000000000	10.8600803765	1.0000000000	0.0000000000	0.0000000000
0.0100000000	138.1959216338	1.0000000000	897.5800772330	1.0000000000	0.0000000000	0.0000000000	22.4384969283	1.0000000000	47.6040707905	1.0000000000	0.0000000000	0.0000000000
0.0200000000	148.7965626411	1.0000000000	880.6616519056	1.0000000000	0.0000000000	0.0000000000	24.7042925801	1.0000000000	107.6696227563	1.0000000000	0.0000000000	0.0000000000
0.0300000000	157.5341577407	1.0000000000	852.1362199452	1.0000000000	0.0000000000	0.0000000000	8.3823888210	1.0000000000	179.4279797783	1.0000000000	0.0000000000	0.0000000000
0.0400000000	162.8639367525	1.0000000000	808.5864255405	1.0000000000	0.0000000000	0.0000000000	-21.3042723702	1.0000000000	251.3231997346	1.0000000000	0.0000000000	0.0000000000
0.0500000000	164.4564147654	1.0000000000	749.0218521918	1.0000000000	0.0000000000	0.0000000000	-49.2545428486	1.0000000000	323.4609709722	1.0000000000	0.0000000000	0.0000000000
0.0600000000	161.0838081149	1.0000000000	673.3418458479	1.0000000000	0.0000000000	0.0000000000	-70.9399349063	1.0000000000	394.5182620941	1.0000000000	0.0000000000	0.0000000000
0.0700000000	151.0165287932	1.0000000000	581.9914750424	1.0000000000	0.0000000000	0.0000000000	-88.3531725322	1.0000000000	459.4696586805	1.0000000000	0.0000000000	0.0000000000
0.0800000000	133.9593694716	1.0000000000	480.3168310733	1.0000000000	0.0000000000	0.0000000000	-100.8011475459	1.0000000000	516.2526536796	1.0000000000	0.0000000000	0.0000000000
0.0900000000	109.9320640557	1.0000000000	375.4885695539	1.0000000000	0.0000000000	0.0000000000	-108.0463307196	1.0000000000	564.4434173243	1.0000000000	0.0000000000	0.0000000000
0.1000000000	81.2430244031	1.0000000000	276.2917938655	1.0000000000	0.0000000000	0.0000000000	-111.4591063456	1.0000000000	608.3494103150	1.0000000000	0.0000000000	0.0000000000
0.1100000000	53.2944999907	1.0000000000	192.4761827637	1.0000000000	0.0000000000	0.0000000000	-113.1900966942	1.0000000000	654.6668704894	1.0000000000	0.0000000000	0.0000000000
0.1200000000	30.8331842778	1.0000000000	127.1999779055	1.0000000000	0.0000000000	0.0000000000	-113.4603418827	1.0000000000	701.8858467224	1.0000000000	0.0000000000	0.0000000000
0.1300000000	14.7577279609	1.0000000000	80.1486271671	1.0000000000	0.0000000000	0.0000000000	-112.1886758546	1.0000000000	745.8129087754	1.0000000000	0.0000000000	0.0000000000
0.1400000000	4.7696544295	1.0000000000	49.6038281441	1.0000000000	0.0000000000	0.0000000000	-109.5763386494	1.0000000000	784.6077131581	1.0000000000	0.0000000000	0.0000000000
0.1500000000	-0.6326252071	1.0000000000	29.9875203819	1.0000000000	0.0000000000	0.0000000000	-105.3725794093	1.0000000000	815.0538905185	1.0000000000	0.0000000000	0.0000000000
0.1600000000	-3.1082862324	1.0000000000	17.5944251082	1.0000000000	0.0000000000	0.0000000000	-99.7363302525	1.0000000000	835.2967028809	1.0000000000	0.0000000000	0.0000000000
0.1700000000	-3.6899276451	1.0000000000	10.3146634628	1.0000000000	0.0000000000	0.0000000000	-92.9915032901	1.0000000000	846.2504959818	1.0000000000	0.0000000000	0.0000000000
0.1800000000	-3.4267317861	1.0000000000	5.9147203620	1.0000000000	0.0000000000	0.0000000000	-85.9089246624	1.0000000000	849.1423636834	1.0000000000	0.0000000000	0.0000000000
0.1900000000	-2.7530553859	1.0000000000	3.7529118645	1.0000000000	0.0000000000	0.0000000000	-78.6833223605	1.0000000000	845.3149484376	1.0000000000	0.0000000000	0.0000000000
0.2000000000	-2.2139302694	1.0000000000	2.9440935024	1.0000000000	0.0000000000	0.0000000000	-71.3784907281	1.0000000000	835.8972324695	1.0000000000	0.0000000000	0.0000000000
0.2100000000	-1.9200780837	1.0000000000	2.6906077997	1.0000000000	0.0000000000	0.0000000000	-64.3506161290	1.0000000000	822.8857151269	1.0000000000	0.0000000000	0.0000000000
0.2200000000	-1.7307801782	1.0000000000	2.7373617331	1.0000000000	0.0000000000	0.0000000000	-57.5512864336	1.0000000000	808.0828896817	1.0000000000	0.0000000000	0.0000000000
0.2300000000	-1.6129748000	1.0000000000	2.7662367823	1.0000000000	0.0000000000	0.0000000000	-50.9059525923	1.0000000000	791.6259711222	1.0000000000	0.0000000000	0.0000000000
0.2400000000	-1.4861073702	1.0000000000	2.7887175872	1.0000000000	0.0000000000	0.0000000000	-44.7242419724	1.0000000000	775.6474715216	1.0000000000	0.0000000000	0.0000000000
0.2500000000	-1.3811167919	1.0000000000	2.8456496587	1.0000000000	0.0000000000	0.0000000000	-38.9503456791	1.0000000000	761.9973156415	1.0000000000	0.0000000000	0.0000000000
0.2600000000	-1.3000529931	1.0000000000	2.8031859218	1.0000000000	0.0000000000	0.0000000000	-33.3751949191	1.0000000000	750.4772816491	1.0000000000	0.0000000000	0.0000000000
0.2700000000	-1.2551482552	1.0000000000	2.7286398928	1.0000000000	0.0000000000	0.0000000000	-28.1677329984	1.0000000000	742.6851468555	1.0000000000	0.0000000000	0.0000000000
0.2800000000	-1.2437284608	1.0000000000	2.6178592165	1.0000000000	0.0000000000	0.0000000000	-23.3072727430	1.0000000000	739.7711981073	1.0000000000	0.0000000000	0.0000000000
0.2900000000	-1.2393159195	1.0000000000	2.4132016688	1.0000000000	0.0000000000	0.0000000000	-18.7373596971	1.0000000000	740.7946900249	1.0000000000	0.0000000000	0.0000000000
0.3000000000	-1.2285233496	1.0000000000	2.2038800714	1.0000000000	0.0000000000	0.0000000000	-14.2562884859	1.0000000000	745.2815267753	1.0000000000	0.0000000000	0.0000000000
0.3100000000	-1.1839694925	1.0000000000	2.0039161978	1.0000000000	0.0000000000	0.0000000000	-9.8712000178	1.0000000000	752.8406721774	1.0000000000	0.0000000000	0.0000000000
0.3200000000	-1.1046460572	1.0000000000	1.8202173971	1.0000000000	0.0000000000	0.0000000000	-5.4723730512	1.0000000000	762.2748318705	1.0000000000	0.0000000000	0.0000000000
0.3300000000	-1.0099824337	1.0000000000	1.6537641851	1.0000000000	0.0000000000	0.0000000000	-0.7746284594	1.0000000000	772.0623025337	1.0000000000	0.0000000000	0.0000000000
0.3400000000	-0.8924588839	1.0000000000	1.4491410039	1.0000000000	0.0000000000	0.0000000000	4.0920790136	1.0000000000	781.5895879549	1.0000000000	0.0000000000	0.0000000000
0.3500000000	-0.7893013029	1.0000000000	1.2580241589	1.0000000000	0.0000000000	0.0000000000	9.1972308720	1.0000000000	791.1282261938	1.0000000000	0.0000000000	0.0000000000
0.3600000000	-0.6886858685	1.0000000000	1.0603507428	1.0000000000	0.0000000000	0.0000000000	14.5758216288	1.0000000000	799.7378539716	1.0000000000	0.0000000000	0.0000000000
0.3700000000	-0.5903835891	1.0000000000	0.8518839760	1.0000000000	0.0000000000	0.0000000000	20.2471459768	1.0000000000	807.1879635089	1.0000000000	0.0000000000	0.0000000000
0.3800000000	-0.5058795663	1.0000000000	0.6843764844	1.0000000000	0.0000000000	0.0000000000	26.2125291315	1.0000000000	814.6335019446	1.0000000000	0.0000000000	0.0000000000
0.3900000000	-0.4106211416	1.0000000000	0.5579962848	1.0000000000	0.0000000000	0.0000000000	32.4198287840	1.0000000000	822.1877723978	1.0000000000	0.0000000000	0.0000000000
0.4000000000	-0.3083011320	1.0000000000	0.4773149973	1.0000000000	0.0000000000	0.0000000000	39.0757729727	1.0000000000	829.7020499771	1.0000000000	0.0000000000	0.0000000000
0.4100000000	-0.2176558417	1.0000000000	0.4469050989	1.0000000000	0.0000000000	0.0000000000	46.1303618648	1.0000000000	837.7395603763	1.0000000000	0.0000000000	0.0000000000
0.4200000000	-0.1647180311	1.0000000000	0.3952320538	1.0000000000	0.0000000000	0.0000000000	53.5358084795	1.0000000000	846.3978811672	1.0000000000	0.0000000000	0.0000000000
0.4300000000	-0.2082944679	1.0000000000	0.1384420970	1.0000000000	0.0000000000	0.0000000000	61.3616521570	1.0000000000	854.9334822137	1.0000000000	0.0000000000	0.0000000000
0.4400000000	0.0000000000	1.0000000000	0.0000000000	1.0000000000	0.0000000000	0.0000000000	69.5135584492	1.0000000000	862.8784533275	1.0000000000	0.0000000000	0.0000000000
0.4500000000	0.0000000000	1.0000000000	0.0000000000	1.0000000000	0.0000000000	0.0000000000	78.0419390234	1.0000000000	869.9850883437	1.0000000000	0.0000000000	0.0000000000
0.4600000000	0.0000000000	1.0000000000	0.0000000000	1.0000000000	0.0000000000	0.0000000000	87.0331838882	1.0000000000	875.6061621440	1.0000000000	0.0000000000	0.0000000000
0.4700000000	0.0000000000	1.0000000000	0.0000000000	1.0000000000	0.0000000000	0.0000000000	96.6832834172	1.0000000000	878.7814308685	1.0000000000	0.0000000000	0.0000000000
0.4800000000	0.0000000000	1.0000000000	0.0000000000	1.0000000000	0.0000000000	0.0000000000	107.0272057020	1.0000000000	878.8287430104	1.0000000000	0.0000000000	0.0000000000
0.4900000000	8.8621867871	1.0000000000	14.7795372884	1.0000000000	0.0000000000	0.0000000000	117.9157354010	1.0000000000	874.8287181932	1.0000000000	0.0000000000	0.0000000000
0.5000000000	15.5582370392	1.0000000000	51.2965743198	1.0000000000	0.0000000000	0.0000000000	129.1509169480	1.0000000000	865.1413167085	1.0000000000	0.0000000000	0.0000000000
0.5100000000	17.2129423248	1.0000000000	108.2726404931	1.0000000000	0.0000000000	0.0000000000	140.0497942628	1.0000000000	847.9307300523	1.0000000000	0.0000000000	0.0000000000
0.5200000000	6.4763727944	1.0000000000	174.9224628401	1.0000000000	0.0000000000	0.0000000000	149.4472945621	1.0000000000	821.0145548788	1.0000000000	0.0000000000	0.0000000000
0.5300000000	-15.7328540835	1.0000000000	238.8122399181	1.0000000000	0.0000000000	0.0000000000	156.3575372861	1.0000000000	782.3660468994	1.0000000000	0.0000000000	0.0000000000
0.5400000000	-41.1819800670	1.0000000000	297.8732164033	1.0000000000	0.0000000000	0.0000000000	160.1678114524	1.0000000000	731.3096761995	1.0000000000	0.0000000000	0.0000000000
0.5500000000	-64.8655700706	1.0000000000	356.8600950008	1.0000000000	0.0000000000	0.0000000000	159.8800872581	1.0000000000	667.6467135571	1.0000000000	0.0000000000	0.0000000000
0.5600000000	-86.5088156972	1.0000000000	419.5026441877	1.0000000000	0.0000000000	0.0000000000	154.3560560140	1.0000000000	591.3815486887	1.0000000000	0.0000000000	0.0000000000
0.5700000000	-105.6336921026	1.0000000000	486.2658143742	1.0000000000	0.0000000000	0.0000000000	142.5369942685	1.0000000000	504.3327238152	1.0000000000	0.0000000000	0.0000000000
0.5800000000	-120.7035271890	1.0000000000	554.6890075962	1.0000000000	0.0000000000	0.0000000000	123.7276504778	1.0000000000	409.9048348843	1.0000000000	0.0000000000	0.0000000000
0.5900000000	-130.6562857305	1.0000000000	621.8694895730	1.0000000000	0.0000000000	0.0000000000	98.8664407472	1.0000000000	314.4248816080	1.0000000000	0.0000000000	0.0000000000
0.6000000000	-135.3329641720	1.0000000000	684.4819636519	1.0000000000	0.0000000000	0.0000000000	71.6034939770	1.0000000000	226.3613785149	1.0000000000	0.0000000000	0.0000000000
0.6100000000	-135.1592745327	1.0000000000	738.7847698823	1.0000000000	0.0000000000	0.0000000000	46.7051443725	1.0000000000	152.0316412100	1.0000000000	0.0000000000	0.0000000000
0.6200000000	-131.2719609922	1.0000000000	783.1261895001	1.0000000000	0.0000000000	0.0000000000	26.9265553755	1.0000000000	95.0081071973	1.0000000000	0.0000000000	0.0000000000
0.6300000000	-125.0981767965	1.0000000000	817.2298554948	1.0000000000	0.0000000000	0.0000000000	12.9804583547	1.0000000000	55.3095235656	1.0000000000	0.0000000000	0.0000000000
0.6400000000	-117.5868904068	1.0000000000	841.3069738355	1.0000000000	0.0000000000	0.0000000000	4.3977087380	1.0000000000	29.3746992883	1.0000000000	0.0000000000	0.0000000000
0.6500000000	-109.3510207527	1.0000000000	856.5302234650	1.0000000000	0.0000000000	0.0000000000	0.0779282766	1.0000000000	13.4829294542	1.0000000000	0.0000000000	0.0000000000
0.6600000000	-100.8487123931	1.0000000000	863.5812283473	1.0000000000	0.0000000000	0.0000000000	-1.2364753560	1.0000000000	4.7436601172	1.0000000000	0.0000000000	0.0000000000
0.6700000000	-92.3420464809	1.0000000000	863.0746566695	1.0000000000	0.0000000000	0.0000000000	-1.0937343688	1.0000000000	0.5826234767	1.0000000000	0.0000000000	0.0000000000
0.6800000000	-83.9033102951	1.0000000000	856.2897533715	1.0000000000	0.0000000000	0.0000000000	0.0000000000	1.0000000000	0.0000000000	1.0000000000	0.0000000000	0.0000000000
0.6900000000	-75.6488660834	1.0000000000	844.4602740285	1.0000000000	0.0000000000	0.0000000000	0.0000000000	1.0000000000	0.0000000000	1.0000000000	0.0000000000	0.0000000000
0.7000000000	-67.6004737336	1.0000000000	829.5015409389	1.0000000000	0.0000000000	0.0000000000	0.0000000000	1.0000000000	0.0000000000	1.0000000000	0.0000000000	0.0000000000
0.7100000000	-59.7833071366	1.0000000000	813.1468393225	1.0000000000	0.0000000000	0.0000000000	0.0000000000	1.0000000000	0.0000000000	1.0000000000	0.0000000000	0.0000000000
0.7200000000	-52.3458592235	1.0000000000	796.5796468894	1.0000000000	0.0000000000	0.0000000000	0.0000000000	1.0000000000	0.0000000000	1.0000000000	0.0000000000	0.0000000000
0.7300000000	-45.2972459496	1.0000000000	781.0579829331	1.0000000000	0.0000000000	0.0000000000	0.1750507112	1.0000000000	0.0782226072	1.0000000000	0.0000000000	0.0000000000
0.7400000000	-38.6366847491	1.0000000000	767.3374104914	1.0000000000	0.0000000000	0.0000000000	0.0455548370	1.0000000000	0.1415597573	1.0000000000	0.0000000000	0.0000000000
0.7500000000	-32.2626966521	1.0000000000	755.9189362460	1.0000000000	0.0000000000	0.0000000000	-0.0204442680	1.0000000000	0.1194285637	1.0000000000	0.0000000000	0.0000000000
0.7600000000	-26.1116342807	1.0000000000	747.4652824228	1.0000000000	0.0000000000	0.0000000000	-0.0211652837	1.0000000000	0.0710892581	1.0000000000	0.0000000000	0.0000000000
0.7700000000	-20.1477567309	1.0000000000	742.0934479349	1.0000000000	0.0000000000	0.0000000000	-0.0226032304	1.0000000000	0.0421164008	1.0000000000	0.0000000000	0.0000000000
0.7800000000	-14.4109687058	1.0000000000	739.6679159669	1.0000000000	0.0000000000	0.0000000000	-0.0218092844	1.0000000000	0.0206683743	1.0000000000	0.0000000000	0.0000000000
0.7900000000	-8.9673792837	1.0000000000	740.1668326360	1.0000000000	0.0000000000	0.0000000000	-0.0181480053	1.0000000000	0.0074154435	1.0000000000	0.0000000000	0.0000000000
0.8000000000	-3.6854247222	1.0000000000	743.0615189273	1.0000000000	0.0000000000	0.0000000000	-0.0178920066	1.0000000000	0.0042624876	1.0000000000	0.0000000000	0.0000000000
0.8100000000	1.4006688986	1.0000000000	747.8264783185	1.0000000000	0.0000000000	0.0000000000	-0.0236413463	1.0000000000	0.0097353192	1.0000000000	0.0000000000	0.0000000000
0.8200000000	6.3185792321	1.0000000000	753.7554559502	1.0000000000	0.0000000000	0.0000000000	-0.0301602840	1.0000000000	0.0131727782	1.0000000000	0.0000000000	0.0000000000
0.8300000000	11.0918173857	1.0000000000	760.2948386400	1.0000000000	0.0000000000	0.0000000000	-0.0282995675	1.0000000000	0.0097208952	1.0000000000	0.0000000000	0.0000000000
0.8400000000	15.7988243605	1.0000000000	767.4089385423	1.0000000000	0.0000000000	0.0000000000	-0.0219571497	1.0000000000	0.0089389981	1.0000000000	0.0000000000	0.0000000000
0.8500000000	20.5926940898	1.0000000000	775.0767482808	1.0000000000	0.0000000000	0.0000000000	-0.0140618882	1.0000000000	0.0056450938	1.0000000000	0.0000000000	0.0000000000
0.8600000000	25.4841105907	1.0000000000	783.1254195654	1.0000000000	0.0000000000	0.0000000000	0.0000000000	1.0000000000	0.0000000000	1.0000000000	0.0000000000	0.0000000000
0.8700000000	30.6925365504	1.0000000000	791.6884036286	1.0000000000	0.0000000000	0.0000000000	0.0000000000	1.0000000000	0.0000000000	1.0000000000	0.0000000000	0.0000000000
0.8800000000	36.2517820055	1.0000000000	800.8977985098	1.0000000000	0.0000000000	0.0000000000	0.0000000000	1.0000000000	0.0000000000	1.0000000000	0.0000000000	0.0000000000
0.8900000000	42.2690228909	1.0000000000	810.8111904393	1.0000000000	0.0000000000	0.0000000000	0.0259645929	1.0000000000	0.0233795054	1.0000000000	0.0000000000	0.0000000000
0.9000000000	49.0164095062	1.0000000000	821.7748363026	1.0000000000	0.0000000000	0.0000000000	0.0448025013	1.0000000000	0.0951629707	1.0000000000	0.0000000000	0.0000000000
0.9100000000	56.4596822165	1.0000000000	833.7734875702	1.0000000000	0.0000000000	0.0000000000	0.0466061751	1.0000000000	0.2064369715	1.0000000000	0.0000000000	0.0000000000
0.9200000000	64.6465915057	1.0000000000	846.8012256026	1.0000000000	0.0000000000	0.0000000000	-0.0124185619	1.0000000000	0.2957837929	1.0000000000	0.0000000000	0.0000000000
0.9300000000	73.2682988603	1.0000000000	860.5615727067	1.0000000000	0.0000000000	0.0000000000	-0.1963703395	1.0000000000	0.1810962487	1.0000000000	0.0000000000	0.0000000000
0.9400000000	81.9928540148	1.0000000000	874.1806092249	1.0000000000	0.0000000000	0.0000000000	0.0000000000	1.0000000000	0.0000000000	1.0000000000	0.0000000000	0.0000000000
0.9500000000	90.6887198808	1.0000000000	886.7420017065	1.0000000000	0.0000000000	0.0000000000	0.0000000000	1.0000000000	0.0000000000	1.0000000000	0.0000000000	0.0000000000
0.9600000000	99.3519242072	1.0000000000	897.2517697592	1.0000000000	0.0000000000	0.0000000000	0.0000000000	1.0000000000	0.0000000000	1.0000000000	0.0000000000	0.0000000000
0.9700000000	108.3286436772	1.0000000000	904.6634303119	1.0000000000	0.0000000000	0.0000000000	0.0000000000	1.0000000000	0.0000000000	1.0000000000	0.0000000000	0.0000000000
0.9800000000	117.8165467447	1.0000000000	908.0460909355	1.0000000000	0.0000000000	0.0000000000	0.0000000000	1.0000000000	0.0000000000	1.0000000000	0.0000000000	0.0000000000
0.9900000000	128.0224271292	1.0000000000	906.0888886539	1.0000000000	0.0000000000	0.0000000000	12.6048359107	1.0000000000	10.8664586337	1.0000000000	0.0000000000	0.0000000000
