name p12_grf_mean_speed_1.0
datacolumns 13
datarows 100
range 0.00000000 0.99000000
endheader
time	grf_x_l_mean	grf_x_l_var	grf_y_l_mean	grf_y_l_var	grf_z_l_mean	grf_z_l_var	grf_x_r_mean	grf_x_r_var	grf_y_r_mean	grf_y_r_var	grf_z_r_mean	grf_z_r_var
0.0000000000	51.5935853259	1.0000000000	552.7748510329	1.0000000000	0.0000000000	0.0000000000	8.9576857050	1.0000000000	10.6201754764	1.0000000000	0.0000000000	0.0000000000
0.0100000000	59.3289588042	1.0000000000	550.1617079292	1.0000000000	0.0000000000	0.0000000000	16.6179685493	1.0000000000	30.3754604893	1.0000000000	0.0000000000	0.0000000000
0.0200000000	67.8391903043	1.0000000000	540.3593215626	1.0000000000	0.0000000000	0.0000000000	23.4196767343	1.0000000000	59.5069069557	1.0000000000	0.0000000000	0.0000000000
0.0300000000	76.2043426954	1.0000000000	522.3073628711	1.0000000000	0.0000000000	0.0000000000	24.3056469397	1.0000000000	94.6434399345	1.0000000000	0.0000000000	0.0000000000
0.0400000000	83.1835688138	1.0000000000	495.0012600390	1.0000000000	0.0000000000	0.0000000000	18.3126022291	1.0000000000	131.7605245636	1.0000000000	0.0000000000	0.0000000000
0.0500000000	88.3200856437	1.0000000000	458.2566971786	1.0000000000	0.0000000000	0.0000000000	9.0481315010	1.0000000000	167.3274006133	1.0000000000	0.0000000000	0.0000000000
0.0600000000	90.3973642251	1.0000000000	412.4123977788	1.0000000000	0.0000000000	0.0000000000	-1.2842868101	1.0000000000	198.8355797925	1.0000000000	0.0000000000	0.0000000000
0.0700000000	87.8446081792	1.0000000000	358.4443184605	1.0000000000	0.0000000000	0.0000000000	-11.9956307288	1.0000000000	226.7870946635	1.0000000000	0.0000000000	0.0000000000
0.0800000000	80.5427733163	1.0000000000	299.2051557668	1.0000000000	0.0000000000	0.0000000000	-21.6459087220	1.0000000000	254.2036392940	1.0000000000	0.0000000000	0.0000000000
0.0900000000	68.5759770900	1.0000000000	238.7490019454	1.0000000000	0.0000000000	0.0000000000	-30.1167748962	1.0000000000	284.2349613947	1.0000000000	0.0000000000	0.0000000000
0.1000000000	52.8324596253	1.0000000000	180.8906464829	1.0000000000	0.0000000000	0.0000000000	-38.0548688366	1.0000000000	317.9624338847	1.0000000000	0.0000000000	0.0000000000
0.1100000000	36.3171459419	1.0000000000	129.3257899376	1.0000000000	0.0000000000	0.0000000000	-44.5664204187	1.0000000000	354.9779493592	1.0000000000	0.0000000000	0.0000000000
0.1200000000	21.4082507228	1.0000000000	87.0106981066	1.0000000000	0.0000000000	0.0000000000	-49.5061284674	1.0000000000	394.6754612400	1.0000000000	0.0000000000	0.0000000000
0.1300000000	9.7917319169	1.0000000000	54.7110065161	1.0000000000	0.0000000000	0.0000000000	-53.3871198984	1.0000000000	435.3335366135	1.0000000000	0.0000000000	0.0000000000
0.1400000000	2.7252245503	1.0000000000	31.2727190827	1.0000000000	0.0000000000	0.0000000000	-55.6711220429	1.0000000000	474.1996978411	1.0000000000	0.0000000000	0.0000000000
0.1500000000	-0.6969706553	1.0000000000	15.2810109693	1.0000000000	0.0000000000	0.0000000000	-56.6091848064	1.0000000000	509.0064889397	1.0000000000	0.0000000000	0.0000000000
0.1600000000	-1.9852924476	1.0000000000	5.6519028923	1.0000000000	0.0000000000	0.0000000000	-56.8068611592	1.0000000000	538.1281236513	1.0000000000	0.0000000000	0.0000000000
0.1700000000	-1.9137987551	1.0000000000	0.8351674623	1.0000000000	0.0000000000	0.0000000000	-56.1262890336	1.0000000000	560.3175480375	1.0000000000	0.0000000000	0.0000000000
0.1800000000	0.0000000000	1.0000000000	0.0000000000	1.0000000000	0.0000000000	0.0000000000	-54.7929952275	1.0000000000	574.9550939375	1.0000000000	0.0000000000	0.0000000000
0.1900000000	0.0000000000	1.0000000000	0.0000000000	1.0000000000	0.0000000000	0.0000000000	-53.1159618699	1.0000000000	581.7388321929	1.0000000000	0.0000000000	0.0000000000
0.2000000000	0.0000000000	1.0000000000	0.0000000000	1.0000000000	0.0000000000	0.0000000000	-50.8058143443	1.0000000000	580.8962915173	1.0000000000	0.0000000000	0.0000000000
0.2100000000	0.0000000000	1.0000000000	0.0000000000	1.0000000000	0.0000000000	0.0000000000	-48.0303144048	1.0000000000	573.4514950005	1.0000000000	0.0000000000	0.0000000000
0.2200000000	-0.0879258055	1.0000000000	0.3426298202	1.0000000000	0.0000000000	0.0000000000	-44.9050169828	1.0000000000	560.7358649179	1.0000000000	0.0000000000	0.0000000000
0.2300000000	-0.0013865289	1.0000000000	0.5356002604	1.0000000000	0.0000000000	0.0000000000	-41.1615459178	1.0000000000	544.1054584402	1.0000000000	0.0000000000	0.0000000000
0.2400000000	0.0507834442	1.0000000000	0.5825568805	1.0000000000	0.0000000000	0.0000000000	-37.0505972068	1.0000000000	524.9522052787	1.0000000000	0.0000000000	0.0000000000
0.2500000000	0.0064792998	1.0000000000	0.5251343118	1.0000000000	0.0000000000	0.0000000000	-32.8203792967	1.0000000000	504.6028300895	1.0000000000	0.0000000000	0.0000000000
0.2600000000	0.0498290029	1.0000000000	0.4355969573	1.0000000000	0.0000000000	0.0000000000	-28.5120587244	1.0000000000	484.1513470245	1.0000000000	0.0000000000	0.0000000000
0.2700000000	0.0913337188	1.0000000000	0.3640753419	1.0000000000	0.0000000000	0.0000000000	-24.3600246505	1.0000000000	464.3850193612	1.0000000000	0.0000000000	0.0000000000
0.2800000000	0.0510442748	1.0000000000	0.3029535752	1.0000000000	0.0000000000	0.0000000000	-20.4931302408	1.0000000000	445.9948029567	1.0000000000	0.0000000000	0.0000000000
0.2900000000	0.0495661876	1.0000000000	0.2405998613	1.0000000000	0.0000000000	0.0000000000	-16.9532618730	1.0000000000	429.6305721850	1.0000000000	0.0000000000	0.0000000000
0.3000000000	0.0777684426	1.0000000000	0.1967111424	1.0000000000	0.0000000000	0.0000000000	-13.8942119282	1.0000000000	415.6257499986	1.0000000000	0.0000000000	0.0000000000
0.3100000000	0.0661766598	1.0000000000	0.1753380282	1.0000000000	0.0000000000	0.0000000000	-11.1369921431	1.0000000000	404.2168533187	1.0000000000	0.0000000000	0.0000000000
0.3200000000	0.0586171674	1.0000000000	0.1530483431	1.0000000000	0.0000000000	0.0000000000	-8.5515685207	1.0000000000	395.7775522297	1.0000000000	0.0000000000	0.0000000000
0.3300000000	0.0563951184	1.0000000000	0.1330771201	1.0000000000	0.0000000000	0.0000000000	-6.1389989378	1.0000000000	390.4421040469	1.0000000000	0.0000000000	0.0000000000
0.3400000000	0.0475357423	1.0000000000	0.1188326938	1.0000000000	0.0000000000	0.0000000000	-3.6771368455	1.0000000000	387.9152755653	1.0000000000	0.0000000000	0.0000000000
0.3500000000	0.0619646359	1.0000000000	0.1032963038	1.0000000000	0.0000000000	0.0000000000	-1.0013143810	1.0000000000	387.8310861475	1.0000000000	0.0000000000	0.0000000000
0.3600000000	0.0704668064	1.0000000000	0.1069155588	1.0000000000	0.0000000000	0.0000000000	1.8785225054	1.0000000000	389.9347797667	1.0000000000	0.0000000000	0.0000000000
0.3700000000	0.0518915007	1.0000000000	0.1419388354	1.0000000000	0.0000000000	0.0000000000	5.0760317504	1.0000000000	394.0378654973	1.0000000000	0.0000000000	0.0000000000
0.3800000000	0.0483278195	1.0000000000	0.1836863284	1.0000000000	0.0000000000	0.0000000000	8.5948756075	1.0000000000	400.0833030444	1.0000000000	0.0000000000	0.0000000000
0.3900000000	0.0382999913	1.0000000000	0.2138522757	1.0000000000	0.0000000000	0.0000000000	12.3630431115	1.0000000000	408.1340525654	1.0000000000	0.0000000000	0.0000000000
0.4000000000	-0.0307057717	1.0000000000	0.1916502234	1.0000000000	0.0000000000	0.0000000000	16.3962448047	1.0000000000	418.3721119396	1.0000000000	0.0000000000	0.0000000000
0.4100000000	-0.1820088354	1.0000000000	0.0198363073	1.0000000000	0.0000000000	0.0000000000	20.5332379908	1.0000000000	431.1250707430	1.0000000000	0.0000000000	0.0000000000
0.4200000000	0.0000000000	1.0000000000	0.0000000000	1.0000000000	0.0000000000	0.0000000000	24.5967685656	1.0000000000	446.5897889241	1.0000000000	0.0000000000	0.0000000000
0.4300000000	0.0000000000	1.0000000000	0.0000000000	1.0000000000	0.0000000000	0.0000000000	28.5675861369	1.0000000000	464.3563424675	1.0000000000	0.0000000000	0.0000000000
0.4400000000	0.0000000000	1.0000000000	0.0000000000	1.0000000000	0.0000000000	0.0000000000	32.4168394315	1.0000000000	483.3442537194	1.0000000000	0.0000000000	0.0000000000
0.4500000000	0.0000000000	1.0000000000	0.0000000000	1.0000000000	0.0000000000	0.0000000000	36.2018383331	1.0000000000	502.3205774129	1.0000000000	0.0000000000	0.0000000000
0.4600000000	0.0000000000	1.0000000000	0.0000000000	1.0000000000	0.0000000000	0.0000000000	40.1921408359	1.0000000000	520.1326702497	1.0000000000	0.0000000000	0.0000000000
0.4700000000	0.0000000000	1.0000000000	0.0000000000	1.0000000000	0.0000000000	0.0000000000	44.6897271415	1.0000000000	535.4004599029	1.0000000000	0.0000000000	0.0000000000
0.4800000000	8.2565800830	1.0000000000	7.3514188422	1.0000000000	0.0000000000	0.0000000000	49.9324016015	1.0000000000	546.6998385953	1.0000000000	0.0000000000	0.0000000000
0.4900000000	16.4419993076	1.0000000000	23.0572830504	1.0000000000	0.0000000000	0.0000000000	56.0689781408	1.0000000000	552.8677992543	1.0000000000	0.0000000000	0.0000000000
0.5000000000	25.0488147401	1.0000000000	47.3146695648	1.0000000000	0.0000000000	0.0000000000	63.0217008310	1.0000000000	552.7679352111	1.0000000000	0.0000000000	0.0000000000
0.5100000000	29.4360196278	1.0000000000	77.9017405927	1.0000000000	0.0000000000	0.0000000000	70.3615829745	1.0000000000	545.2748073060	1.0000000000	0.0000000000	0.0000000000
0.5200000000	26.4072406949	1.0000000000	110.9313148387	1.0000000000	0.0000000000	0.0000000000	77.2957598425	1.0000000000	529.4543236390	1.0000000000	0.0000000000	0.0000000000
0.5300000000	17.7207449103	1.0000000000	143.4757039211	1.0000000000	0.0000000000	0.0000000000	83.3198621768	1.0000000000	504.8152085706	1.0000000000	0.0000000000	0.0000000000
0.5400000000	6.9530685265	1.0000000000	173.3325009392	1.0000000000	0.0000000000	0.0000000000	87.7807737371	1.0000000000	471.5930734886	1.0000000000	0.0000000000	0.0000000000
0.5500000000	-4.0224722784	1.0000000000	198.5786318045	1.0000000000	0.0000000000	0.0000000000	89.5040429116	1.0000000000	430.3230517500	1.0000000000	0.0000000000	0.0000000000
0.5600000000	-13.9193070637	1.0000000000	219.2416951937	1.0000000000	0.0000000000	0.0000000000	87.9291752685	1.0000000000	381.9730426376	1.0000000000	0.0000000000	0.0000000000
0.5700000000	-22.1899459300	1.0000000000	238.2647151803	1.0000000000	0.0000000000	0.0000000000	82.9288876368	1.0000000000	328.7913698200	1.0000000000	0.0000000000	0.0000000000
0.5800000000	-29.7975561497	1.0000000000	259.7049563570	1.0000000000	0.0000000000	0.0000000000	74.2675896359	1.0000000000	273.5305077077	1.0000000000	0.0000000000	0.0000000000
0.5900000000	-37.0935122814	1.0000000000	285.8628178971	1.0000000000	0.0000000000	0.0000000000	62.7390524739	1.0000000000	218.5679360998	1.0000000000	0.0000000000	0.0000000000
0.6000000000	-43.5779996158	1.0000000000	316.8458003889	1.0000000000	0.0000000000	0.0000000000	49.6775356864	1.0000000000	166.6987375517	1.0000000000	0.0000000000	0.0000000000
0.6100000000	-49.1675330031	1.0000000000	351.6494394499	1.0000000000	0.0000000000	0.0000000000	36.1264421345	1.0000000000	120.8879419075	1.0000000000	0.0000000000	0.0000000000
0.6200000000	-53.3741507963	1.0000000000	388.2614043351	1.0000000000	0.0000000000	0.0000000000	23.6296423679	1.0000000000	82.7557521741	1.0000000000	0.0000000000	0.0000000000
0.6300000000	-55.8654166507	1.0000000000	424.3022297410	1.0000000000	0.0000000000	0.0000000000	13.5815991280	1.0000000000	52.4910183955	1.0000000000	0.0000000000	0.0000000000
0.6400000000	-57.1198439522	1.0000000000	458.1443218054	1.0000000000	0.0000000000	0.0000000000	6.3635833266	1.0000000000	29.9088856690	1.0000000000	0.0000000000	0.0000000000
0.6500000000	-57.3279490248	1.0000000000	488.4231974424	1.0000000000	0.0000000000	0.0000000000	1.9858715192	1.0000000000	14.5571161626	1.0000000000	0.0000000000	0.0000000000
0.6600000000	-56.6854384569	1.0000000000	513.8061887747	1.0000000000	0.0000000000	0.0000000000	-0.0621122880	1.0000000000	5.2351959120	1.0000000000	0.0000000000	0.0000000000
0.6700000000	-55.6894901015	1.0000000000	533.5619615739	1.0000000000	0.0000000000	0.0000000000	-0.6973249213	1.0000000000	0.3917634937	1.0000000000	0.0000000000	0.0000000000
0.6800000000	-54.2246623904	1.0000000000	547.2599943249	1.0000000000	0.0000000000	0.0000000000	0.0000000000	1.0000000000	0.0000000000	1.0000000000	0.0000000000	0.0000000000
0.6900000000	-52.2288682051	1.0000000000	554.5383083152	1.0000000000	0.0000000000	0.0000000000	0.0000000000	1.0000000000	0.0000000000	1.0000000000	0.0000000000	0.0000000000
0.7000000000	-49.8629434833	1.0000000000	555.4984403298	1.0000000000	0.0000000000	0.0000000000	0.0000000000	1.0000000000	0.0000000000	1.0000000000	0.0000000000	0.0000000000
0.7100000000	-46.8817410963	1.0000000000	550.8339658161	1.0000000000	0.0000000000	0.0000000000	0.0000000000	1.0000000000	0.0000000000	1.0000000000	0.0000000000	0.0000000000
0.7200000000	-43.3027323210	1.0000000000	541.5250880395	1.0000000000	0.0000000000	0.0000000000	0.0000000000	1.0000000000	0.0000000000	1.0000000000	0.0000000000	0.0000000000
0.7300000000	-39.4007645604	1.0000000000	528.6163979354	1.0000000000	0.0000000000	0.0000000000	0.1956030787	1.0000000000	0.0226289579	1.0000000000	0.0000000000	0.0000000000
0.7400000000	-35.1778922659	1.0000000000	513.4180541270	1.0000000000	0.0000000000	0.0000000000	0.1547844277	1.0000000000	0.0905143935	1.0000000000	0.0000000000	0.0000000000
0.7500000000	-30.8205454714	1.0000000000	497.1446541257	1.0000000000	0.0000000000	0.0000000000	0.1301417602	1.0000000000	0.0865663670	1.0000000000	0.0000000000	0.0000000000
0.7600000000	-26.6177681642	1.0000000000	480.4610917859	1.0000000000	0.0000000000	0.0000000000	0.1190111703	1.0000000000	0.0498423232	1.0000000000	0.0000000000	0.0000000000
0.7700000000	-22.6321757210	1.0000000000	464.0169209945	1.0000000000	0.0000000000	0.0000000000	0.1161772257	1.0000000000	0.0079278146	1.0000000000	0.0000000000	0.0000000000
0.7800000000	-18.9534328387	1.0000000000	448.4776588883	1.0000000000	0.0000000000	0.0000000000	0.0000000000	1.0000000000	0.0000000000	1.0000000000	0.0000000000	0.0000000000
0.7900000000	-15.6865304627	1.0000000000	434.1689804300	1.0000000000	0.0000000000	0.0000000000	0.0485217409	1.0000000000	0.0109884765	1.0000000000	0.0000000000	0.0000000000
0.8000000000	-12.7785878577	1.0000000000	421.5431312953	1.0000000000	0.0000000000	0.0000000000	0.0029321783	1.0000000000	0.0170853571	1.0000000000	0.0000000000	0.0000000000
0.8100000000	-10.1130821102	1.0000000000	411.1704748436	1.0000000000	0.0000000000	0.0000000000	0.0000000000	1.0000000000	0.0000000000	1.0000000000	0.0000000000	0.0000000000
0.8200000000	-7.5162113270	1.0000000000	403.3364959175	1.0000000000	0.0000000000	0.0000000000	0.0000000000	1.0000000000	0.0000000000	1.0000000000	0.0000000000	0.0000000000
0.8300000000	-4.8328603706	1.0000000000	398.1744199608	1.0000000000	0.0000000000	0.0000000000	0.0000000000	1.0000000000	0.0000000000	1.0000000000	0.0000000000	0.0000000000
0.8400000000	-1.9203675218	1.0000000000	395.7299463392	1.0000000000	0.0000000000	0.0000000000	0.0000000000	1.0000000000	0.0000000000	1.0000000000	0.0000000000	0.0000000000
0.8500000000	1.3063954486	1.0000000000	395.9018052737	1.0000000000	0.0000000000	0.0000000000	0.0000000000	1.0000000000	0.0000000000	1.0000000000	0.0000000000	0.0000000000
0.8600000000	4.8365676295	1.0000000000	398.4477043133	1.0000000000	0.0000000000	0.0000000000	0.0000000000	1.0000000000	0.0000000000	1.0000000000	0.0000000000	0.0000000000
0.8700000000	8.6214982955	1.0000000000	403.1457625032	1.0000000000	0.0000000000	0.0000000000	0.0322682752	1.0000000000	0.0272384467	1.0000000000	0.0000000000	0.0000000000
0.8800000000	12.5547395044	1.0000000000	409.9603634835	1.0000000000	0.0000000000	0.0000000000	0.0419470783	1.0000000000	0.0818307253	1.0000000000	0.0000000000	0.0000000000
0.8900000000	16.4430167439	1.0000000000	418.8626097037	1.0000000000	0.0000000000	0.0000000000	0.0481199797	1.0000000000	0.1448122670	1.0000000000	0.0000000000	0.0000000000
0.9000000000	20.1164306753	1.0000000000	429.8961412575	1.0000000000	0.0000000000	0.0000000000	0.0317070457	1.0000000000	0.1859935418	1.0000000000	0.0000000000	0.0000000000
0.9100000000	23.3637123441	1.0000000000	443.2422294052	1.0000000000	0.0000000000	0.0000000000	-0.0358525932	1.0000000000	0.1449427561	1.0000000000	0.0000000000	0.0000000000
0.9200000000	26.0554693874	1.0000000000	458.7732134281	1.0000000000	0.0000000000	0.0000000000	0.0000000000	1.0000000000	0.0000000000	1.0000000000	0.0000000000	0.0000000000
0.9300000000	28.3007701632	1.0000000000	475.9584476056	1.0000000000	0.0000000000	0.0000000000	0.0000000000	1.0000000000	0.0000000000	1.0000000000	0.0000000000	0.0000000000
0.9400000000	30.3758607047	1.0000000000	493.9628696855	1.0000000000	0.0000000000	0.0000000000	0.0000000000	1.0000000000	0.0000000000	1.0000000000	0.0000000000	0.0000000000
0.9500000000	32.6643034063	1.0000000000	511.5778114926	1.0000000000	0.0000000000	0.0000000000	0.0000000000	1.0000000000	0.0000000000	1.0000000000	0.0000000000	0.0000000000
0.9600000000	35.6479626191	1.0000000000	527.4745657421	1.0000000000	0.0000000000	0.0000000000	0.0000000000	1.0000000000	0.0000000000	1.0000000000	0.0000000000	0.0000000000
0.9700000000	39.6890199133	1.0000000000	540.3969363572	1.0000000000	0.0000000000	0.0000000000	0.0000000000	1.0000000000	0.0000000000	1.0000000000	0.0000000000	0.0000000000
0.9800000000	44.9693213350	1.0000000000	549.1823236724	1.0000000000	0.0000000000	0.0000000000	3.3870410539	1.0000000000	0.1616293155	1.0000000000	0.0000000000	0.0000000000
0.9900000000	51.5517448932	1.0000000000	552.7971698195	1.0000000000	0.0000000000	0.0000000000	8.9349534729	1.0000000000	10.6238359051	1.0000000000	0.0000000000	0.0000000000
