name p12_grf_mean_speed_1.4
datacolumns 13
datarows 100
range 0.00000000 0.99000000
endheader
time	grf_x_l_mean	grf_x_l_var	grf_y_l_mean	grf_y_l_var	grf_z_l_mean	grf_z_l_var	grf_x_r_mean	grf_x_r_var	grf_y_r_mean	grf_y_r_var	grf_z_r_mean	grf_z_r_var
0.0000000000	90.6051617298	1.0000000000	586.9101309909	1.0000000000	0.0000000000	0.0000000000	5.6087106295	1.0000000000	11.0641116558	1.0000000000	0.0000000000	0.0000000000
0.0100000000	100.8042915187	1.0000000000	574.5469191132	1.0000000000	0.0000000000	0.0000000000	8.6652589097	1.0000000000	39.4794976364	1.0000000000	0.0000000000	0.0000000000
0.0200000000	110.3773594157	1.0000000000	551.2912597662	1.0000000000	0.0000000000	0.0000000000	11.1632201961	1.0000000000	84.3909113666	1.0000000000	0.0000000000	0.0000000000
0.0300000000	118.2168600181	1.0000000000	516.6833402315	1.0000000000	0.0000000000	0.0000000000	9.7171508138	1.0000000000	143.5477807535	1.0000000000	0.0000000000	0.0000000000
0.0400000000	122.0400035604	1.0000000000	470.4859981449	1.0000000000	0.0000000000	0.0000000000	-0.0876069087	1.0000000000	209.1963214016	1.0000000000	0.0000000000	0.0000000000
0.0500000000	119.8432614460	1.0000000000	413.6175766086	1.0000000000	0.0000000000	0.0000000000	-16.8375226274	1.0000000000	271.4589855387	1.0000000000	0.0000000000	0.0000000000
0.0600000000	111.6687300449	1.0000000000	348.9332518230	1.0000000000	0.0000000000	0.0000000000	-34.1990217653	1.0000000000	323.2767881969	1.0000000000	0.0000000000	0.0000000000
0.0700000000	97.7095504875	1.0000000000	280.8103433517	1.0000000000	0.0000000000	0.0000000000	-49.9305617231	1.0000000000	362.8529066374	1.0000000000	0.0000000000	0.0000000000
0.0800000000	78.1137592360	1.0000000000	214.0746575054	1.0000000000	0.0000000000	0.0000000000	-64.8414022422	1.0000000000	393.9610939909	1.0000000000	0.0000000000	0.0000000000
0.0900000000	56.5050477771	1.0000000000	153.5963615277	1.0000000000	0.0000000000	0.0000000000	-77.9268089140	1.0000000000	422.7348069973	1.0000000000	0.0000000000	0.0000000000
0.1000000000	36.9872097713	1.0000000000	103.3590172117	1.0000000000	0.0000000000	0.0000000000	-88.1861862991	1.0000000000	453.2392136147	1.0000000000	0.0000000000	0.0000000000
0.1100000000	20.7902298474	1.0000000000	64.8042648427	1.0000000000	0.0000000000	0.0000000000	-95.8087247527	1.0000000000	485.4303287403	1.0000000000	0.0000000000	0.0000000000
0.1200000000	9.4613405830	1.0000000000	36.6111262391	1.0000000000	0.0000000000	0.0000000000	-100.3804866564	1.0000000000	516.6905836387	1.0000000000	0.0000000000	0.0000000000
0.1300000000	3.4919589401	1.0000000000	17.1628625078	1.0000000000	0.0000000000	0.0000000000	-100.4608974520	1.0000000000	544.5932003963	1.0000000000	0.0000000000	0.0000000000
0.1400000000	0.7573260165	1.0000000000	5.4403977997	1.0000000000	0.0000000000	0.0000000000	-97.0878953797	1.0000000000	567.4640420239	1.0000000000	0.0000000000	0.0000000000
0.1500000000	0.0000000000	1.0000000000	0.0000000000	1.0000000000	0.0000000000	0.0000000000	-92.0482964494	1.0000000000	583.5666467758	1.0000000000	0.0000000000	0.0000000000
0.1600000000	0.0000000000	1.0000000000	0.0000000000	1.0000000000	0.0000000000	0.0000000000	-85.1505514219	1.0000000000	591.6056539412	1.0000000000	0.0000000000	0.0000000000
0.1700000000	0.0000000000	1.0000000000	0.0000000000	1.0000000000	0.0000000000	0.0000000000	-76.8295993609	1.0000000000	591.5288163347	1.0000000000	0.0000000000	0.0000000000
0.1800000000	0.0000000000	1.0000000000	0.0000000000	1.0000000000	0.0000000000	0.0000000000	-68.9052694514	1.0000000000	584.0656601580	1.0000000000	0.0000000000	0.0000000000
0.1900000000	0.0000000000	1.0000000000	0.0000000000	1.0000000000	0.0000000000	0.0000000000	-61.5126212160	1.0000000000	569.7518038670	1.0000000000	0.0000000000	0.0000000000
0.2000000000	0.0000000000	1.0000000000	0.0000000000	1.0000000000	0.0000000000	0.0000000000	-54.3029606417	1.0000000000	549.3970073728	1.0000000000	0.0000000000	0.0000000000
0.2100000000	0.0000000000	1.0000000000	0.0000000000	1.0000000000	0.0000000000	0.0000000000	-48.0033037019	1.0000000000	524.6592176000	1.0000000000	0.0000000000	0.0000000000
0.2200000000	0.0000000000	1.0000000000	0.0000000000	1.0000000000	0.0000000000	0.0000000000	-42.4599511318	1.0000000000	497.2732875128	1.0000000000	0.0000000000	0.0000000000
0.2300000000	2.3231578458	1.0000000000	0.2217474876	1.0000000000	0.0000000000	0.0000000000	-36.9161727851	1.0000000000	468.9187757761	1.0000000000	0.0000000000	0.0000000000
0.2400000000	2.3116772189	1.0000000000	0.1917675280	1.0000000000	0.0000000000	0.0000000000	-31.4543287941	1.0000000000	441.4269203702	1.0000000000	0.0000000000	0.0000000000
0.2500000000	1.9625736251	1.0000000000	0.0778147980	1.0000000000	0.0000000000	0.0000000000	-26.4333274115	1.0000000000	416.1758118078	1.0000000000	0.0000000000	0.0000000000
0.2600000000	2.1770161616	1.0000000000	0.1580022652	1.0000000000	0.0000000000	0.0000000000	-21.4313733273	1.0000000000	393.6777866524	1.0000000000	0.0000000000	0.0000000000
0.2700000000	2.4402291622	1.0000000000	0.2266943988	1.0000000000	0.0000000000	0.0000000000	-16.6876369892	1.0000000000	374.1643927458	1.0000000000	0.0000000000	0.0000000000
0.2800000000	2.0789007736	1.0000000000	0.0629936813	1.0000000000	0.0000000000	0.0000000000	-12.7648892055	1.0000000000	358.0602134893	1.0000000000	0.0000000000	0.0000000000
0.2900000000	0.0000000000	1.0000000000	0.0000000000	1.0000000000	0.0000000000	0.0000000000	-9.3605500782	1.0000000000	345.6096200962	1.0000000000	0.0000000000	0.0000000000
0.3000000000	0.0000000000	1.0000000000	0.0000000000	1.0000000000	0.0000000000	0.0000000000	-6.3579242730	1.0000000000	336.8263716904	1.0000000000	0.0000000000	0.0000000000
0.3100000000	0.0000000000	1.0000000000	0.0000000000	1.0000000000	0.0000000000	0.0000000000	-3.8671567286	1.0000000000	331.6020802959	1.0000000000	0.0000000000	0.0000000000
0.3200000000	0.0000000000	1.0000000000	0.0000000000	1.0000000000	0.0000000000	0.0000000000	-1.4443568167	1.0000000000	329.6521818779	1.0000000000	0.0000000000	0.0000000000
0.3300000000	0.0000000000	1.0000000000	0.0000000000	1.0000000000	0.0000000000	0.0000000000	1.2708255674	1.0000000000	330.7854850216	1.0000000000	0.0000000000	0.0000000000
0.3400000000	0.0000000000	1.0000000000	0.0000000000	1.0000000000	0.0000000000	0.0000000000	4.0917500735	1.0000000000	334.9570952587	1.0000000000	0.0000000000	0.0000000000
0.3500000000	0.0000000000	1.0000000000	0.0000000000	1.0000000000	0.0000000000	0.0000000000	7.3199540200	1.0000000000	342.0490598550	1.0000000000	0.0000000000	0.0000000000
0.3600000000	0.0000000000	1.0000000000	0.0000000000	1.0000000000	0.0000000000	0.0000000000	11.2597700043	1.0000000000	352.0423740903	1.0000000000	0.0000000000	0.0000000000
0.3700000000	0.0000000000	1.0000000000	0.0000000000	1.0000000000	0.0000000000	0.0000000000	15.3962605277	1.0000000000	365.0822290643	1.0000000000	0.0000000000	0.0000000000
0.3800000000	0.0000000000	1.0000000000	0.0000000000	1.0000000000	0.0000000000	0.0000000000	19.5600996988	1.0000000000	381.0888523043	1.0000000000	0.0000000000	0.0000000000
0.3900000000	0.0000000000	1.0000000000	0.0000000000	1.0000000000	0.0000000000	0.0000000000	24.1455941271	1.0000000000	399.7654523876	1.0000000000	0.0000000000	0.0000000000
0.4000000000	0.0000000000	1.0000000000	0.0000000000	1.0000000000	0.0000000000	0.0000000000	28.8279674996	1.0000000000	421.1268297148	1.0000000000	0.0000000000	0.0000000000
0.4100000000	0.0000000000	1.0000000000	0.0000000000	1.0000000000	0.0000000000	0.0000000000	33.2614367140	1.0000000000	445.2613219609	1.0000000000	0.0000000000	0.0000000000
0.4200000000	0.0000000000	1.0000000000	0.0000000000	1.0000000000	0.0000000000	0.0000000000	37.9940668543	1.0000000000	471.7497067967	1.0000000000	0.0000000000	0.0000000000
0.4300000000	0.0000000000	1.0000000000	0.0000000000	1.0000000000	0.0000000000	0.0000000000	43.1867552839	1.0000000000	499.8342101519	1.0000000000	0.0000000000	0.0000000000
0.4400000000	0.0000000000	1.0000000000	0.0000000000	1.0000000000	0.0000000000	0.0000000000	48.5876663714	1.0000000000	528.5407599118	1.0000000000	0.0000000000	0.0000000000
0.4500000000	0.0000000000	1.0000000000	0.0000000000	1.0000000000	0.0000000000	0.0000000000	54.7402822219	1.0000000000	556.2627317881	1.0000000000	0.0000000000	0.0000000000
0.4600000000	0.0000000000	1.0000000000	0.0000000000	1.0000000000	0.0000000000	0.0000000000	62.1565014738	1.0000000000	580.7975885446	1.0000000000	0.0000000000	0.0000000000
0.4700000000	0.0000000000	1.0000000000	0.0000000000	1.0000000000	0.0000000000	0.0000000000	70.4841137650	1.0000000000	600.0757285275	1.0000000000	0.0000000000	0.0000000000
0.4800000000	0.0000000000	1.0000000000	0.0000000000	1.0000000000	0.0000000000	0.0000000000	79.7053065713	1.0000000000	612.3455655395	1.0000000000	0.0000000000	0.0000000000
0.4900000000	10.0429487039	1.0000000000	11.0720701874	1.0000000000	0.0000000000	0.0000000000	90.1004325932	1.0000000000	615.7457601366	1.0000000000	0.0000000000	0.0000000000
0.5000000000	15.8965451241	1.0000000000	34.6857259291	1.0000000000	0.0000000000	0.0000000000	100.8552458543	1.0000000000	608.5075715427	1.0000000000	0.0000000000	0.0000000000
0.5100000000	20.9945962135	1.0000000000	71.0476036587	1.0000000000	0.0000000000	0.0000000000	110.7671773766	1.0000000000	589.5985833632	1.0000000000	0.0000000000	0.0000000000
0.5200000000	21.5008266406	1.0000000000	118.3891559847	1.0000000000	0.0000000000	0.0000000000	119.0798914130	1.0000000000	558.6779231663	1.0000000000	0.0000000000	0.0000000000
0.5300000000	13.7803531018	1.0000000000	171.5335400280	1.0000000000	0.0000000000	0.0000000000	124.0639409867	1.0000000000	515.7343108001	1.0000000000	0.0000000000	0.0000000000
0.5400000000	-1.1606818267	1.0000000000	224.4653708253	1.0000000000	0.0000000000	0.0000000000	123.7440778551	1.0000000000	461.6673392663	1.0000000000	0.0000000000	0.0000000000
0.5500000000	-18.1603458727	1.0000000000	272.1687602297	1.0000000000	0.0000000000	0.0000000000	118.0522055812	1.0000000000	399.2331963645	1.0000000000	0.0000000000	0.0000000000
0.5600000000	-33.7669508937	1.0000000000	311.1989555657	1.0000000000	0.0000000000	0.0000000000	107.2081625581	1.0000000000	332.3356999311	1.0000000000	0.0000000000	0.0000000000
0.5700000000	-47.7039238794	1.0000000000	341.3623727733	1.0000000000	0.0000000000	0.0000000000	91.4147743470	1.0000000000	264.7959333748	1.0000000000	0.0000000000	0.0000000000
0.5800000000	-59.4543558261	1.0000000000	366.1108198554	1.0000000000	0.0000000000	0.0000000000	72.9690909398	1.0000000000	200.6155353218	1.0000000000	0.0000000000	0.0000000000
0.5900000000	-68.5863223514	1.0000000000	390.2488605559	1.0000000000	0.0000000000	0.0000000000	54.6807449792	1.0000000000	144.1051511771	1.0000000000	0.0000000000	0.0000000000
0.6000000000	-76.1713932644	1.0000000000	416.7659279860	1.0000000000	0.0000000000	0.0000000000	37.5911840754	1.0000000000	98.0801106369	1.0000000000	0.0000000000	0.0000000000
0.6100000000	-82.1771781492	1.0000000000	445.4916519566	1.0000000000	0.0000000000	0.0000000000	22.9632130426	1.0000000000	62.4460038591	1.0000000000	0.0000000000	0.0000000000
0.6200000000	-85.2508238299	1.0000000000	474.5499790324	1.0000000000	0.0000000000	0.0000000000	12.5783002161	1.0000000000	36.1056645183	1.0000000000	0.0000000000	0.0000000000
0.6300000000	-85.6730350148	1.0000000000	501.7653374940	1.0000000000	0.0000000000	0.0000000000	6.0632852804	1.0000000000	18.5725969425	1.0000000000	0.0000000000	0.0000000000
0.6400000000	-84.1890130337	1.0000000000	524.7142036125	1.0000000000	0.0000000000	0.0000000000	2.0165461284	1.0000000000	8.5898912387	1.0000000000	0.0000000000	0.0000000000
0.6500000000	-80.2801784261	1.0000000000	541.3663401229	1.0000000000	0.0000000000	0.0000000000	0.2307691528	1.0000000000	3.5639500017	1.0000000000	0.0000000000	0.0000000000
0.6600000000	-74.4812191778	1.0000000000	551.0050883869	1.0000000000	0.0000000000	0.0000000000	0.1316968230	1.0000000000	1.3687400016	1.0000000000	0.0000000000	0.0000000000
0.6700000000	-68.4035391563	1.0000000000	553.8389826855	1.0000000000	0.0000000000	0.0000000000	0.3373402186	1.0000000000	1.1282906297	1.0000000000	0.0000000000	0.0000000000
0.6800000000	-62.0704030640	1.0000000000	550.0139035473	1.0000000000	0.0000000000	0.0000000000	0.5795558252	1.0000000000	1.8463838283	1.0000000000	0.0000000000	0.0000000000
0.6900000000	-55.2339111363	1.0000000000	539.8929904402	1.0000000000	0.0000000000	0.0000000000	1.0684233739	1.0000000000	2.3804057864	1.0000000000	0.0000000000	0.0000000000
0.7000000000	-49.0391421875	1.0000000000	524.7232279901	1.0000000000	0.0000000000	0.0000000000	1.3673709458	1.0000000000	2.4528242108	1.0000000000	0.0000000000	0.0000000000
0.7100000000	-43.5180082431	1.0000000000	505.9194244083	1.0000000000	0.0000000000	0.0000000000	1.4504653604	1.0000000000	2.3774535361	1.0000000000	0.0000000000	0.0000000000
0.7200000000	-37.8207714585	1.0000000000	484.4929785207	1.0000000000	0.0000000000	0.0000000000	1.7616869997	1.0000000000	2.2473920066	1.0000000000	0.0000000000	0.0000000000
0.7300000000	-32.3944633639	1.0000000000	461.6982336467	1.0000000000	0.0000000000	0.0000000000	1.8156916724	1.0000000000	1.8571018891	1.0000000000	0.0000000000	0.0000000000
0.7400000000	-27.5758184874	1.0000000000	439.2115451018	1.0000000000	0.0000000000	0.0000000000	1.2766493069	1.0000000000	1.2628068702	1.0000000000	0.0000000000	0.0000000000
0.7500000000	-22.6124597132	1.0000000000	418.2048813465	1.0000000000	0.0000000000	0.0000000000	0.8830720453	1.0000000000	0.8377555989	1.0000000000	0.0000000000	0.0000000000
0.7600000000	-17.6837228377	1.0000000000	399.0747334557	1.0000000000	0.0000000000	0.0000000000	0.8789552227	1.0000000000	0.6635057134	1.0000000000	0.0000000000	0.0000000000
0.7700000000	-13.6310490741	1.0000000000	382.3214962641	1.0000000000	0.0000000000	0.0000000000	0.8815500759	1.0000000000	0.5372278680	1.0000000000	0.0000000000	0.0000000000
0.7800000000	-9.8690853511	1.0000000000	368.6433240569	1.0000000000	0.0000000000	0.0000000000	0.8222688649	1.0000000000	0.3853706526	1.0000000000	0.0000000000	0.0000000000
0.7900000000	-5.9842472901	1.0000000000	358.1423632376	1.0000000000	0.0000000000	0.0000000000	0.8486023863	1.0000000000	0.2757595794	1.0000000000	0.0000000000	0.0000000000
0.8000000000	-2.6799029628	1.0000000000	350.4629040842	1.0000000000	0.0000000000	0.0000000000	0.8469515580	1.0000000000	0.1965444245	1.0000000000	0.0000000000	0.0000000000
0.8100000000	0.2934211067	1.0000000000	345.6703886550	1.0000000000	0.0000000000	0.0000000000	0.8372603075	1.0000000000	0.0715433765	1.0000000000	0.0000000000	0.0000000000
0.8200000000	3.7840402428	1.0000000000	344.1410537623	1.0000000000	0.0000000000	0.0000000000	0.0000000000	1.0000000000	0.0000000000	1.0000000000	0.0000000000	0.0000000000
0.8300000000	7.4389269045	1.0000000000	345.7869405509	1.0000000000	0.0000000000	0.0000000000	0.0000000000	1.0000000000	0.0000000000	1.0000000000	0.0000000000	0.0000000000
0.8400000000	10.8876021243	1.0000000000	350.2906764280	1.0000000000	0.0000000000	0.0000000000	0.0000000000	1.0000000000	0.0000000000	1.0000000000	0.0000000000	0.0000000000
0.8500000000	14.6249300016	1.0000000000	357.7878513793	1.0000000000	0.0000000000	0.0000000000	0.0000000000	1.0000000000	0.0000000000	1.0000000000	0.0000000000	0.0000000000
0.8600000000	18.4972801372	1.0000000000	368.4522398973	1.0000000000	0.0000000000	0.0000000000	0.0000000000	1.0000000000	0.0000000000	1.0000000000	0.0000000000	0.0000000000
0.8700000000	21.9863698205	1.0000000000	381.7797363756	1.0000000000	0.0000000000	0.0000000000	0.9337954311	1.0000000000	0.0342182198	1.0000000000	0.0000000000	0.0000000000
0.8800000000	25.4113465951	1.0000000000	397.0995613207	1.0000000000	0.0000000000	0.0000000000	0.7427315847	1.0000000000	0.2425025569	1.0000000000	0.0000000000	0.0000000000
0.8900000000	28.9771617977	1.0000000000	414.3952580712	1.0000000000	0.0000000000	0.0000000000	0.6696002860	1.0000000000	0.3925527816	1.0000000000	0.0000000000	0.0000000000
0.9000000000	32.3377472183	1.0000000000	433.8132606576	1.0000000000	0.0000000000	0.0000000000	0.6307693212	1.0000000000	0.4173671681	1.0000000000	0.0000000000	0.0000000000
0.9100000000	35.8196706074	1.0000000000	455.0104800252	1.0000000000	0.0000000000	0.0000000000	0.5560360939	1.0000000000	0.1961461059	1.0000000000	0.0000000000	0.0000000000
0.9200000000	39.9004321252	1.0000000000	477.5890735828	1.0000000000	0.0000000000	0.0000000000	0.0000000000	1.0000000000	0.0000000000	1.0000000000	0.0000000000	0.0000000000
0.9300000000	44.3673015748	1.0000000000	501.3380694479	1.0000000000	0.0000000000	0.0000000000	0.0000000000	1.0000000000	0.0000000000	1.0000000000	0.0000000000	0.0000000000
0.9400000000	49.3680109132	1.0000000000	525.3972385550	1.0000000000	0.0000000000	0.0000000000	0.0000000000	1.0000000000	0.0000000000	1.0000000000	0.0000000000	0.0000000000
0.9500000000	55.4785741123	1.0000000000	547.8997807507	1.0000000000	0.0000000000	0.0000000000	0.0000000000	1.0000000000	0.0000000000	1.0000000000	0.0000000000	0.0000000000
0.9600000000	62.6463959191	1.0000000000	566.8663930757	1.0000000000	0.0000000000	0.0000000000	0.0000000000	1.0000000000	0.0000000000	1.0000000000	0.0000000000	0.0000000000
0.9700000000	70.6892102586	1.0000000000	580.6751506796	1.0000000000	0.0000000000	0.0000000000	0.0000000000	1.0000000000	0.0000000000	1.0000000000	0.0000000000	0.0000000000
0.9800000000	79.8832632303	1.0000000000	587.5238248334	1.0000000000	0.0000000000	0.0000000000	0.0000000000	1.0000000000	0.0000000000	1.0000000000	0.0000000000	0.0000000000
0.9900000000	89.9846195465	1.0000000000	585.4552375591	1.0000000000	0.0000000000	0.0000000000	5.6002112522	1.0000000000	11.0553979495	1.0000000000	0.0000000000	0.0000000000
