name p12_grf_mean_speed_1.2
datacolumns 13
datarows 100
range 0.00000000 0.99000000
endheader
time	grf_x_l_mean	grf_x_l_var	grf_y_l_mean	grf_y_l_var	grf_z_l_mean	grf_z_l_var	grf_x_r_mean	grf_x_r_var	grf_y_r_mean	grf_y_r_var	grf_z_r_mean	grf_z_r_var
0.0000000000	65.9397945731	1.0000000000	572.7611515448	1.0000000000	0.0000000000	0.0000000000	7.3890778924	1.0000000000	10.7818481141	1.0000000000	0.0000000000	0.0000000000
0.0100000000	75.0520755107	1.0000000000	567.0415868578	1.0000000000	0.0000000000	0.0000000000	13.4655426593	1.0000000000	34.0511870617	1.0000000000	0.0000000000	0.0000000000
0.0200000000	84.6150374412	1.0000000000	551.9349125588	1.0000000000	0.0000000000	0.0000000000	19.3133056056	1.0000000000	69.7046922284	1.0000000000	0.0000000000	0.0000000000
0.0300000000	93.7195190166	1.0000000000	526.8601433366	1.0000000000	0.0000000000	0.0000000000	20.1387165951	1.0000000000	114.7977047546	1.0000000000	0.0000000000	0.0000000000
0.0400000000	100.3063303275	1.0000000000	491.1458414336	1.0000000000	0.0000000000	0.0000000000	12.6246238385	1.0000000000	163.5588964377	1.0000000000	0.0000000000	0.0000000000
0.0500000000	103.2722527334	1.0000000000	444.8716954621	1.0000000000	0.0000000000	0.0000000000	0.1678754970	1.0000000000	210.0309327308	1.0000000000	0.0000000000	0.0000000000
0.0600000000	102.1809577792	1.0000000000	389.5450222152	1.0000000000	0.0000000000	0.0000000000	-12.7322537430	1.0000000000	249.7049219831	1.0000000000	0.0000000000	0.0000000000
0.0700000000	95.2332302558	1.0000000000	327.4857027995	1.0000000000	0.0000000000	0.0000000000	-25.4200615940	1.0000000000	281.7513116452	1.0000000000	0.0000000000	0.0000000000
0.0800000000	82.0790826600	1.0000000000	262.3225714766	1.0000000000	0.0000000000	0.0000000000	-37.5989896532	1.0000000000	309.7069726871	1.0000000000	0.0000000000	0.0000000000
0.0900000000	64.9305611960	1.0000000000	199.3829104844	1.0000000000	0.0000000000	0.0000000000	-48.0624768041	1.0000000000	338.7132755721	1.0000000000	0.0000000000	0.0000000000
0.1000000000	45.8349039963	1.0000000000	143.5578908257	1.0000000000	0.0000000000	0.0000000000	-57.4195474257	1.0000000000	371.7615988947	1.0000000000	0.0000000000	0.0000000000
0.1100000000	27.6117612920	1.0000000000	97.1728954698	1.0000000000	0.0000000000	0.0000000000	-65.9140039038	1.0000000000	408.0781361341	1.0000000000	0.0000000000	0.0000000000
0.1200000000	13.7970918653	1.0000000000	61.0719429857	1.0000000000	0.0000000000	0.0000000000	-71.8259246109	1.0000000000	445.5650163466	1.0000000000	0.0000000000	0.0000000000
0.1300000000	4.7329365944	1.0000000000	35.2780353836	1.0000000000	0.0000000000	0.0000000000	-75.0047098770	1.0000000000	482.6440755962	1.0000000000	0.0000000000	0.0000000000
0.1400000000	-0.3942023352	1.0000000000	18.0830477753	1.0000000000	0.0000000000	0.0000000000	-76.5357118711	1.0000000000	516.9873036680	1.0000000000	0.0000000000	0.0000000000
0.1500000000	-1.8513084326	1.0000000000	7.1173435703	1.0000000000	0.0000000000	0.0000000000	-75.7465723733	1.0000000000	545.5795668273	1.0000000000	0.0000000000	0.0000000000
0.1600000000	-1.4758771667	1.0000000000	0.9772818845	1.0000000000	0.0000000000	0.0000000000	-72.8849403598	1.0000000000	566.7444752973	1.0000000000	0.0000000000	0.0000000000
0.1700000000	0.0000000000	1.0000000000	0.0000000000	1.0000000000	0.0000000000	0.0000000000	-69.2555465403	1.0000000000	580.3427538293	1.0000000000	0.0000000000	0.0000000000
0.1800000000	0.0000000000	1.0000000000	0.0000000000	1.0000000000	0.0000000000	0.0000000000	-65.0177265562	1.0000000000	586.2080992242	1.0000000000	0.0000000000	0.0000000000
0.1900000000	0.0000000000	1.0000000000	0.0000000000	1.0000000000	0.0000000000	0.0000000000	-60.2622758917	1.0000000000	584.0671845861	1.0000000000	0.0000000000	0.0000000000
0.2000000000	0.0000000000	1.0000000000	0.0000000000	1.0000000000	0.0000000000	0.0000000000	-55.7699420355	1.0000000000	574.3695784927	1.0000000000	0.0000000000	0.0000000000
0.2100000000	0.0000000000	1.0000000000	0.0000000000	1.0000000000	0.0000000000	0.0000000000	-51.3773208037	1.0000000000	558.3710635986	1.0000000000	0.0000000000	0.0000000000
0.2200000000	1.4948754692	1.0000000000	0.0802631064	1.0000000000	0.0000000000	0.0000000000	-46.6961040000	1.0000000000	537.9094527300	1.0000000000	0.0000000000	0.0000000000
0.2300000000	1.1815671331	1.0000000000	0.2158520635	1.0000000000	0.0000000000	0.0000000000	-42.1087645333	1.0000000000	514.9343596180	1.0000000000	0.0000000000	0.0000000000
0.2400000000	0.9840945735	1.0000000000	0.2655375420	1.0000000000	0.0000000000	0.0000000000	-37.3087240292	1.0000000000	491.1128805525	1.0000000000	0.0000000000	0.0000000000
0.2500000000	1.2647746867	1.0000000000	0.3275764673	1.0000000000	0.0000000000	0.0000000000	-32.0578938754	1.0000000000	467.7229835218	1.0000000000	0.0000000000	0.0000000000
0.2600000000	1.2037858102	1.0000000000	0.2880275773	1.0000000000	0.0000000000	0.0000000000	-26.9727287190	1.0000000000	445.7531801870	1.0000000000	0.0000000000	0.0000000000
0.2700000000	1.0069291797	1.0000000000	0.2214399568	1.0000000000	0.0000000000	0.0000000000	-22.2793367435	1.0000000000	425.8641413366	1.0000000000	0.0000000000	0.0000000000
0.2800000000	1.1868620352	1.0000000000	0.2276318918	1.0000000000	0.0000000000	0.0000000000	-17.8966453732	1.0000000000	408.4674965397	1.0000000000	0.0000000000	0.0000000000
0.2900000000	1.0763963730	1.0000000000	0.1940645238	1.0000000000	0.0000000000	0.0000000000	-14.1775999123	1.0000000000	393.7483071824	1.0000000000	0.0000000000	0.0000000000
0.3000000000	0.6717806684	1.0000000000	0.0714295985	1.0000000000	0.0000000000	0.0000000000	-11.0627340108	1.0000000000	381.6385499884	1.0000000000	0.0000000000	0.0000000000
0.3100000000	0.0000000000	1.0000000000	0.0000000000	1.0000000000	0.0000000000	0.0000000000	-8.3743844846	1.0000000000	372.2973763686	1.0000000000	0.0000000000	0.0000000000
0.3200000000	0.0000000000	1.0000000000	0.0000000000	1.0000000000	0.0000000000	0.0000000000	-6.2938393538	1.0000000000	365.9728913948	1.0000000000	0.0000000000	0.0000000000
0.3300000000	0.0000000000	1.0000000000	0.0000000000	1.0000000000	0.0000000000	0.0000000000	-4.3721011883	1.0000000000	362.4869097880	1.0000000000	0.0000000000	0.0000000000
0.3400000000	0.0000000000	1.0000000000	0.0000000000	1.0000000000	0.0000000000	0.0000000000	-2.0343682353	1.0000000000	361.6693179990	1.0000000000	0.0000000000	0.0000000000
0.3500000000	0.0000000000	1.0000000000	0.0000000000	1.0000000000	0.0000000000	0.0000000000	0.4730060731	1.0000000000	363.9318633224	1.0000000000	0.0000000000	0.0000000000
0.3600000000	0.0000000000	1.0000000000	0.0000000000	1.0000000000	0.0000000000	0.0000000000	3.3812167239	1.0000000000	369.4675717405	1.0000000000	0.0000000000	0.0000000000
0.3700000000	0.7009320193	1.0000000000	0.0022624045	1.0000000000	0.0000000000	0.0000000000	7.1694937612	1.0000000000	377.6697780087	1.0000000000	0.0000000000	0.0000000000
0.3800000000	0.6948694830	1.0000000000	0.0434165505	1.0000000000	0.0000000000	0.0000000000	11.4372373221	1.0000000000	388.0666600656	1.0000000000	0.0000000000	0.0000000000
0.3900000000	0.5275028113	1.0000000000	0.1100240641	1.0000000000	0.0000000000	0.0000000000	15.9301582204	1.0000000000	400.7910983319	1.0000000000	0.0000000000	0.0000000000
0.4000000000	0.3697448310	1.0000000000	0.1061716882	1.0000000000	0.0000000000	0.0000000000	20.8405804187	1.0000000000	416.0508893249	1.0000000000	0.0000000000	0.0000000000
0.4100000000	0.0000000000	1.0000000000	0.0000000000	1.0000000000	0.0000000000	0.0000000000	25.6505651067	1.0000000000	433.8885626771	1.0000000000	0.0000000000	0.0000000000
0.4200000000	0.0000000000	1.0000000000	0.0000000000	1.0000000000	0.0000000000	0.0000000000	30.0290396226	1.0000000000	454.2708570423	1.0000000000	0.0000000000	0.0000000000
0.4300000000	0.0000000000	1.0000000000	0.0000000000	1.0000000000	0.0000000000	0.0000000000	34.4288192495	1.0000000000	476.9001983810	1.0000000000	0.0000000000	0.0000000000
0.4400000000	0.0000000000	1.0000000000	0.0000000000	1.0000000000	0.0000000000	0.0000000000	38.7150292612	1.0000000000	501.0986423811	1.0000000000	0.0000000000	0.0000000000
0.4500000000	0.0000000000	1.0000000000	0.0000000000	1.0000000000	0.0000000000	0.0000000000	42.8197740699	1.0000000000	525.7553828999	1.0000000000	0.0000000000	0.0000000000
0.4600000000	0.0000000000	1.0000000000	0.0000000000	1.0000000000	0.0000000000	0.0000000000	47.5716668767	1.0000000000	549.0423107966	1.0000000000	0.0000000000	0.0000000000
0.4700000000	0.0000000000	1.0000000000	0.0000000000	1.0000000000	0.0000000000	0.0000000000	53.3145887612	1.0000000000	568.6844699945	1.0000000000	0.0000000000	0.0000000000
0.4800000000	5.8103767722	1.0000000000	2.2169178062	1.0000000000	0.0000000000	0.0000000000	59.8676792296	1.0000000000	582.7763950215	1.0000000000	0.0000000000	0.0000000000
0.4900000000	12.6138911410	1.0000000000	15.1723679988	1.0000000000	0.0000000000	0.0000000000	67.6435428543	1.0000000000	590.0000792934	1.0000000000	0.0000000000	0.0000000000
0.5000000000	21.0959846825	1.0000000000	37.6385839132	1.0000000000	0.0000000000	0.0000000000	76.6057534037	1.0000000000	589.0334019391	1.0000000000	0.0000000000	0.0000000000
0.5100000000	27.8930189186	1.0000000000	69.2402922682	1.0000000000	0.0000000000	0.0000000000	85.8436628771	1.0000000000	578.3772872384	1.0000000000	0.0000000000	0.0000000000
0.5200000000	28.0211793436	1.0000000000	106.7148718315	1.0000000000	0.0000000000	0.0000000000	94.5177362078	1.0000000000	556.9745642837	1.0000000000	0.0000000000	0.0000000000
0.5300000000	19.8705552503	1.0000000000	146.3684750937	1.0000000000	0.0000000000	0.0000000000	101.4192953996	1.0000000000	524.6447078302	1.0000000000	0.0000000000	0.0000000000
0.5400000000	7.0638942194	1.0000000000	185.4136296960	1.0000000000	0.0000000000	0.0000000000	105.4052661312	1.0000000000	482.2496972771	1.0000000000	0.0000000000	0.0000000000
0.5500000000	-6.5096251862	1.0000000000	220.8276712720	1.0000000000	0.0000000000	0.0000000000	105.5917649436	1.0000000000	431.2714966419	1.0000000000	0.0000000000	0.0000000000
0.5600000000	-19.5537023829	1.0000000000	250.3317597821	1.0000000000	0.0000000000	0.0000000000	100.9641132542	1.0000000000	373.2966069049	1.0000000000	0.0000000000	0.0000000000
0.5700000000	-31.2519491837	1.0000000000	274.7457865983	1.0000000000	0.0000000000	0.0000000000	91.5220820410	1.0000000000	310.8500321145	1.0000000000	0.0000000000	0.0000000000
0.5800000000	-41.0932340900	1.0000000000	297.9709312004	1.0000000000	0.0000000000	0.0000000000	78.3352043594	1.0000000000	248.1719993269	1.0000000000	0.0000000000	0.0000000000
0.5900000000	-50.1093548530	1.0000000000	324.0407249930	1.0000000000	0.0000000000	0.0000000000	62.5930777875	1.0000000000	189.4843473407	1.0000000000	0.0000000000	0.0000000000
0.6000000000	-58.5239317902	1.0000000000	354.3120906529	1.0000000000	0.0000000000	0.0000000000	46.0464191388	1.0000000000	137.1154757802	1.0000000000	0.0000000000	0.0000000000
0.6100000000	-65.2141981290	1.0000000000	387.9178243729	1.0000000000	0.0000000000	0.0000000000	30.9121355905	1.0000000000	92.8895617203	1.0000000000	0.0000000000	0.0000000000
0.6200000000	-70.0036680497	1.0000000000	423.1102841333	1.0000000000	0.0000000000	0.0000000000	18.3773847366	1.0000000000	58.7572907418	1.0000000000	0.0000000000	0.0000000000
0.6300000000	-72.8719087543	1.0000000000	457.4168313972	1.0000000000	0.0000000000	0.0000000000	9.1371935542	1.0000000000	34.5391289554	1.0000000000	0.0000000000	0.0000000000
0.6400000000	-73.1209568033	1.0000000000	488.1539163160	1.0000000000	0.0000000000	0.0000000000	3.5899667574	1.0000000000	17.8515563210	1.0000000000	0.0000000000	0.0000000000
0.6500000000	-71.2929746116	1.0000000000	513.6622387122	1.0000000000	0.0000000000	0.0000000000	0.8568912149	1.0000000000	6.9455528862	1.0000000000	0.0000000000	0.0000000000
0.6600000000	-68.4017372899	1.0000000000	533.3615888324	1.0000000000	0.0000000000	0.0000000000	-0.2207155023	1.0000000000	0.9763729628	1.0000000000	0.0000000000	0.0000000000
0.6700000000	-64.3923035501	1.0000000000	546.7001556444	1.0000000000	0.0000000000	0.0000000000	0.0000000000	1.0000000000	0.0000000000	1.0000000000	0.0000000000	0.0000000000
0.6800000000	-59.7580666311	1.0000000000	553.2583393732	1.0000000000	0.0000000000	0.0000000000	0.0000000000	1.0000000000	0.0000000000	1.0000000000	0.0000000000	0.0000000000
0.6900000000	-55.2186156675	1.0000000000	553.2332985247	1.0000000000	0.0000000000	0.0000000000	0.0000000000	1.0000000000	0.0000000000	1.0000000000	0.0000000000	0.0000000000
0.7000000000	-50.5254206437	1.0000000000	547.0284733451	1.0000000000	0.0000000000	0.0000000000	0.0000000000	1.0000000000	0.0000000000	1.0000000000	0.0000000000	0.0000000000
0.7100000000	-45.6436136268	1.0000000000	535.2086114271	1.0000000000	0.0000000000	0.0000000000	0.0000000000	1.0000000000	0.0000000000	1.0000000000	0.0000000000	0.0000000000
0.7200000000	-40.8573674173	1.0000000000	519.1408194200	1.0000000000	0.0000000000	0.0000000000	0.7858837803	1.0000000000	0.1127463526	1.0000000000	0.0000000000	0.0000000000
0.7300000000	-35.7688502228	1.0000000000	500.6493562793	1.0000000000	0.0000000000	0.0000000000	0.5173782201	1.0000000000	0.1894353054	1.0000000000	0.0000000000	0.0000000000
0.7400000000	-30.3690151361	1.0000000000	481.1179074817	1.0000000000	0.0000000000	0.0000000000	0.3885869276	1.0000000000	0.2120143935	1.0000000000	0.0000000000	0.0000000000
0.7500000000	-25.2761132382	1.0000000000	461.7348370700	1.0000000000	0.0000000000	0.0000000000	0.3481255611	1.0000000000	0.1933763734	1.0000000000	0.0000000000	0.0000000000
0.7600000000	-20.3535868787	1.0000000000	443.6885366019	1.0000000000	0.0000000000	0.0000000000	0.3456614311	1.0000000000	0.1423102365	1.0000000000	0.0000000000	0.0000000000
0.7700000000	-15.5644821688	1.0000000000	427.5111346494	1.0000000000	0.0000000000	0.0000000000	0.3887496578	1.0000000000	0.0777763389	1.0000000000	0.0000000000	0.0000000000
0.7800000000	-11.4752857875	1.0000000000	413.1379854081	1.0000000000	0.0000000000	0.0000000000	0.4471905135	1.0000000000	0.0000049388	1.0000000000	0.0000000000	0.0000000000
0.7900000000	-7.9630692472	1.0000000000	400.7333827478	1.0000000000	0.0000000000	0.0000000000	0.0000000000	1.0000000000	0.0000000000	1.0000000000	0.0000000000	0.0000000000
0.8000000000	-4.6406492191	1.0000000000	390.6435240901	1.0000000000	0.0000000000	0.0000000000	0.0000000000	1.0000000000	0.0000000000	1.0000000000	0.0000000000	0.0000000000
0.8100000000	-1.6949336553	1.0000000000	382.8527626535	1.0000000000	0.0000000000	0.0000000000	0.2572127257	1.0000000000	0.0412559645	1.0000000000	0.0000000000	0.0000000000
0.8200000000	0.9903795151	1.0000000000	377.3140452268	1.0000000000	0.0000000000	0.0000000000	0.0896700912	1.0000000000	0.0619355753	1.0000000000	0.0000000000	0.0000000000
0.8300000000	3.8009047765	1.0000000000	374.4035130000	1.0000000000	0.0000000000	0.0000000000	0.0000000000	1.0000000000	0.0000000000	1.0000000000	0.0000000000	0.0000000000
0.8400000000	6.7151263593	1.0000000000	374.4242233103	1.0000000000	0.0000000000	0.0000000000	0.0000000000	1.0000000000	0.0000000000	1.0000000000	0.0000000000	0.0000000000
0.8500000000	9.8517030842	1.0000000000	377.2193137954	1.0000000000	0.0000000000	0.0000000000	0.0000000000	1.0000000000	0.0000000000	1.0000000000	0.0000000000	0.0000000000
0.8600000000	13.3502590065	1.0000000000	382.6994531062	1.0000000000	0.0000000000	0.0000000000	0.0000000000	1.0000000000	0.0000000000	1.0000000000	0.0000000000	0.0000000000
0.8700000000	16.8486169162	1.0000000000	390.9276721095	1.0000000000	0.0000000000	0.0000000000	0.0803606600	1.0000000000	0.0566631116	1.0000000000	0.0000000000	0.0000000000
0.8800000000	20.2367311499	1.0000000000	401.5578707416	1.0000000000	0.0000000000	0.0000000000	0.0622895810	1.0000000000	0.1489852221	1.0000000000	0.0000000000	0.0000000000
0.8900000000	23.6069641203	1.0000000000	414.0888736379	1.0000000000	0.0000000000	0.0000000000	0.0580064869	1.0000000000	0.2355763589	1.0000000000	0.0000000000	0.0000000000
0.9000000000	26.6074840778	1.0000000000	428.5070958583	1.0000000000	0.0000000000	0.0000000000	0.0535612836	1.0000000000	0.2664034747	1.0000000000	0.0000000000	0.0000000000
0.9100000000	29.1511754332	1.0000000000	444.9428037444	1.0000000000	0.0000000000	0.0000000000	0.0045450079	1.0000000000	0.1489811860	1.0000000000	0.0000000000	0.0000000000
0.9200000000	31.6151043597	1.0000000000	463.1825095493	1.0000000000	0.0000000000	0.0000000000	0.0000000000	1.0000000000	0.0000000000	1.0000000000	0.0000000000	0.0000000000
0.9300000000	34.0850386007	1.0000000000	482.9823617991	1.0000000000	0.0000000000	0.0000000000	0.0000000000	1.0000000000	0.0000000000	1.0000000000	0.0000000000	0.0000000000
0.9400000000	36.7782588834	1.0000000000	504.0039554547	1.0000000000	0.0000000000	0.0000000000	0.0000000000	1.0000000000	0.0000000000	1.0000000000	0.0000000000	0.0000000000
0.9500000000	40.2891162382	1.0000000000	525.0880275600	1.0000000000	0.0000000000	0.0000000000	0.0000000000	1.0000000000	0.0000000000	1.0000000000	0.0000000000	0.0000000000
0.9600000000	44.8210731535	1.0000000000	544.3013240467	1.0000000000	0.0000000000	0.0000000000	0.0000000000	1.0000000000	0.0000000000	1.0000000000	0.0000000000	0.0000000000
0.9700000000	50.4516431670	1.0000000000	559.7343272236	1.0000000000	0.0000000000	0.0000000000	0.0000000000	1.0000000000	0.0000000000	1.0000000000	0.0000000000	0.0000000000
0.9800000000	57.5052732556	1.0000000000	569.7209180757	1.0000000000	0.0000000000	0.0000000000	0.0000000000	1.0000000000	0.0000000000	1.0000000000	0.0000000000	0.0000000000
0.9900000000	65.8463848644	1.0000000000	572.5798239628	1.0000000000	0.0000000000	0.0000000000	7.3937471400	1.0000000000	10.7861033401	1.0000000000	0.0000000000	0.0000000000
