name p13_grf_mean_speed_1.8
datacolumns 13
datarows 100
range 0.00000000 0.99000000
endheader
time	grf_x_l_mean	grf_x_l_var	grf_y_l_mean	grf_y_l_var	grf_z_l_mean	grf_z_l_var	grf_x_r_mean	grf_x_r_var	grf_y_r_mean	grf_y_r_var	grf_z_r_mean	grf_z_r_var
0.0000000000	223.6992497580	1.0000000000	1026.2009193672	1.0000000000	0.0000000000	0.0000000000	13.6767459590	1.0000000000	11.6784418364	1.0000000000	0.0000000000	0.0000000000
0.0100000000	249.1366685228	1.0000000000	1025.5615564507	1.0000000000	0.0000000000	0.0000000000	17.6571509264	1.0000000000	55.8433466627	1.0000000000	0.0000000000	0.0000000000
0.0200000000	272.8625580894	1.0000000000	1008.0994490339	1.0000000000	0.0000000000	0.0000000000	18.2994387940	1.0000000000	128.5454700663	1.0000000000	0.0000000000	0.0000000000
0.0300000000	293.1376969327	1.0000000000	971.3954045421	1.0000000000	0.0000000000	0.0000000000	10.8988277381	1.0000000000	229.8608588917	1.0000000000	0.0000000000	0.0000000000
0.0400000000	306.7750917816	1.0000000000	912.6520648550	1.0000000000	0.0000000000	0.0000000000	-10.3531445084	1.0000000000	351.8866857655	1.0000000000	0.0000000000	0.0000000000
0.0500000000	309.1213916483	1.0000000000	830.4652020804	1.0000000000	0.0000000000	0.0000000000	-45.4550968694	1.0000000000	484.3134707345	1.0000000000	0.0000000000	0.0000000000
0.0600000000	297.8071908745	1.0000000000	727.3153850550	1.0000000000	0.0000000000	0.0000000000	-86.4268316687	1.0000000000	619.2514505197	1.0000000000	0.0000000000	0.0000000000
0.0700000000	272.7795704073	1.0000000000	609.4066529058	1.0000000000	0.0000000000	0.0000000000	-125.5772472335	1.0000000000	749.7779408352	1.0000000000	0.0000000000	0.0000000000
0.0800000000	233.7438991459	1.0000000000	484.5617168536	1.0000000000	0.0000000000	0.0000000000	-161.0626614780	1.0000000000	867.3807690590	1.0000000000	0.0000000000	0.0000000000
0.0900000000	184.0679065217	1.0000000000	361.3756197803	1.0000000000	0.0000000000	0.0000000000	-192.5350106082	1.0000000000	963.8819250637	1.0000000000	0.0000000000	0.0000000000
0.1000000000	132.3589789130	1.0000000000	249.6241861449	1.0000000000	0.0000000000	0.0000000000	-217.3768216315	1.0000000000	1035.6379030644	1.0000000000	0.0000000000	0.0000000000
0.1100000000	86.1523821584	1.0000000000	157.9123983340	1.0000000000	0.0000000000	0.0000000000	-233.2921932833	1.0000000000	1085.0144780938	1.0000000000	0.0000000000	0.0000000000
0.1200000000	49.0428463820	1.0000000000	89.3821740256	1.0000000000	0.0000000000	0.0000000000	-241.5594551255	1.0000000000	1117.1765899796	1.0000000000	0.0000000000	0.0000000000
0.1300000000	22.8058611379	1.0000000000	41.7909075012	1.0000000000	0.0000000000	0.0000000000	-244.2196718020	1.0000000000	1136.8269380837	1.0000000000	0.0000000000	0.0000000000
0.1400000000	7.1370661118	1.0000000000	11.9349678428	1.0000000000	0.0000000000	0.0000000000	-240.2173571956	1.0000000000	1147.6452812857	1.0000000000	0.0000000000	0.0000000000
0.1500000000	0.0000000000	1.0000000000	0.0000000000	1.0000000000	0.0000000000	0.0000000000	-230.0264595671	1.0000000000	1151.8625496461	1.0000000000	0.0000000000	0.0000000000
0.1600000000	0.0000000000	1.0000000000	0.0000000000	1.0000000000	0.0000000000	0.0000000000	-215.6289221536	1.0000000000	1148.9586204649	1.0000000000	0.0000000000	0.0000000000
0.1700000000	0.0000000000	1.0000000000	0.0000000000	1.0000000000	0.0000000000	0.0000000000	-197.9707993721	1.0000000000	1136.3202006406	1.0000000000	0.0000000000	0.0000000000
0.1800000000	0.0000000000	1.0000000000	0.0000000000	1.0000000000	0.0000000000	0.0000000000	-177.5306244918	1.0000000000	1112.4285027631	1.0000000000	0.0000000000	0.0000000000
0.1900000000	0.0000000000	1.0000000000	0.0000000000	1.0000000000	0.0000000000	0.0000000000	-155.6352574621	1.0000000000	1078.4447128844	1.0000000000	0.0000000000	0.0000000000
0.2000000000	0.0000000000	1.0000000000	0.0000000000	1.0000000000	0.0000000000	0.0000000000	-133.6946790825	1.0000000000	1036.1535051885	1.0000000000	0.0000000000	0.0000000000
0.2100000000	1.5647627099	1.0000000000	0.1619312870	1.0000000000	0.0000000000	0.0000000000	-111.6349602390	1.0000000000	986.1727288119	1.0000000000	0.0000000000	0.0000000000
0.2200000000	2.3260481619	1.0000000000	0.7578992250	1.0000000000	0.0000000000	0.0000000000	-90.0886523724	1.0000000000	929.1008550629	1.0000000000	0.0000000000	0.0000000000
0.2300000000	2.3661880793	1.0000000000	1.1424933050	1.0000000000	0.0000000000	0.0000000000	-70.3650803751	1.0000000000	866.5983888871	1.0000000000	0.0000000000	0.0000000000
0.2400000000	2.4688811627	1.0000000000	1.7078877829	1.0000000000	0.0000000000	0.0000000000	-53.1681457311	1.0000000000	800.7292170078	1.0000000000	0.0000000000	0.0000000000
0.2500000000	3.0413153421	1.0000000000	1.8238493929	1.0000000000	0.0000000000	0.0000000000	-38.3863961055	1.0000000000	733.3515874842	1.0000000000	0.0000000000	0.0000000000
0.2600000000	3.0030851607	1.0000000000	1.2272415587	1.0000000000	0.0000000000	0.0000000000	-26.1376866426	1.0000000000	666.6411258356	1.0000000000	0.0000000000	0.0000000000
0.2700000000	2.5123542351	1.0000000000	0.7038937127	1.0000000000	0.0000000000	0.0000000000	-16.9506775050	1.0000000000	603.2966674283	1.0000000000	0.0000000000	0.0000000000
0.2800000000	2.5249036316	1.0000000000	0.7577322425	1.0000000000	0.0000000000	0.0000000000	-10.1821829994	1.0000000000	545.8358612412	1.0000000000	0.0000000000	0.0000000000
0.2900000000	2.8411593010	1.0000000000	0.8452238907	1.0000000000	0.0000000000	0.0000000000	-5.2971492897	1.0000000000	496.3631314693	1.0000000000	0.0000000000	0.0000000000
0.3000000000	2.4636077940	1.0000000000	0.5114912327	1.0000000000	0.0000000000	0.0000000000	-2.0179977227	1.0000000000	456.5291767013	1.0000000000	0.0000000000	0.0000000000
0.3100000000	1.9717681477	1.0000000000	0.3303960120	1.0000000000	0.0000000000	0.0000000000	0.1588319157	1.0000000000	427.1712482127	1.0000000000	0.0000000000	0.0000000000
0.3200000000	2.3489400389	1.0000000000	0.7395514636	1.0000000000	0.0000000000	0.0000000000	1.6545549385	1.0000000000	408.3070654116	1.0000000000	0.0000000000	0.0000000000
0.3300000000	2.7305703597	1.0000000000	1.0558651759	1.0000000000	0.0000000000	0.0000000000	2.9893702562	1.0000000000	399.5521980105	1.0000000000	0.0000000000	0.0000000000
0.3400000000	2.5261369500	1.0000000000	0.8255299960	1.0000000000	0.0000000000	0.0000000000	4.5707039664	1.0000000000	400.4354065245	1.0000000000	0.0000000000	0.0000000000
0.3500000000	2.3593229120	1.0000000000	0.6554080617	1.0000000000	0.0000000000	0.0000000000	7.0399671711	1.0000000000	410.4705197053	1.0000000000	0.0000000000	0.0000000000
0.3600000000	2.5590677182	1.0000000000	1.0045616210	1.0000000000	0.0000000000	0.0000000000	10.6031362889	1.0000000000	429.0237592872	1.0000000000	0.0000000000	0.0000000000
0.3700000000	2.5175757686	1.0000000000	1.3550782729	1.0000000000	0.0000000000	0.0000000000	15.3031386969	1.0000000000	455.1208791026	1.0000000000	0.0000000000	0.0000000000
0.3800000000	2.1143451548	1.0000000000	1.1902163093	1.0000000000	0.0000000000	0.0000000000	21.6750362861	1.0000000000	487.6887361036	1.0000000000	0.0000000000	0.0000000000
0.3900000000	1.9288017654	1.0000000000	0.8220161900	1.0000000000	0.0000000000	0.0000000000	29.9386047183	1.0000000000	526.1158192173	1.0000000000	0.0000000000	0.0000000000
0.4000000000	1.7750844454	1.0000000000	0.6508121731	1.0000000000	0.0000000000	0.0000000000	39.9253217699	1.0000000000	570.0875309451	1.0000000000	0.0000000000	0.0000000000
0.4100000000	1.3914012351	1.0000000000	0.2127218425	1.0000000000	0.0000000000	0.0000000000	51.7040521510	1.0000000000	618.7327974007	1.0000000000	0.0000000000	0.0000000000
0.4200000000	0.0000000000	1.0000000000	0.0000000000	1.0000000000	0.0000000000	0.0000000000	65.5921340376	1.0000000000	670.3947259868	1.0000000000	0.0000000000	0.0000000000
0.4300000000	0.0000000000	1.0000000000	0.0000000000	1.0000000000	0.0000000000	0.0000000000	81.2314446318	1.0000000000	723.2398702201	1.0000000000	0.0000000000	0.0000000000
0.4400000000	0.0000000000	1.0000000000	0.0000000000	1.0000000000	0.0000000000	0.0000000000	98.0588205689	1.0000000000	775.4003639298	1.0000000000	0.0000000000	0.0000000000
0.4500000000	0.0000000000	1.0000000000	0.0000000000	1.0000000000	0.0000000000	0.0000000000	115.9882361861	1.0000000000	824.7057826235	1.0000000000	0.0000000000	0.0000000000
0.4600000000	0.0000000000	1.0000000000	0.0000000000	1.0000000000	0.0000000000	0.0000000000	134.7523169763	1.0000000000	868.9918095844	1.0000000000	0.0000000000	0.0000000000
0.4700000000	0.0000000000	1.0000000000	0.0000000000	1.0000000000	0.0000000000	0.0000000000	153.8651064168	1.0000000000	906.5407579825	1.0000000000	0.0000000000	0.0000000000
0.4800000000	0.0000000000	1.0000000000	0.0000000000	1.0000000000	0.0000000000	0.0000000000	173.3596966967	1.0000000000	935.8098072641	1.0000000000	0.0000000000	0.0000000000
0.4900000000	9.3746754365	1.0000000000	10.4117136831	1.0000000000	0.0000000000	0.0000000000	193.8281750583	1.0000000000	954.9517864134	1.0000000000	0.0000000000	0.0000000000
0.5000000000	11.7011585754	1.0000000000	56.1905625399	1.0000000000	0.0000000000	0.0000000000	214.9955064669	1.0000000000	961.9863254878	1.0000000000	0.0000000000	0.0000000000
0.5100000000	11.2248019600	1.0000000000	132.1001033028	1.0000000000	0.0000000000	0.0000000000	235.7259126182	1.0000000000	955.0714863977	1.0000000000	0.0000000000	0.0000000000
0.5200000000	4.2393680157	1.0000000000	238.7043920590	1.0000000000	0.0000000000	0.0000000000	255.0367465626	1.0000000000	932.1101856056	1.0000000000	0.0000000000	0.0000000000
0.5300000000	-14.1898971280	1.0000000000	367.0317404249	1.0000000000	0.0000000000	0.0000000000	271.0807188112	1.0000000000	890.4158025398	1.0000000000	0.0000000000	0.0000000000
0.5400000000	-46.0013466290	1.0000000000	502.7359345227	1.0000000000	0.0000000000	0.0000000000	280.0793696469	1.0000000000	827.7887357583	1.0000000000	0.0000000000	0.0000000000
0.5500000000	-85.6705236734	1.0000000000	633.7996776002	1.0000000000	0.0000000000	0.0000000000	278.7683084589	1.0000000000	744.5956845979	1.0000000000	0.0000000000	0.0000000000
0.5600000000	-124.8286391097	1.0000000000	753.0772899145	1.0000000000	0.0000000000	0.0000000000	265.9954307697	1.0000000000	644.6077257341	1.0000000000	0.0000000000	0.0000000000
0.5700000000	-159.8452726661	1.0000000000	855.8085627399	1.0000000000	0.0000000000	0.0000000000	240.3483152374	1.0000000000	533.6687042804	1.0000000000	0.0000000000	0.0000000000
0.5800000000	-191.0238858027	1.0000000000	938.4238611287	1.0000000000	0.0000000000	0.0000000000	201.9727615140	1.0000000000	418.3972482289	1.0000000000	0.0000000000	0.0000000000
0.5900000000	-216.9656234494	1.0000000000	1000.9914278971	1.0000000000	0.0000000000	0.0000000000	156.1418467057	1.0000000000	306.7366898196	1.0000000000	0.0000000000	0.0000000000
0.6000000000	-235.3860898865	1.0000000000	1048.5184110427	1.0000000000	0.0000000000	0.0000000000	110.4036587916	1.0000000000	207.8888646016	1.0000000000	0.0000000000	0.0000000000
0.6100000000	-246.4707451108	1.0000000000	1087.2364002321	1.0000000000	0.0000000000	0.0000000000	69.8419467619	1.0000000000	128.7476203855	1.0000000000	0.0000000000	0.0000000000
0.6200000000	-250.7192029726	1.0000000000	1120.1244908058	1.0000000000	0.0000000000	0.0000000000	37.5610018077	1.0000000000	70.4966297459	1.0000000000	0.0000000000	0.0000000000
0.6300000000	-246.9725531146	1.0000000000	1146.8482945793	1.0000000000	0.0000000000	0.0000000000	15.8909756356	1.0000000000	30.4460550032	1.0000000000	0.0000000000	0.0000000000
0.6400000000	-235.4348272916	1.0000000000	1165.9053753022	1.0000000000	0.0000000000	0.0000000000	4.0662796865	1.0000000000	5.9768268964	1.0000000000	0.0000000000	0.0000000000
0.6500000000	-218.4914814204	1.0000000000	1175.0998461950	1.0000000000	0.0000000000	0.0000000000	0.0000000000	1.0000000000	0.0000000000	1.0000000000	0.0000000000	0.0000000000
0.6600000000	-197.4797546083	1.0000000000	1171.3506345408	1.0000000000	0.0000000000	0.0000000000	0.0000000000	1.0000000000	0.0000000000	1.0000000000	0.0000000000	0.0000000000
0.6700000000	-173.1042533752	1.0000000000	1152.3078731578	1.0000000000	0.0000000000	0.0000000000	0.0000000000	1.0000000000	0.0000000000	1.0000000000	0.0000000000	0.0000000000
0.6800000000	-147.7830602169	1.0000000000	1118.4199976068	1.0000000000	0.0000000000	0.0000000000	0.0000000000	1.0000000000	0.0000000000	1.0000000000	0.0000000000	0.0000000000
0.6900000000	-123.5318699660	1.0000000000	1072.1860741401	1.0000000000	0.0000000000	0.0000000000	0.0000000000	1.0000000000	0.0000000000	1.0000000000	0.0000000000	0.0000000000
0.7000000000	-100.1509671974	1.0000000000	1015.9012363391	1.0000000000	0.0000000000	0.0000000000	0.0000000000	1.0000000000	0.0000000000	1.0000000000	0.0000000000	0.0000000000
0.7100000000	-77.9846305479	1.0000000000	951.4731075263	1.0000000000	0.0000000000	0.0000000000	3.2772592043	1.0000000000	0.5035857662	1.0000000000	0.0000000000	0.0000000000
0.7200000000	-58.6429356928	1.0000000000	881.6327163966	1.0000000000	0.0000000000	0.0000000000	3.5036107548	1.0000000000	0.8152783314	1.0000000000	0.0000000000	0.0000000000
0.7300000000	-42.2317880017	1.0000000000	809.5223404372	1.0000000000	0.0000000000	0.0000000000	3.3447959864	1.0000000000	0.9733175624	1.0000000000	0.0000000000	0.0000000000
0.7400000000	-27.9465542705	1.0000000000	737.3691512626	1.0000000000	0.0000000000	0.0000000000	3.7442958921	1.0000000000	1.1453781879	1.0000000000	0.0000000000	0.0000000000
0.7500000000	-16.3236394324	1.0000000000	666.9395407146	1.0000000000	0.0000000000	0.0000000000	4.0615687724	1.0000000000	1.0320999705	1.0000000000	0.0000000000	0.0000000000
0.7600000000	-7.9209231381	1.0000000000	600.7145123038	1.0000000000	0.0000000000	0.0000000000	3.5765531071	1.0000000000	0.7171538699	1.0000000000	0.0000000000	0.0000000000
0.7700000000	-1.7017585066	1.0000000000	541.2803695843	1.0000000000	0.0000000000	0.0000000000	2.9728664415	1.0000000000	0.6185761962	1.0000000000	0.0000000000	0.0000000000
0.7800000000	2.9844277325	1.0000000000	490.1536646230	1.0000000000	0.0000000000	0.0000000000	2.8024563222	1.0000000000	0.7425243135	1.0000000000	0.0000000000	0.0000000000
0.7900000000	5.5632251362	1.0000000000	448.2704984293	1.0000000000	0.0000000000	0.0000000000	2.6297338006	1.0000000000	0.6739234468	1.0000000000	0.0000000000	0.0000000000
0.8000000000	6.6042396283	1.0000000000	416.9812231535	1.0000000000	0.0000000000	0.0000000000	2.2980139963	1.0000000000	0.3855373984	1.0000000000	0.0000000000	0.0000000000
0.8100000000	7.5669035436	1.0000000000	397.4785018258	1.0000000000	0.0000000000	0.0000000000	2.2967582233	1.0000000000	0.3237175898	1.0000000000	0.0000000000	0.0000000000
0.8200000000	8.5509892146	1.0000000000	389.6132198676	1.0000000000	0.0000000000	0.0000000000	2.5369191052	1.0000000000	0.4819464078	1.0000000000	0.0000000000	0.0000000000
0.8300000000	9.2142878756	1.0000000000	392.2716570682	1.0000000000	0.0000000000	0.0000000000	2.6341059259	1.0000000000	0.3643064333	1.0000000000	0.0000000000	0.0000000000
0.8400000000	10.5251959008	1.0000000000	404.5999306859	1.0000000000	0.0000000000	0.0000000000	0.0000000000	1.0000000000	0.0000000000	1.0000000000	0.0000000000	0.0000000000
0.8500000000	13.3560174164	1.0000000000	426.0606836046	1.0000000000	0.0000000000	0.0000000000	0.0000000000	1.0000000000	0.0000000000	1.0000000000	0.0000000000	0.0000000000
0.8600000000	17.2775299655	1.0000000000	455.6067191668	1.0000000000	0.0000000000	0.0000000000	0.0000000000	1.0000000000	0.0000000000	1.0000000000	0.0000000000	0.0000000000
0.8700000000	22.2013428261	1.0000000000	491.8093502894	1.0000000000	0.0000000000	0.0000000000	2.3373389674	1.0000000000	0.3459799772	1.0000000000	0.0000000000	0.0000000000
0.8800000000	28.8307367019	1.0000000000	533.7750470604	1.0000000000	0.0000000000	0.0000000000	2.2297726617	1.0000000000	0.6501977391	1.0000000000	0.0000000000	0.0000000000
0.8900000000	37.2664501815	1.0000000000	581.0725719026	1.0000000000	0.0000000000	0.0000000000	2.3125433883	1.0000000000	0.7018632464	1.0000000000	0.0000000000	0.0000000000
0.9000000000	47.3207116200	1.0000000000	632.7469778153	1.0000000000	0.0000000000	0.0000000000	2.0943299666	1.0000000000	0.5977425254	1.0000000000	0.0000000000	0.0000000000
0.9100000000	59.4776869232	1.0000000000	687.3144639882	1.0000000000	0.0000000000	0.0000000000	1.6456649172	1.0000000000	0.1180499804	1.0000000000	0.0000000000	0.0000000000
0.9200000000	73.9917685847	1.0000000000	743.4957013941	1.0000000000	0.0000000000	0.0000000000	0.0000000000	1.0000000000	0.0000000000	1.0000000000	0.0000000000	0.0000000000
0.9300000000	90.3466154589	1.0000000000	799.9585642043	1.0000000000	0.0000000000	0.0000000000	0.0000000000	1.0000000000	0.0000000000	1.0000000000	0.0000000000	0.0000000000
0.9400000000	108.4574243823	1.0000000000	854.5509972070	1.0000000000	0.0000000000	0.0000000000	0.0000000000	1.0000000000	0.0000000000	1.0000000000	0.0000000000	0.0000000000
0.9500000000	128.6567296953	1.0000000000	904.7342516941	1.0000000000	0.0000000000	0.0000000000	0.0000000000	1.0000000000	0.0000000000	1.0000000000	0.0000000000	0.0000000000
0.9600000000	150.5800272728	1.0000000000	948.6598386421	1.0000000000	0.0000000000	0.0000000000	0.0000000000	1.0000000000	0.0000000000	1.0000000000	0.0000000000	0.0000000000
0.9700000000	173.7099730725	1.0000000000	984.9229000911	1.0000000000	0.0000000000	0.0000000000	0.0000000000	1.0000000000	0.0000000000	1.0000000000	0.0000000000	0.0000000000
0.9800000000	198.1730895070	1.0000000000	1011.4582285629	1.0000000000	0.0000000000	0.0000000000	0.0000000000	1.0000000000	0.0000000000	1.0000000000	0.0000000000	0.0000000000
0.9900000000	223.7497735703	1.0000000000	1025.6017221473	1.0000000000	0.0000000000	0.0000000000	13.6624511258	1.0000000000	11.6719789060	1.0000000000	0.0000000000	0.0000000000
