name p13_grf_mean_speed_1.4
datacolumns 13
datarows 100
range 0.00000000 0.99000000
endheader
time	grf_x_l_mean	grf_x_l_var	grf_y_l_mean	grf_y_l_var	grf_z_l_mean	grf_z_l_var	grf_x_r_mean	grf_x_r_var	grf_y_r_mean	grf_y_r_var	grf_z_r_mean	grf_z_r_var
0.0000000000	159.5897835649	1.0000000000	1031.9511310186	1.0000000000	0.0000000000	0.0000000000	12.1825915873	1.0000000000	11.0232608748	1.0000000000	0.0000000000	0.0000000000
0.0100000000	176.6235786714	1.0000000000	1038.5412435038	1.0000000000	0.0000000000	0.0000000000	19.6931819264	1.0000000000	44.0158010926	1.0000000000	0.0000000000	0.0000000000
0.0200000000	193.9667392045	1.0000000000	1033.3264275819	1.0000000000	0.0000000000	0.0000000000	25.3042231479	1.0000000000	97.3547136589	1.0000000000	0.0000000000	0.0000000000
0.0300000000	211.1872409524	1.0000000000	1014.2917032405	1.0000000000	0.0000000000	0.0000000000	22.4827956292	1.0000000000	167.4869163639	1.0000000000	0.0000000000	0.0000000000
0.0400000000	226.9371760107	1.0000000000	979.6299608577	1.0000000000	0.0000000000	0.0000000000	5.9821301847	1.0000000000	246.3168896722	1.0000000000	0.0000000000	0.0000000000
0.0500000000	239.1053995949	1.0000000000	927.7655544490	1.0000000000	0.0000000000	0.0000000000	-19.8503379032	1.0000000000	329.7342996645	1.0000000000	0.0000000000	0.0000000000
0.0600000000	247.2051053510	1.0000000000	858.6190221297	1.0000000000	0.0000000000	0.0000000000	-47.1166970213	1.0000000000	417.7364406379	1.0000000000	0.0000000000	0.0000000000
0.0700000000	248.5184448645	1.0000000000	773.0749676337	1.0000000000	0.0000000000	0.0000000000	-73.3618469891	1.0000000000	507.0348929814	1.0000000000	0.0000000000	0.0000000000
0.0800000000	239.8182199749	1.0000000000	671.7009634033	1.0000000000	0.0000000000	0.0000000000	-99.3942767190	1.0000000000	590.4672281006	1.0000000000	0.0000000000	0.0000000000
0.0900000000	220.1651377747	1.0000000000	557.6245402759	1.0000000000	0.0000000000	0.0000000000	-123.4396943133	1.0000000000	663.2779722663	1.0000000000	0.0000000000	0.0000000000
0.1000000000	189.5448215083	1.0000000000	438.7736518501	1.0000000000	0.0000000000	0.0000000000	-144.0400179841	1.0000000000	723.7623709052	1.0000000000	0.0000000000	0.0000000000
0.1100000000	149.6880532296	1.0000000000	323.7369427490	1.0000000000	0.0000000000	0.0000000000	-160.7631168430	1.0000000000	770.0979671754	1.0000000000	0.0000000000	0.0000000000
0.1200000000	106.7726189622	1.0000000000	220.0834967117	1.0000000000	0.0000000000	0.0000000000	-173.8339802980	1.0000000000	803.9186628645	1.0000000000	0.0000000000	0.0000000000
0.1300000000	66.6638729615	1.0000000000	135.9351368287	1.0000000000	0.0000000000	0.0000000000	-182.9871314996	1.0000000000	833.3868983200	1.0000000000	0.0000000000	0.0000000000
0.1400000000	34.5735063825	1.0000000000	75.7798000660	1.0000000000	0.0000000000	0.0000000000	-188.2151870091	1.0000000000	865.8873690400	1.0000000000	0.0000000000	0.0000000000
0.1500000000	13.9752695770	1.0000000000	36.3451679614	1.0000000000	0.0000000000	0.0000000000	-188.8391884207	1.0000000000	900.1690485707	1.0000000000	0.0000000000	0.0000000000
0.1600000000	2.9901753412	1.0000000000	12.2062044654	1.0000000000	0.0000000000	0.0000000000	-184.2379053999	1.0000000000	930.3949166443	1.0000000000	0.0000000000	0.0000000000
0.1700000000	-2.0681453069	1.0000000000	0.1661147574	1.0000000000	0.0000000000	0.0000000000	-175.9172450051	1.0000000000	954.0391867829	1.0000000000	0.0000000000	0.0000000000
0.1800000000	0.0000000000	1.0000000000	0.0000000000	1.0000000000	0.0000000000	0.0000000000	-164.7816082743	1.0000000000	970.9023695953	1.0000000000	0.0000000000	0.0000000000
0.1900000000	0.0000000000	1.0000000000	0.0000000000	1.0000000000	0.0000000000	0.0000000000	-151.6011102631	1.0000000000	979.3052832533	1.0000000000	0.0000000000	0.0000000000
0.2000000000	0.0000000000	1.0000000000	0.0000000000	1.0000000000	0.0000000000	0.0000000000	-137.0922506432	1.0000000000	977.6578206308	1.0000000000	0.0000000000	0.0000000000
0.2100000000	0.0000000000	1.0000000000	0.0000000000	1.0000000000	0.0000000000	0.0000000000	-121.7891070195	1.0000000000	966.5490794954	1.0000000000	0.0000000000	0.0000000000
0.2200000000	0.0000000000	1.0000000000	0.0000000000	1.0000000000	0.0000000000	0.0000000000	-105.9938523272	1.0000000000	946.1278035403	1.0000000000	0.0000000000	0.0000000000
0.2300000000	1.1787593667	1.0000000000	0.0280641294	1.0000000000	0.0000000000	0.0000000000	-91.0940237849	1.0000000000	915.4470758311	1.0000000000	0.0000000000	0.0000000000
0.2400000000	1.5036787116	1.0000000000	0.4750909055	1.0000000000	0.0000000000	0.0000000000	-77.1806612152	1.0000000000	875.4025917236	1.0000000000	0.0000000000	0.0000000000
0.2500000000	2.6359429516	1.0000000000	1.1643507468	1.0000000000	0.0000000000	0.0000000000	-64.4954318142	1.0000000000	829.0540530497	1.0000000000	0.0000000000	0.0000000000
0.2600000000	2.9930874987	1.0000000000	1.3372798311	1.0000000000	0.0000000000	0.0000000000	-53.0580885414	1.0000000000	779.3114831179	1.0000000000	0.0000000000	0.0000000000
0.2700000000	2.5796135696	1.0000000000	0.8334509393	1.0000000000	0.0000000000	0.0000000000	-42.8557076754	1.0000000000	728.9395224171	1.0000000000	0.0000000000	0.0000000000
0.2800000000	2.7110892600	1.0000000000	0.7687050635	1.0000000000	0.0000000000	0.0000000000	-33.8857516945	1.0000000000	681.5206517969	1.0000000000	0.0000000000	0.0000000000
0.2900000000	2.9546240908	1.0000000000	1.0983579556	1.0000000000	0.0000000000	0.0000000000	-26.5417307771	1.0000000000	639.8542944473	1.0000000000	0.0000000000	0.0000000000
0.3000000000	2.4832552912	1.0000000000	0.5928415979	1.0000000000	0.0000000000	0.0000000000	-20.2915657737	1.0000000000	604.3748867883	1.0000000000	0.0000000000	0.0000000000
0.3100000000	0.0000000000	1.0000000000	0.0000000000	1.0000000000	0.0000000000	0.0000000000	-14.6884155458	1.0000000000	575.0311266249	1.0000000000	0.0000000000	0.0000000000
0.3200000000	0.0000000000	1.0000000000	0.0000000000	1.0000000000	0.0000000000	0.0000000000	-10.3525920557	1.0000000000	553.2028599013	1.0000000000	0.0000000000	0.0000000000
0.3300000000	0.0000000000	1.0000000000	0.0000000000	1.0000000000	0.0000000000	0.0000000000	-6.7736621663	1.0000000000	539.7104746816	1.0000000000	0.0000000000	0.0000000000
0.3400000000	0.0000000000	1.0000000000	0.0000000000	1.0000000000	0.0000000000	0.0000000000	-2.8345601570	1.0000000000	533.2414416938	1.0000000000	0.0000000000	0.0000000000
0.3500000000	0.0000000000	1.0000000000	0.0000000000	1.0000000000	0.0000000000	0.0000000000	1.3631759703	1.0000000000	532.9123910723	1.0000000000	0.0000000000	0.0000000000
0.3600000000	0.0000000000	1.0000000000	0.0000000000	1.0000000000	0.0000000000	0.0000000000	5.5981294663	1.0000000000	539.4433802342	1.0000000000	0.0000000000	0.0000000000
0.3700000000	0.0000000000	1.0000000000	0.0000000000	1.0000000000	0.0000000000	0.0000000000	10.7254656025	1.0000000000	552.9282870019	1.0000000000	0.0000000000	0.0000000000
0.3800000000	0.0000000000	1.0000000000	0.0000000000	1.0000000000	0.0000000000	0.0000000000	16.5505080084	1.0000000000	572.5922725347	1.0000000000	0.0000000000	0.0000000000
0.3900000000	0.0000000000	1.0000000000	0.0000000000	1.0000000000	0.0000000000	0.0000000000	22.8102351393	1.0000000000	598.4084242269	1.0000000000	0.0000000000	0.0000000000
0.4000000000	1.3658812672	1.0000000000	0.2712777225	1.0000000000	0.0000000000	0.0000000000	30.1736883704	1.0000000000	630.5673418886	1.0000000000	0.0000000000	0.0000000000
0.4100000000	1.2658822977	1.0000000000	0.2842430356	1.0000000000	0.0000000000	0.0000000000	38.8743829046	1.0000000000	668.2608350274	1.0000000000	0.0000000000	0.0000000000
0.4200000000	0.0000000000	1.0000000000	0.0000000000	1.0000000000	0.0000000000	0.0000000000	48.4917262834	1.0000000000	710.1700669545	1.0000000000	0.0000000000	0.0000000000
0.4300000000	0.0000000000	1.0000000000	0.0000000000	1.0000000000	0.0000000000	0.0000000000	59.8164912788	1.0000000000	754.6264680004	1.0000000000	0.0000000000	0.0000000000
0.4400000000	0.0000000000	1.0000000000	0.0000000000	1.0000000000	0.0000000000	0.0000000000	72.9306822852	1.0000000000	799.2885801602	1.0000000000	0.0000000000	0.0000000000
0.4500000000	0.0000000000	1.0000000000	0.0000000000	1.0000000000	0.0000000000	0.0000000000	86.5949825488	1.0000000000	841.8754813599	1.0000000000	0.0000000000	0.0000000000
0.4600000000	0.0000000000	1.0000000000	0.0000000000	1.0000000000	0.0000000000	0.0000000000	100.3498388364	1.0000000000	880.8984003049	1.0000000000	0.0000000000	0.0000000000
0.4700000000	0.0000000000	1.0000000000	0.0000000000	1.0000000000	0.0000000000	0.0000000000	114.4397158258	1.0000000000	915.0161929073	1.0000000000	0.0000000000	0.0000000000
0.4800000000	0.0000000000	1.0000000000	0.0000000000	1.0000000000	0.0000000000	0.0000000000	128.3515488393	1.0000000000	942.4860775992	1.0000000000	0.0000000000	0.0000000000
0.4900000000	9.2610516572	1.0000000000	9.6787811919	1.0000000000	0.0000000000	0.0000000000	142.1426949308	1.0000000000	962.0549095881	1.0000000000	0.0000000000	0.0000000000
0.5000000000	15.5436200299	1.0000000000	43.4507738065	1.0000000000	0.0000000000	0.0000000000	156.6868392435	1.0000000000	973.2728472887	1.0000000000	0.0000000000	0.0000000000
0.5100000000	20.9267712938	1.0000000000	99.8625458307	1.0000000000	0.0000000000	0.0000000000	171.7875312610	1.0000000000	975.0227489084	1.0000000000	0.0000000000	0.0000000000
0.5200000000	20.2220524039	1.0000000000	176.0318859704	1.0000000000	0.0000000000	0.0000000000	186.9039310064	1.0000000000	964.8894870340	1.0000000000	0.0000000000	0.0000000000
0.5300000000	7.3370721458	1.0000000000	262.9493146696	1.0000000000	0.0000000000	0.0000000000	201.4759422965	1.0000000000	940.3558165405	1.0000000000	0.0000000000	0.0000000000
0.5400000000	-17.5020754144	1.0000000000	352.6981150502	1.0000000000	0.0000000000	0.0000000000	213.9201919955	1.0000000000	899.9512949436	1.0000000000	0.0000000000	0.0000000000
0.5500000000	-46.9610254157	1.0000000000	441.5808510962	1.0000000000	0.0000000000	0.0000000000	223.3774097824	1.0000000000	843.7634706646	1.0000000000	0.0000000000	0.0000000000
0.5600000000	-75.9422783880	1.0000000000	527.1422417399	1.0000000000	0.0000000000	0.0000000000	228.2413057817	1.0000000000	772.5429997862	1.0000000000	0.0000000000	0.0000000000
0.5700000000	-104.7040077540	1.0000000000	605.6235622795	1.0000000000	0.0000000000	0.0000000000	225.4328543537	1.0000000000	686.0279865028	1.0000000000	0.0000000000	0.0000000000
0.5800000000	-132.7015866668	1.0000000000	673.4760202182	1.0000000000	0.0000000000	0.0000000000	213.3892170280	1.0000000000	585.0180821650	1.0000000000	0.0000000000	0.0000000000
0.5900000000	-157.3636961319	1.0000000000	729.5426779735	1.0000000000	0.0000000000	0.0000000000	191.6546066706	1.0000000000	475.5160131609	1.0000000000	0.0000000000	0.0000000000
0.6000000000	-177.4521922339	1.0000000000	775.9689094850	1.0000000000	0.0000000000	0.0000000000	160.1955283149	1.0000000000	366.3287023581	1.0000000000	0.0000000000	0.0000000000
0.6100000000	-192.8290024197	1.0000000000	817.5575991188	1.0000000000	0.0000000000	0.0000000000	122.1688599781	1.0000000000	264.1716383130	1.0000000000	0.0000000000	0.0000000000
0.6200000000	-202.2154558735	1.0000000000	858.9570078546	1.0000000000	0.0000000000	0.0000000000	83.2507167717	1.0000000000	175.0934212707	1.0000000000	0.0000000000	0.0000000000
0.6300000000	-205.0075598029	1.0000000000	901.4664468144	1.0000000000	0.0000000000	0.0000000000	48.9665490219	1.0000000000	105.2438619291	1.0000000000	0.0000000000	0.0000000000
0.6400000000	-201.3416965355	1.0000000000	942.8379962598	1.0000000000	0.0000000000	0.0000000000	23.2794473749	1.0000000000	56.0693749327	1.0000000000	0.0000000000	0.0000000000
0.6500000000	-191.2429191085	1.0000000000	978.9491306353	1.0000000000	0.0000000000	0.0000000000	7.5433835701	1.0000000000	23.9241089563	1.0000000000	0.0000000000	0.0000000000
0.6600000000	-176.7094797511	1.0000000000	1005.7638619484	1.0000000000	0.0000000000	0.0000000000	-0.0242347819	1.0000000000	5.1568114283	1.0000000000	0.0000000000	0.0000000000
0.6700000000	-160.0694343674	1.0000000000	1020.6922456340	1.0000000000	0.0000000000	0.0000000000	0.0000000000	1.0000000000	0.0000000000	1.0000000000	0.0000000000	0.0000000000
0.6800000000	-142.3815202433	1.0000000000	1022.4484800669	1.0000000000	0.0000000000	0.0000000000	0.0000000000	1.0000000000	0.0000000000	1.0000000000	0.0000000000	0.0000000000
0.6900000000	-124.5580263410	1.0000000000	1011.0706167777	1.0000000000	0.0000000000	0.0000000000	0.0000000000	1.0000000000	0.0000000000	1.0000000000	0.0000000000	0.0000000000
0.7000000000	-107.5019641905	1.0000000000	987.9826572042	1.0000000000	0.0000000000	0.0000000000	0.0000000000	1.0000000000	0.0000000000	1.0000000000	0.0000000000	0.0000000000
0.7100000000	-91.1082408924	1.0000000000	954.3750334430	1.0000000000	0.0000000000	0.0000000000	0.0000000000	1.0000000000	0.0000000000	1.0000000000	0.0000000000	0.0000000000
0.7200000000	-75.6951953760	1.0000000000	911.2082180453	1.0000000000	0.0000000000	0.0000000000	3.1089341329	1.0000000000	0.8559920101	1.0000000000	0.0000000000	0.0000000000
0.7300000000	-61.6608360107	1.0000000000	861.0326510650	1.0000000000	0.0000000000	0.0000000000	3.0102237516	1.0000000000	1.2540629562	1.0000000000	0.0000000000	0.0000000000
0.7400000000	-48.7931401809	1.0000000000	807.0672399152	1.0000000000	0.0000000000	0.0000000000	2.3969992959	1.0000000000	1.0284126434	1.0000000000	0.0000000000	0.0000000000
0.7500000000	-37.0255364914	1.0000000000	751.6749467304	1.0000000000	0.0000000000	0.0000000000	1.7455280845	1.0000000000	0.7012467228	1.0000000000	0.0000000000	0.0000000000
0.7600000000	-27.0760043871	1.0000000000	697.5071654478	1.0000000000	0.0000000000	0.0000000000	1.1279952471	1.0000000000	0.3561143703	1.0000000000	0.0000000000	0.0000000000
0.7700000000	-18.7159513830	1.0000000000	647.7355708084	1.0000000000	0.0000000000	0.0000000000	0.7222595007	1.0000000000	0.0419050558	1.0000000000	0.0000000000	0.0000000000
0.7800000000	-11.5946630069	1.0000000000	604.2593233209	1.0000000000	0.0000000000	0.0000000000	0.0000000000	1.0000000000	0.0000000000	1.0000000000	0.0000000000	0.0000000000
0.7900000000	-6.2120384380	1.0000000000	567.8751673478	1.0000000000	0.0000000000	0.0000000000	0.0000000000	1.0000000000	0.0000000000	1.0000000000	0.0000000000	0.0000000000
0.8000000000	-2.3273880713	1.0000000000	539.6458854719	1.0000000000	0.0000000000	0.0000000000	0.0000000000	1.0000000000	0.0000000000	1.0000000000	0.0000000000	0.0000000000
0.8100000000	0.9463905823	1.0000000000	520.6272286306	1.0000000000	0.0000000000	0.0000000000	0.0000000000	1.0000000000	0.0000000000	1.0000000000	0.0000000000	0.0000000000
0.8200000000	3.9004341753	1.0000000000	510.8652646465	1.0000000000	0.0000000000	0.0000000000	0.0000000000	1.0000000000	0.0000000000	1.0000000000	0.0000000000	0.0000000000
0.8300000000	6.8268443020	1.0000000000	509.6419968313	1.0000000000	0.0000000000	0.0000000000	0.0000000000	1.0000000000	0.0000000000	1.0000000000	0.0000000000	0.0000000000
0.8400000000	10.1516026716	1.0000000000	516.7016496662	1.0000000000	0.0000000000	0.0000000000	0.0000000000	1.0000000000	0.0000000000	1.0000000000	0.0000000000	0.0000000000
0.8500000000	13.7594975363	1.0000000000	531.9612776251	1.0000000000	0.0000000000	0.0000000000	0.0000000000	1.0000000000	0.0000000000	1.0000000000	0.0000000000	0.0000000000
0.8600000000	17.7042707070	1.0000000000	554.3047477483	1.0000000000	0.0000000000	0.0000000000	0.0000000000	1.0000000000	0.0000000000	1.0000000000	0.0000000000	0.0000000000
0.8700000000	22.1797680670	1.0000000000	582.5604097702	1.0000000000	0.0000000000	0.0000000000	0.0000000000	1.0000000000	0.0000000000	1.0000000000	0.0000000000	0.0000000000
0.8800000000	26.9930573319	1.0000000000	616.5606799801	1.0000000000	0.0000000000	0.0000000000	0.3204385470	1.0000000000	0.1910393572	1.0000000000	0.0000000000	0.0000000000
0.8900000000	32.3651219240	1.0000000000	655.5688330826	1.0000000000	0.0000000000	0.0000000000	0.1835483538	1.0000000000	0.3849605930	1.0000000000	0.0000000000	0.0000000000
0.9000000000	39.2569601329	1.0000000000	697.8169163497	1.0000000000	0.0000000000	0.0000000000	0.0667573346	1.0000000000	0.4995033606	1.0000000000	0.0000000000	0.0000000000
0.9100000000	47.8866396542	1.0000000000	742.3547408743	1.0000000000	0.0000000000	0.0000000000	-0.0597051144	1.0000000000	0.4163455854	1.0000000000	0.0000000000	0.0000000000
0.9200000000	58.2180772460	1.0000000000	788.7357015921	1.0000000000	0.0000000000	0.0000000000	0.0000000000	1.0000000000	0.0000000000	1.0000000000	0.0000000000	0.0000000000
0.9300000000	70.4002903872	1.0000000000	835.2477732490	1.0000000000	0.0000000000	0.0000000000	0.0000000000	1.0000000000	0.0000000000	1.0000000000	0.0000000000	0.0000000000
0.9400000000	83.9460640884	1.0000000000	879.6975953418	1.0000000000	0.0000000000	0.0000000000	0.0000000000	1.0000000000	0.0000000000	1.0000000000	0.0000000000	0.0000000000
0.9500000000	98.1258423074	1.0000000000	920.9807634663	1.0000000000	0.0000000000	0.0000000000	0.0000000000	1.0000000000	0.0000000000	1.0000000000	0.0000000000	0.0000000000
0.9600000000	112.8274601375	1.0000000000	958.3972773803	1.0000000000	0.0000000000	0.0000000000	0.0000000000	1.0000000000	0.0000000000	1.0000000000	0.0000000000	0.0000000000
0.9700000000	127.9492603748	1.0000000000	990.4484061552	1.0000000000	0.0000000000	0.0000000000	0.0000000000	1.0000000000	0.0000000000	1.0000000000	0.0000000000	0.0000000000
0.9800000000	143.3609023138	1.0000000000	1015.3009413903	1.0000000000	0.0000000000	0.0000000000	0.0000000000	1.0000000000	0.0000000000	1.0000000000	0.0000000000	0.0000000000
0.9900000000	159.5020790009	1.0000000000	1031.6913981874	1.0000000000	0.0000000000	0.0000000000	12.1622849043	1.0000000000	11.0187721416	1.0000000000	0.0000000000	0.0000000000
