name p13_grf_mean_speed_1.2
datacolumns 13
datarows 100
range 0.00000000 0.99000000
endheader
time	grf_x_l_mean	grf_x_l_var	grf_y_l_mean	grf_y_l_var	grf_z_l_mean	grf_z_l_var	grf_x_r_mean	grf_x_r_var	grf_y_r_mean	grf_y_r_var	grf_z_r_mean	grf_z_r_var
0.0000000000	132.5429736724	1.0000000000	982.6209117423	1.0000000000	0.0000000000	0.0000000000	12.8700776584	1.0000000000	10.9099775372	1.0000000000	0.0000000000	0.0000000000
0.0100000000	144.0840841020	1.0000000000	989.4238554745	1.0000000000	0.0000000000	0.0000000000	22.4386773549	1.0000000000	39.9430277294	1.0000000000	0.0000000000	0.0000000000
0.0200000000	156.2912787283	1.0000000000	987.4417263073	1.0000000000	0.0000000000	0.0000000000	30.2117097132	1.0000000000	85.9230572175	1.0000000000	0.0000000000	0.0000000000
0.0300000000	169.3607550552	1.0000000000	975.1710575663	1.0000000000	0.0000000000	0.0000000000	27.9079082358	1.0000000000	143.7444669262	1.0000000000	0.0000000000	0.0000000000
0.0400000000	181.7476562258	1.0000000000	950.9532584777	1.0000000000	0.0000000000	0.0000000000	11.5704881526	1.0000000000	207.0806482723	1.0000000000	0.0000000000	0.0000000000
0.0500000000	193.1916729971	1.0000000000	913.6019100645	1.0000000000	0.0000000000	0.0000000000	-11.3151089661	1.0000000000	275.6217915277	1.0000000000	0.0000000000	0.0000000000
0.0600000000	203.6740151942	1.0000000000	863.0786088717	1.0000000000	0.0000000000	0.0000000000	-34.0562589457	1.0000000000	350.7017761120	1.0000000000	0.0000000000	0.0000000000
0.0700000000	209.7089564306	1.0000000000	798.6214353496	1.0000000000	0.0000000000	0.0000000000	-56.6954286835	1.0000000000	428.3544290970	1.0000000000	0.0000000000	0.0000000000
0.0800000000	209.9620050449	1.0000000000	718.9584053423	1.0000000000	0.0000000000	0.0000000000	-78.6984111790	1.0000000000	502.4546928974	1.0000000000	0.0000000000	0.0000000000
0.0900000000	203.2372258641	1.0000000000	625.7763009883	1.0000000000	0.0000000000	0.0000000000	-98.4826978936	1.0000000000	569.8851555422	1.0000000000	0.0000000000	0.0000000000
0.1000000000	186.8442879055	1.0000000000	522.2859391176	1.0000000000	0.0000000000	0.0000000000	-116.1646270918	1.0000000000	626.4154656896	1.0000000000	0.0000000000	0.0000000000
0.1100000000	161.4451892768	1.0000000000	411.9779642130	1.0000000000	0.0000000000	0.0000000000	-129.6710993364	1.0000000000	666.8730961975	1.0000000000	0.0000000000	0.0000000000
0.1200000000	128.9657978929	1.0000000000	302.8577317626	1.0000000000	0.0000000000	0.0000000000	-139.4410384408	1.0000000000	694.9401691761	1.0000000000	0.0000000000	0.0000000000
0.1300000000	91.4422555045	1.0000000000	206.0244978401	1.0000000000	0.0000000000	0.0000000000	-148.0601921856	1.0000000000	721.8277536885	1.0000000000	0.0000000000	0.0000000000
0.1400000000	56.8568040763	1.0000000000	128.3257504423	1.0000000000	0.0000000000	0.0000000000	-154.2678529657	1.0000000000	753.5102197222	1.0000000000	0.0000000000	0.0000000000
0.1500000000	30.1514377362	1.0000000000	71.2682362149	1.0000000000	0.0000000000	0.0000000000	-156.3531886026	1.0000000000	788.7990519720	1.0000000000	0.0000000000	0.0000000000
0.1600000000	11.7235640216	1.0000000000	34.0406789302	1.0000000000	0.0000000000	0.0000000000	-155.6909419991	1.0000000000	826.1767732444	1.0000000000	0.0000000000	0.0000000000
0.1700000000	2.4674194765	1.0000000000	12.8848372671	1.0000000000	0.0000000000	0.0000000000	-151.9003496061	1.0000000000	863.3321896872	1.0000000000	0.0000000000	0.0000000000
0.1800000000	-0.4974163763	1.0000000000	2.0242764818	1.0000000000	0.0000000000	0.0000000000	-145.2070133047	1.0000000000	896.0799634718	1.0000000000	0.0000000000	0.0000000000
0.1900000000	0.0000000000	1.0000000000	0.0000000000	1.0000000000	0.0000000000	0.0000000000	-137.0932094736	1.0000000000	921.9865742784	1.0000000000	0.0000000000	0.0000000000
0.2000000000	0.0000000000	1.0000000000	0.0000000000	1.0000000000	0.0000000000	0.0000000000	-126.9871538852	1.0000000000	940.8750772985	1.0000000000	0.0000000000	0.0000000000
0.2100000000	0.0000000000	1.0000000000	0.0000000000	1.0000000000	0.0000000000	0.0000000000	-115.2266505668	1.0000000000	951.1251909381	1.0000000000	0.0000000000	0.0000000000
0.2200000000	0.0000000000	1.0000000000	0.0000000000	1.0000000000	0.0000000000	0.0000000000	-103.6514854801	1.0000000000	950.1252872878	1.0000000000	0.0000000000	0.0000000000
0.2300000000	2.6639393581	1.0000000000	0.9380051866	1.0000000000	0.0000000000	0.0000000000	-91.8376522407	1.0000000000	937.2630433456	1.0000000000	0.0000000000	0.0000000000
0.2400000000	3.4106762164	1.0000000000	1.8205263033	1.0000000000	0.0000000000	0.0000000000	-80.1846892019	1.0000000000	913.6833957141	1.0000000000	0.0000000000	0.0000000000
0.2500000000	2.6741864338	1.0000000000	1.7534085849	1.0000000000	0.0000000000	0.0000000000	-69.4397257860	1.0000000000	881.0838250213	1.0000000000	0.0000000000	0.0000000000
0.2600000000	2.6624190067	1.0000000000	1.4876408231	1.0000000000	0.0000000000	0.0000000000	-59.2421762989	1.0000000000	842.9293219600	1.0000000000	0.0000000000	0.0000000000
0.2700000000	3.0942308647	1.0000000000	1.4544035567	1.0000000000	0.0000000000	0.0000000000	-49.8769250204	1.0000000000	803.3591591102	1.0000000000	0.0000000000	0.0000000000
0.2800000000	2.7184605851	1.0000000000	1.0940902119	1.0000000000	0.0000000000	0.0000000000	-41.5398289808	1.0000000000	764.2667295143	1.0000000000	0.0000000000	0.0000000000
0.2900000000	2.6412352336	1.0000000000	0.5423925728	1.0000000000	0.0000000000	0.0000000000	-33.4846873686	1.0000000000	727.1444798354	1.0000000000	0.0000000000	0.0000000000
0.3000000000	2.6237756693	1.0000000000	0.3910218469	1.0000000000	0.0000000000	0.0000000000	-26.4861089157	1.0000000000	694.7340295184	1.0000000000	0.0000000000	0.0000000000
0.3100000000	2.0868082567	1.0000000000	0.3644913067	1.0000000000	0.0000000000	0.0000000000	-20.4884873184	1.0000000000	667.9357931045	1.0000000000	0.0000000000	0.0000000000
0.3200000000	0.0000000000	1.0000000000	0.0000000000	1.0000000000	0.0000000000	0.0000000000	-14.4132467646	1.0000000000	645.9281551297	1.0000000000	0.0000000000	0.0000000000
0.3300000000	0.0000000000	1.0000000000	0.0000000000	1.0000000000	0.0000000000	0.0000000000	-8.9032175252	1.0000000000	629.6869815674	1.0000000000	0.0000000000	0.0000000000
0.3400000000	0.0000000000	1.0000000000	0.0000000000	1.0000000000	0.0000000000	0.0000000000	-4.0591431449	1.0000000000	620.1530320260	1.0000000000	0.0000000000	0.0000000000
0.3500000000	2.6424499617	1.0000000000	0.0589070663	1.0000000000	0.0000000000	0.0000000000	0.9370084445	1.0000000000	615.7825440517	1.0000000000	0.0000000000	0.0000000000
0.3600000000	2.6616152163	1.0000000000	0.0823617633	1.0000000000	0.0000000000	0.0000000000	5.6379885410	1.0000000000	615.3836000105	1.0000000000	0.0000000000	0.0000000000
0.3700000000	2.1695517754	1.0000000000	0.3571754704	1.0000000000	0.0000000000	0.0000000000	10.3746173000	1.0000000000	619.5720772828	1.0000000000	0.0000000000	0.0000000000
0.3800000000	2.1878318625	1.0000000000	0.4542272402	1.0000000000	0.0000000000	0.0000000000	15.7576768941	1.0000000000	628.8174367289	1.0000000000	0.0000000000	0.0000000000
0.3900000000	2.3291426937	1.0000000000	0.3810021562	1.0000000000	0.0000000000	0.0000000000	21.1763920972	1.0000000000	643.2472987418	1.0000000000	0.0000000000	0.0000000000
0.4000000000	2.2062378157	1.0000000000	0.5819884526	1.0000000000	0.0000000000	0.0000000000	27.2664023809	1.0000000000	663.1949059379	1.0000000000	0.0000000000	0.0000000000
0.4100000000	2.0589182133	1.0000000000	0.8916453873	1.0000000000	0.0000000000	0.0000000000	34.9984237660	1.0000000000	688.3738317952	1.0000000000	0.0000000000	0.0000000000
0.4200000000	1.6754023577	1.0000000000	0.8302646605	1.0000000000	0.0000000000	0.0000000000	43.7323411175	1.0000000000	718.1758026020	1.0000000000	0.0000000000	0.0000000000
0.4300000000	1.2381223684	1.0000000000	0.3249836578	1.0000000000	0.0000000000	0.0000000000	53.8864436460	1.0000000000	752.0841890619	1.0000000000	0.0000000000	0.0000000000
0.4400000000	0.0000000000	1.0000000000	0.0000000000	1.0000000000	0.0000000000	0.0000000000	65.9535200828	1.0000000000	788.2989009268	1.0000000000	0.0000000000	0.0000000000
0.4500000000	0.0000000000	1.0000000000	0.0000000000	1.0000000000	0.0000000000	0.0000000000	78.7202340253	1.0000000000	823.7177893476	1.0000000000	0.0000000000	0.0000000000
0.4600000000	0.0000000000	1.0000000000	0.0000000000	1.0000000000	0.0000000000	0.0000000000	91.6146843629	1.0000000000	856.3051415643	1.0000000000	0.0000000000	0.0000000000
0.4700000000	0.0000000000	1.0000000000	0.0000000000	1.0000000000	0.0000000000	0.0000000000	104.2708153945	1.0000000000	885.3465864578	1.0000000000	0.0000000000	0.0000000000
0.4800000000	0.0000000000	1.0000000000	0.0000000000	1.0000000000	0.0000000000	0.0000000000	115.6424585102	1.0000000000	909.4621374414	1.0000000000	0.0000000000	0.0000000000
0.4900000000	10.5981057806	1.0000000000	7.5160279633	1.0000000000	0.0000000000	0.0000000000	126.0778680329	1.0000000000	926.7471766580	1.0000000000	0.0000000000	0.0000000000
0.5000000000	19.0501343812	1.0000000000	35.6832004142	1.0000000000	0.0000000000	0.0000000000	136.2761624256	1.0000000000	936.3796957093	1.0000000000	0.0000000000	0.0000000000
0.5100000000	27.9185997179	1.0000000000	83.8791947029	1.0000000000	0.0000000000	0.0000000000	146.0257157205	1.0000000000	938.1716472313	1.0000000000	0.0000000000	0.0000000000
0.5200000000	30.6210733459	1.0000000000	148.7577719650	1.0000000000	0.0000000000	0.0000000000	155.9612676840	1.0000000000	931.1084430608	1.0000000000	0.0000000000	0.0000000000
0.5300000000	19.7568891964	1.0000000000	221.2640017806	1.0000000000	0.0000000000	0.0000000000	165.9571725514	1.0000000000	913.1053613040	1.0000000000	0.0000000000	0.0000000000
0.5400000000	-2.8174182487	1.0000000000	295.3500938011	1.0000000000	0.0000000000	0.0000000000	175.0783282824	1.0000000000	882.4799320416	1.0000000000	0.0000000000	0.0000000000
0.5500000000	-28.4943238523	1.0000000000	370.3661520936	1.0000000000	0.0000000000	0.0000000000	183.9507465098	1.0000000000	839.4086404469	1.0000000000	0.0000000000	0.0000000000
0.5600000000	-54.1051461493	1.0000000000	445.6805637967	1.0000000000	0.0000000000	0.0000000000	190.5914160553	1.0000000000	783.9950495710	1.0000000000	0.0000000000	0.0000000000
0.5700000000	-80.0845358919	1.0000000000	517.4990906651	1.0000000000	0.0000000000	0.0000000000	192.5108697854	1.0000000000	714.4804482325	1.0000000000	0.0000000000	0.0000000000
0.5800000000	-104.7437193267	1.0000000000	581.6918722321	1.0000000000	0.0000000000	0.0000000000	189.1678195424	1.0000000000	630.8833409555	1.0000000000	0.0000000000	0.0000000000
0.5900000000	-127.1917341379	1.0000000000	636.0881563845	1.0000000000	0.0000000000	0.0000000000	178.5007389003	1.0000000000	536.8012825340	1.0000000000	0.0000000000	0.0000000000
0.6000000000	-146.0340714756	1.0000000000	681.0421197059	1.0000000000	0.0000000000	0.0000000000	158.9996837417	1.0000000000	435.6976829126	1.0000000000	0.0000000000	0.0000000000
0.6100000000	-160.0789334298	1.0000000000	720.7970792960	1.0000000000	0.0000000000	0.0000000000	132.3969888245	1.0000000000	332.2853646814	1.0000000000	0.0000000000	0.0000000000
0.6200000000	-170.0246149369	1.0000000000	761.3068641983	1.0000000000	0.0000000000	0.0000000000	100.2828163067	1.0000000000	235.9501067687	1.0000000000	0.0000000000	0.0000000000
0.6300000000	-175.0183845697	1.0000000000	804.9457232772	1.0000000000	0.0000000000	0.0000000000	66.9183152366	1.0000000000	155.0781034438	1.0000000000	0.0000000000	0.0000000000
0.6400000000	-173.3413555670	1.0000000000	849.9745574627	1.0000000000	0.0000000000	0.0000000000	38.2836650328	1.0000000000	92.2899284590	1.0000000000	0.0000000000	0.0000000000
0.6500000000	-167.1002708353	1.0000000000	893.4527451053	1.0000000000	0.0000000000	0.0000000000	17.4306080124	1.0000000000	47.9634288728	1.0000000000	0.0000000000	0.0000000000
0.6600000000	-157.5532730668	1.0000000000	931.7550106393	1.0000000000	0.0000000000	0.0000000000	5.2071275862	1.0000000000	20.8705946437	1.0000000000	0.0000000000	0.0000000000
0.6700000000	-145.2015328588	1.0000000000	960.7508763075	1.0000000000	0.0000000000	0.0000000000	0.5433793966	1.0000000000	6.3191947767	1.0000000000	0.0000000000	0.0000000000
0.6800000000	-132.3835834044	1.0000000000	978.2913913035	1.0000000000	0.0000000000	0.0000000000	0.0000000000	1.0000000000	0.0000000000	1.0000000000	0.0000000000	0.0000000000
0.6900000000	-119.3470206033	1.0000000000	984.3139778749	1.0000000000	0.0000000000	0.0000000000	0.0000000000	1.0000000000	0.0000000000	1.0000000000	0.0000000000	0.0000000000
0.7000000000	-105.4865459672	1.0000000000	978.2387325718	1.0000000000	0.0000000000	0.0000000000	0.0000000000	1.0000000000	0.0000000000	1.0000000000	0.0000000000	0.0000000000
0.7100000000	-92.2747091341	1.0000000000	959.7928464236	1.0000000000	0.0000000000	0.0000000000	0.0000000000	1.0000000000	0.0000000000	1.0000000000	0.0000000000	0.0000000000
0.7200000000	-79.4108401419	1.0000000000	930.9351002403	1.0000000000	0.0000000000	0.0000000000	3.3712958777	1.0000000000	0.1467667633	1.0000000000	0.0000000000	0.0000000000
0.7300000000	-66.4433824533	1.0000000000	893.7921639895	1.0000000000	0.0000000000	0.0000000000	3.5267521218	1.0000000000	0.5429682626	1.0000000000	0.0000000000	0.0000000000
0.7400000000	-54.7815686634	1.0000000000	850.2646720684	1.0000000000	0.0000000000	0.0000000000	3.1192360363	1.0000000000	0.6205756055	1.0000000000	0.0000000000	0.0000000000
0.7500000000	-44.1227834752	1.0000000000	804.1369638826	1.0000000000	0.0000000000	0.0000000000	2.5192047880	1.0000000000	0.4363773836	1.0000000000	0.0000000000	0.0000000000
0.7600000000	-33.8266686605	1.0000000000	759.2190799015	1.0000000000	0.0000000000	0.0000000000	2.1264848001	1.0000000000	0.2852049824	1.0000000000	0.0000000000	0.0000000000
0.7700000000	-25.2015414996	1.0000000000	717.2427878387	1.0000000000	0.0000000000	0.0000000000	1.9209170549	1.0000000000	0.2216940413	1.0000000000	0.0000000000	0.0000000000
0.7800000000	-17.9923316093	1.0000000000	679.9079696117	1.0000000000	0.0000000000	0.0000000000	0.0000000000	1.0000000000	0.0000000000	1.0000000000	0.0000000000	0.0000000000
0.7900000000	-11.5675547539	1.0000000000	649.2723119379	1.0000000000	0.0000000000	0.0000000000	0.0000000000	1.0000000000	0.0000000000	1.0000000000	0.0000000000	0.0000000000
0.8000000000	-6.4222053131	1.0000000000	625.7749211516	1.0000000000	0.0000000000	0.0000000000	0.0000000000	1.0000000000	0.0000000000	1.0000000000	0.0000000000	0.0000000000
0.8100000000	-1.9752106060	1.0000000000	609.0942736430	1.0000000000	0.0000000000	0.0000000000	0.0000000000	1.0000000000	0.0000000000	1.0000000000	0.0000000000	0.0000000000
0.8200000000	2.3214095934	1.0000000000	599.7833745471	1.0000000000	0.0000000000	0.0000000000	0.0000000000	1.0000000000	0.0000000000	1.0000000000	0.0000000000	0.0000000000
0.8300000000	6.1785569786	1.0000000000	597.7145295667	1.0000000000	0.0000000000	0.0000000000	0.0000000000	1.0000000000	0.0000000000	1.0000000000	0.0000000000	0.0000000000
0.8400000000	10.2821660161	1.0000000000	601.3777999606	1.0000000000	0.0000000000	0.0000000000	0.0000000000	1.0000000000	0.0000000000	1.0000000000	0.0000000000	0.0000000000
0.8500000000	14.6927238519	1.0000000000	610.2341788706	1.0000000000	0.0000000000	0.0000000000	0.0000000000	1.0000000000	0.0000000000	1.0000000000	0.0000000000	0.0000000000
0.8600000000	18.9427391762	1.0000000000	624.5997966812	1.0000000000	0.0000000000	0.0000000000	0.0000000000	1.0000000000	0.0000000000	1.0000000000	0.0000000000	0.0000000000
0.8700000000	23.6202397406	1.0000000000	643.5364153655	1.0000000000	0.0000000000	0.0000000000	1.5634490515	1.0000000000	0.0709569779	1.0000000000	0.0000000000	0.0000000000
0.8800000000	28.7773438406	1.0000000000	666.2749248167	1.0000000000	0.0000000000	0.0000000000	1.6103238362	1.0000000000	0.3208428590	1.0000000000	0.0000000000	0.0000000000
0.8900000000	34.1596154734	1.0000000000	693.3964259835	1.0000000000	0.0000000000	0.0000000000	1.8321185605	1.0000000000	0.6234424411	1.0000000000	0.0000000000	0.0000000000
0.9000000000	40.6301340763	1.0000000000	724.3782672525	1.0000000000	0.0000000000	0.0000000000	2.1441034310	1.0000000000	0.8990266487	1.0000000000	0.0000000000	0.0000000000
0.9100000000	48.3429644071	1.0000000000	757.4598275452	1.0000000000	0.0000000000	0.0000000000	2.1519041272	1.0000000000	0.9379866187	1.0000000000	0.0000000000	0.0000000000
0.9200000000	57.1270998093	1.0000000000	791.8943003576	1.0000000000	0.0000000000	0.0000000000	1.5931968884	1.0000000000	0.5406245373	1.0000000000	0.0000000000	0.0000000000
0.9300000000	67.3205778092	1.0000000000	827.1151487422	1.0000000000	0.0000000000	0.0000000000	0.0000000000	1.0000000000	0.0000000000	1.0000000000	0.0000000000	0.0000000000
0.9400000000	78.2812302245	1.0000000000	861.4144164616	1.0000000000	0.0000000000	0.0000000000	0.0000000000	1.0000000000	0.0000000000	1.0000000000	0.0000000000	0.0000000000
0.9500000000	89.2740635291	1.0000000000	893.4145783282	1.0000000000	0.0000000000	0.0000000000	0.0000000000	1.0000000000	0.0000000000	1.0000000000	0.0000000000	0.0000000000
0.9600000000	100.3946796121	1.0000000000	922.6564798286	1.0000000000	0.0000000000	0.0000000000	0.0000000000	1.0000000000	0.0000000000	1.0000000000	0.0000000000	0.0000000000
0.9700000000	111.1579546910	1.0000000000	948.1045749029	1.0000000000	0.0000000000	0.0000000000	0.0000000000	1.0000000000	0.0000000000	1.0000000000	0.0000000000	0.0000000000
0.9800000000	121.5381047892	1.0000000000	968.2301042926	1.0000000000	0.0000000000	0.0000000000	0.0000000000	1.0000000000	0.0000000000	1.0000000000	0.0000000000	0.0000000000
0.9900000000	132.4357891844	1.0000000000	982.1819262081	1.0000000000	0.0000000000	0.0000000000	12.8593382307	1.0000000000	10.9208435349	1.0000000000	0.0000000000	0.0000000000
