name p14_grf_mean_speed_1.0
datacolumns 13
datarows 100
range 0.00000000 0.99000000
endheader
time	grf_x_l_mean	grf_x_l_var	grf_y_l_mean	grf_y_l_var	grf_z_l_mean	grf_z_l_var	grf_x_r_mean	grf_x_r_var	grf_y_r_mean	grf_y_r_var	grf_z_r_mean	grf_z_r_var
0.0000000000	95.2503268634	1.0000000000	681.5933672219	1.0000000000	0.0000000000	0.0000000000	7.9192306903	1.0000000000	10.8631648763	1.0000000000	0.0000000000	0.0000000000
0.0100000000	104.1963403331	1.0000000000	673.7013904186	1.0000000000	0.0000000000	0.0000000000	10.4587884383	1.0000000000	41.8383469379	1.0000000000	0.0000000000	0.0000000000
0.0200000000	112.9108815682	1.0000000000	657.7251942508	1.0000000000	0.0000000000	0.0000000000	7.6325230029	1.0000000000	92.0916549959	1.0000000000	0.0000000000	0.0000000000
0.0300000000	120.2093769238	1.0000000000	632.3847317014	1.0000000000	0.0000000000	0.0000000000	-4.2308815876	1.0000000000	159.3410047452	1.0000000000	0.0000000000	0.0000000000
0.0400000000	125.3864136971	1.0000000000	596.6523120428	1.0000000000	0.0000000000	0.0000000000	-21.3239228141	1.0000000000	236.9213356462	1.0000000000	0.0000000000	0.0000000000
0.0500000000	128.1517081432	1.0000000000	549.7585057842	1.0000000000	0.0000000000	0.0000000000	-38.6019547449	1.0000000000	310.2411858320	1.0000000000	0.0000000000	0.0000000000
0.0600000000	126.0083272835	1.0000000000	490.5550843604	1.0000000000	0.0000000000	0.0000000000	-53.0275360019	1.0000000000	365.0820382284	1.0000000000	0.0000000000	0.0000000000
0.0700000000	118.5928831481	1.0000000000	420.3482573071	1.0000000000	0.0000000000	0.0000000000	-62.3477430222	1.0000000000	399.2674619167	1.0000000000	0.0000000000	0.0000000000
0.0800000000	105.2733505958	1.0000000000	343.5500147146	1.0000000000	0.0000000000	0.0000000000	-68.2478602128	1.0000000000	421.1924627770	1.0000000000	0.0000000000	0.0000000000
0.0900000000	86.4848250890	1.0000000000	265.1858721200	1.0000000000	0.0000000000	0.0000000000	-73.1192215584	1.0000000000	439.5432226952	1.0000000000	0.0000000000	0.0000000000
0.1000000000	65.0617580518	1.0000000000	191.0388873841	1.0000000000	0.0000000000	0.0000000000	-76.8288792838	1.0000000000	459.2065619772	1.0000000000	0.0000000000	0.0000000000
0.1100000000	43.4261759314	1.0000000000	127.0992522142	1.0000000000	0.0000000000	0.0000000000	-80.0584431693	1.0000000000	483.3534883019	1.0000000000	0.0000000000	0.0000000000
0.1200000000	24.2954910083	1.0000000000	76.8189058805	1.0000000000	0.0000000000	0.0000000000	-83.1860069480	1.0000000000	512.4252205000	1.0000000000	0.0000000000	0.0000000000
0.1300000000	10.3595094039	1.0000000000	40.8496274031	1.0000000000	0.0000000000	0.0000000000	-84.7949514864	1.0000000000	544.1458830549	1.0000000000	0.0000000000	0.0000000000
0.1400000000	1.5626521224	1.0000000000	17.8865909583	1.0000000000	0.0000000000	0.0000000000	-85.1435664567	1.0000000000	575.9182945724	1.0000000000	0.0000000000	0.0000000000
0.1500000000	-2.4065852818	1.0000000000	5.1422633793	1.0000000000	0.0000000000	0.0000000000	-83.9713825961	1.0000000000	604.9314855874	1.0000000000	0.0000000000	0.0000000000
0.1600000000	0.0000000000	1.0000000000	0.0000000000	1.0000000000	0.0000000000	0.0000000000	-80.8672960124	1.0000000000	628.7378609552	1.0000000000	0.0000000000	0.0000000000
0.1700000000	0.0000000000	1.0000000000	0.0000000000	1.0000000000	0.0000000000	0.0000000000	-76.7335614422	1.0000000000	646.1414648037	1.0000000000	0.0000000000	0.0000000000
0.1800000000	0.0000000000	1.0000000000	0.0000000000	1.0000000000	0.0000000000	0.0000000000	-71.5156619369	1.0000000000	656.1269739878	1.0000000000	0.0000000000	0.0000000000
0.1900000000	0.0000000000	1.0000000000	0.0000000000	1.0000000000	0.0000000000	0.0000000000	-65.5648179786	1.0000000000	658.0442325031	1.0000000000	0.0000000000	0.0000000000
0.2000000000	0.0000000000	1.0000000000	0.0000000000	1.0000000000	0.0000000000	0.0000000000	-59.7929200054	1.0000000000	652.4428939909	1.0000000000	0.0000000000	0.0000000000
0.2100000000	0.0000000000	1.0000000000	0.0000000000	1.0000000000	0.0000000000	0.0000000000	-54.0151721070	1.0000000000	640.7784532642	1.0000000000	0.0000000000	0.0000000000
0.2200000000	0.4130333975	1.0000000000	0.1072153341	1.0000000000	0.0000000000	0.0000000000	-48.4856345277	1.0000000000	624.2468250722	1.0000000000	0.0000000000	0.0000000000
0.2300000000	0.3841544029	1.0000000000	0.1486231829	1.0000000000	0.0000000000	0.0000000000	-43.4738551385	1.0000000000	604.3025230272	1.0000000000	0.0000000000	0.0000000000
0.2400000000	0.5011657646	1.0000000000	0.1367004115	1.0000000000	0.0000000000	0.0000000000	-38.7104337718	1.0000000000	583.2770806205	1.0000000000	0.0000000000	0.0000000000
0.2500000000	0.4386697355	1.0000000000	0.0963799528	1.0000000000	0.0000000000	0.0000000000	-34.2636980774	1.0000000000	563.1104781507	1.0000000000	0.0000000000	0.0000000000
0.2600000000	0.3426064146	1.0000000000	0.0328312971	1.0000000000	0.0000000000	0.0000000000	-30.0215695756	1.0000000000	545.0685645664	1.0000000000	0.0000000000	0.0000000000
0.2700000000	0.0000000000	1.0000000000	0.0000000000	1.0000000000	0.0000000000	0.0000000000	-25.7992615882	1.0000000000	530.5560198026	1.0000000000	0.0000000000	0.0000000000
0.2800000000	0.0000000000	1.0000000000	0.0000000000	1.0000000000	0.0000000000	0.0000000000	-21.7359611344	1.0000000000	520.2436498873	1.0000000000	0.0000000000	0.0000000000
0.2900000000	0.0000000000	1.0000000000	0.0000000000	1.0000000000	0.0000000000	0.0000000000	-17.6411443531	1.0000000000	513.9326842638	1.0000000000	0.0000000000	0.0000000000
0.3000000000	0.0000000000	1.0000000000	0.0000000000	1.0000000000	0.0000000000	0.0000000000	-13.4826419288	1.0000000000	511.5376894035	1.0000000000	0.0000000000	0.0000000000
0.3100000000	0.0000000000	1.0000000000	0.0000000000	1.0000000000	0.0000000000	0.0000000000	-9.2876270880	1.0000000000	512.9135650154	1.0000000000	0.0000000000	0.0000000000
0.3200000000	0.0000000000	1.0000000000	0.0000000000	1.0000000000	0.0000000000	0.0000000000	-4.8433045460	1.0000000000	517.3967730200	1.0000000000	0.0000000000	0.0000000000
0.3300000000	0.0000000000	1.0000000000	0.0000000000	1.0000000000	0.0000000000	0.0000000000	-0.3257273288	1.0000000000	524.1110009727	1.0000000000	0.0000000000	0.0000000000
0.3400000000	0.0000000000	1.0000000000	0.0000000000	1.0000000000	0.0000000000	0.0000000000	4.2929576014	1.0000000000	532.1596193820	1.0000000000	0.0000000000	0.0000000000
0.3500000000	0.0000000000	1.0000000000	0.0000000000	1.0000000000	0.0000000000	0.0000000000	9.0751853102	1.0000000000	540.8598421894	1.0000000000	0.0000000000	0.0000000000
0.3600000000	0.0000000000	1.0000000000	0.0000000000	1.0000000000	0.0000000000	0.0000000000	13.9179972185	1.0000000000	550.1116957496	1.0000000000	0.0000000000	0.0000000000
0.3700000000	0.0000000000	1.0000000000	0.0000000000	1.0000000000	0.0000000000	0.0000000000	19.0134679140	1.0000000000	559.9175579311	1.0000000000	0.0000000000	0.0000000000
0.3800000000	0.0591613396	1.0000000000	0.0286203227	1.0000000000	0.0000000000	0.0000000000	24.4385998165	1.0000000000	570.1549114480	1.0000000000	0.0000000000	0.0000000000
0.3900000000	0.0029407296	1.0000000000	0.1003607926	1.0000000000	0.0000000000	0.0000000000	30.1177187375	1.0000000000	581.2334583331	1.0000000000	0.0000000000	0.0000000000
0.4000000000	-0.0454762952	1.0000000000	0.1641377872	1.0000000000	0.0000000000	0.0000000000	36.2211328910	1.0000000000	593.5362163705	1.0000000000	0.0000000000	0.0000000000
0.4100000000	-0.0871717828	1.0000000000	0.1486881277	1.0000000000	0.0000000000	0.0000000000	42.6058419499	1.0000000000	606.7812898948	1.0000000000	0.0000000000	0.0000000000
0.4200000000	0.0000000000	1.0000000000	0.0000000000	1.0000000000	0.0000000000	0.0000000000	49.1793498613	1.0000000000	620.5970680925	1.0000000000	0.0000000000	0.0000000000
0.4300000000	0.0000000000	1.0000000000	0.0000000000	1.0000000000	0.0000000000	0.0000000000	56.0540770930	1.0000000000	634.6821441409	1.0000000000	0.0000000000	0.0000000000
0.4400000000	0.0000000000	1.0000000000	0.0000000000	1.0000000000	0.0000000000	0.0000000000	63.0430365388	1.0000000000	648.5016940087	1.0000000000	0.0000000000	0.0000000000
0.4500000000	0.0000000000	1.0000000000	0.0000000000	1.0000000000	0.0000000000	0.0000000000	70.1686938899	1.0000000000	661.1129895571	1.0000000000	0.0000000000	0.0000000000
0.4600000000	0.0000000000	1.0000000000	0.0000000000	1.0000000000	0.0000000000	0.0000000000	77.5847338336	1.0000000000	671.1675163995	1.0000000000	0.0000000000	0.0000000000
0.4700000000	0.0000000000	1.0000000000	0.0000000000	1.0000000000	0.0000000000	0.0000000000	85.1473576621	1.0000000000	677.3489341166	1.0000000000	0.0000000000	0.0000000000
0.4800000000	4.0961719955	1.0000000000	4.1595253812	1.0000000000	0.0000000000	0.0000000000	92.8383771125	1.0000000000	678.4767010274	1.0000000000	0.0000000000	0.0000000000
0.4900000000	6.2627011280	1.0000000000	21.4317350790	1.0000000000	0.0000000000	0.0000000000	100.5926424668	1.0000000000	673.4663033816	1.0000000000	0.0000000000	0.0000000000
0.5000000000	6.6924950071	1.0000000000	53.8066610548	1.0000000000	0.0000000000	0.0000000000	108.0150010855	1.0000000000	661.4037812777	1.0000000000	0.0000000000	0.0000000000
0.5100000000	2.5272765211	1.0000000000	103.3450175801	1.0000000000	0.0000000000	0.0000000000	114.7571979883	1.0000000000	641.5824215960	1.0000000000	0.0000000000	0.0000000000
0.5200000000	-8.1152842143	1.0000000000	167.3431089159	1.0000000000	0.0000000000	0.0000000000	120.0633105973	1.0000000000	613.4436507800	1.0000000000	0.0000000000	0.0000000000
0.5300000000	-23.5167355536	1.0000000000	238.1370126009	1.0000000000	0.0000000000	0.0000000000	123.2002755331	1.0000000000	576.3853210514	1.0000000000	0.0000000000	0.0000000000
0.5400000000	-39.6537414719	1.0000000000	304.9003939539	1.0000000000	0.0000000000	0.0000000000	123.6963536193	1.0000000000	530.0164000380	1.0000000000	0.0000000000	0.0000000000
0.5500000000	-53.4600864065	1.0000000000	358.5940076568	1.0000000000	0.0000000000	0.0000000000	120.6179700164	1.0000000000	474.6033765995	1.0000000000	0.0000000000	0.0000000000
0.5600000000	-63.5537125598	1.0000000000	396.9279814367	1.0000000000	0.0000000000	0.0000000000	113.3661781558	1.0000000000	411.6387014760	1.0000000000	0.0000000000	0.0000000000
0.5700000000	-70.3608931513	1.0000000000	423.8843643983	1.0000000000	0.0000000000	0.0000000000	101.8155671667	1.0000000000	344.0968321685	1.0000000000	0.0000000000	0.0000000000
0.5800000000	-75.4114781341	1.0000000000	445.1523455714	1.0000000000	0.0000000000	0.0000000000	86.3372645269	1.0000000000	275.5550759202	1.0000000000	0.0000000000	0.0000000000
0.5900000000	-79.4909332271	1.0000000000	465.3604102284	1.0000000000	0.0000000000	0.0000000000	68.4853690844	1.0000000000	209.6968590302	1.0000000000	0.0000000000	0.0000000000
0.6000000000	-82.9643979761	1.0000000000	487.6616674213	1.0000000000	0.0000000000	0.0000000000	50.2474547848	1.0000000000	150.3619070959	1.0000000000	0.0000000000	0.0000000000
0.6100000000	-85.9649404902	1.0000000000	513.4235057123	1.0000000000	0.0000000000	0.0000000000	33.3267766510	1.0000000000	100.4596181339	1.0000000000	0.0000000000	0.0000000000
0.6200000000	-87.9622290459	1.0000000000	541.9497306596	1.0000000000	0.0000000000	0.0000000000	19.3083053585	1.0000000000	61.1991990167	1.0000000000	0.0000000000	0.0000000000
0.6300000000	-88.6664809713	1.0000000000	571.3332332225	1.0000000000	0.0000000000	0.0000000000	9.0090374896	1.0000000000	32.7526409170	1.0000000000	0.0000000000	0.0000000000
0.6400000000	-87.8371114298	1.0000000000	599.1825181755	1.0000000000	0.0000000000	0.0000000000	2.5403786678	1.0000000000	14.3687660198	1.0000000000	0.0000000000	0.0000000000
0.6500000000	-85.2090154974	1.0000000000	622.9998577376	1.0000000000	0.0000000000	0.0000000000	-0.6002562502	1.0000000000	4.1095960915	1.0000000000	0.0000000000	0.0000000000
0.6600000000	-81.1046234306	1.0000000000	640.9191482490	1.0000000000	0.0000000000	0.0000000000	0.0000000000	1.0000000000	0.0000000000	1.0000000000	0.0000000000	0.0000000000
0.6700000000	-75.8268142894	1.0000000000	651.9551951609	1.0000000000	0.0000000000	0.0000000000	0.0000000000	1.0000000000	0.0000000000	1.0000000000	0.0000000000	0.0000000000
0.6800000000	-69.7403455377	1.0000000000	655.6135814852	1.0000000000	0.0000000000	0.0000000000	0.0000000000	1.0000000000	0.0000000000	1.0000000000	0.0000000000	0.0000000000
0.6900000000	-63.3664484985	1.0000000000	652.0567523175	1.0000000000	0.0000000000	0.0000000000	0.0000000000	1.0000000000	0.0000000000	1.0000000000	0.0000000000	0.0000000000
0.7000000000	-56.9768668153	1.0000000000	642.3099925399	1.0000000000	0.0000000000	0.0000000000	0.0000000000	1.0000000000	0.0000000000	1.0000000000	0.0000000000	0.0000000000
0.7100000000	-50.7369394857	1.0000000000	627.7633362417	1.0000000000	0.0000000000	0.0000000000	0.0000000000	1.0000000000	0.0000000000	1.0000000000	0.0000000000	0.0000000000
0.7200000000	-44.8920157208	1.0000000000	610.0094348373	1.0000000000	0.0000000000	0.0000000000	0.1615054308	1.0000000000	0.0793476365	1.0000000000	0.0000000000	0.0000000000
0.7300000000	-39.3333966287	1.0000000000	590.8295761663	1.0000000000	0.0000000000	0.0000000000	0.1220877485	1.0000000000	0.1053012250	1.0000000000	0.0000000000	0.0000000000
0.7400000000	-34.0798072440	1.0000000000	571.7562083919	1.0000000000	0.0000000000	0.0000000000	0.0807221062	1.0000000000	0.0802794075	1.0000000000	0.0000000000	0.0000000000
0.7500000000	-29.1755927738	1.0000000000	554.0947430970	1.0000000000	0.0000000000	0.0000000000	0.0311148045	1.0000000000	0.0447317578	1.0000000000	0.0000000000	0.0000000000
0.7600000000	-24.4039731531	1.0000000000	539.0130736333	1.0000000000	0.0000000000	0.0000000000	0.0080900506	1.0000000000	0.0259372166	1.0000000000	0.0000000000	0.0000000000
0.7700000000	-19.8086115976	1.0000000000	527.2223409341	1.0000000000	0.0000000000	0.0000000000	0.0119895759	1.0000000000	0.0047025819	1.0000000000	0.0000000000	0.0000000000
0.7800000000	-15.3139779394	1.0000000000	519.0541567404	1.0000000000	0.0000000000	0.0000000000	0.0000000000	1.0000000000	0.0000000000	1.0000000000	0.0000000000	0.0000000000
0.7900000000	-10.7858612291	1.0000000000	514.6980075095	1.0000000000	0.0000000000	0.0000000000	0.0000000000	1.0000000000	0.0000000000	1.0000000000	0.0000000000	0.0000000000
0.8000000000	-6.2363350892	1.0000000000	514.0534574343	1.0000000000	0.0000000000	0.0000000000	0.0000000000	1.0000000000	0.0000000000	1.0000000000	0.0000000000	0.0000000000
0.8100000000	-1.6562244661	1.0000000000	516.7515926692	1.0000000000	0.0000000000	0.0000000000	0.0000000000	1.0000000000	0.0000000000	1.0000000000	0.0000000000	0.0000000000
0.8200000000	2.8957495448	1.0000000000	522.2955066805	1.0000000000	0.0000000000	0.0000000000	0.0000000000	1.0000000000	0.0000000000	1.0000000000	0.0000000000	0.0000000000
0.8300000000	7.3219038847	1.0000000000	530.0280525954	1.0000000000	0.0000000000	0.0000000000	0.0000000000	1.0000000000	0.0000000000	1.0000000000	0.0000000000	0.0000000000
0.8400000000	11.6045838120	1.0000000000	539.1254922961	1.0000000000	0.0000000000	0.0000000000	0.0000000000	1.0000000000	0.0000000000	1.0000000000	0.0000000000	0.0000000000
0.8500000000	15.7309984130	1.0000000000	548.7667870107	1.0000000000	0.0000000000	0.0000000000	0.0000000000	1.0000000000	0.0000000000	1.0000000000	0.0000000000	0.0000000000
0.8600000000	19.7114471279	1.0000000000	558.4583652879	1.0000000000	0.0000000000	0.0000000000	0.0000000000	1.0000000000	0.0000000000	1.0000000000	0.0000000000	0.0000000000
0.8700000000	23.7076083768	1.0000000000	567.9145063101	1.0000000000	0.0000000000	0.0000000000	0.0000000000	1.0000000000	0.0000000000	1.0000000000	0.0000000000	0.0000000000
0.8800000000	27.8049868089	1.0000000000	577.1909783851	1.0000000000	0.0000000000	0.0000000000	0.0248654341	1.0000000000	0.0466390430	1.0000000000	0.0000000000	0.0000000000
0.8900000000	32.0648041448	1.0000000000	586.7086097808	1.0000000000	0.0000000000	0.0000000000	0.0229160214	1.0000000000	0.1395034384	1.0000000000	0.0000000000	0.0000000000
0.9000000000	36.6090588157	1.0000000000	596.7547917820	1.0000000000	0.0000000000	0.0000000000	0.0106079893	1.0000000000	0.2480044144	1.0000000000	0.0000000000	0.0000000000
0.9100000000	41.3261940232	1.0000000000	607.5479619969	1.0000000000	0.0000000000	0.0000000000	-0.0398855279	1.0000000000	0.3114172841	1.0000000000	0.0000000000	0.0000000000
0.9200000000	46.2561529506	1.0000000000	619.2875080934	1.0000000000	0.0000000000	0.0000000000	-0.1473240301	1.0000000000	0.1949193986	1.0000000000	0.0000000000	0.0000000000
0.9300000000	51.5157535520	1.0000000000	631.8262277458	1.0000000000	0.0000000000	0.0000000000	0.0000000000	1.0000000000	0.0000000000	1.0000000000	0.0000000000	0.0000000000
0.9400000000	57.0917650538	1.0000000000	644.7528808715	1.0000000000	0.0000000000	0.0000000000	0.0000000000	1.0000000000	0.0000000000	1.0000000000	0.0000000000	0.0000000000
0.9500000000	63.2855909986	1.0000000000	657.4350171566	1.0000000000	0.0000000000	0.0000000000	0.0000000000	1.0000000000	0.0000000000	1.0000000000	0.0000000000	0.0000000000
0.9600000000	70.2238230939	1.0000000000	668.8725490919	1.0000000000	0.0000000000	0.0000000000	0.0000000000	1.0000000000	0.0000000000	1.0000000000	0.0000000000	0.0000000000
0.9700000000	77.8695835325	1.0000000000	677.6880959446	1.0000000000	0.0000000000	0.0000000000	0.0000000000	1.0000000000	0.0000000000	1.0000000000	0.0000000000	0.0000000000
0.9800000000	86.2519635316	1.0000000000	682.3335243233	1.0000000000	0.0000000000	0.0000000000	0.0000000000	1.0000000000	0.0000000000	1.0000000000	0.0000000000	0.0000000000
0.9900000000	95.0943370532	1.0000000000	681.3609073644	1.0000000000	0.0000000000	0.0000000000	7.9403441311	1.0000000000	10.8539506745	1.0000000000	0.0000000000	0.0000000000
