name p14_grf_mean_speed_1.6
datacolumns 13
datarows 100
range 0.00000000 0.99000000
endheader
time	grf_x_l_mean	grf_x_l_var	grf_y_l_mean	grf_y_l_var	grf_z_l_mean	grf_z_l_var	grf_x_r_mean	grf_x_r_var	grf_y_r_mean	grf_y_r_var	grf_z_r_mean	grf_z_r_var
0.0000000000	181.8075980043	1.0000000000	722.7668599619	1.0000000000	0.0000000000	0.0000000000	8.6585741607	1.0000000000	11.5181429556	1.0000000000	0.0000000000	0.0000000000
0.0100000000	193.0367413900	1.0000000000	703.0719659257	1.0000000000	0.0000000000	0.0000000000	8.0078897079	1.0000000000	53.5487282950	1.0000000000	0.0000000000	0.0000000000
0.0200000000	200.4558513517	1.0000000000	669.4843340869	1.0000000000	0.0000000000	0.0000000000	1.8873169364	1.0000000000	122.8925435108	1.0000000000	0.0000000000	0.0000000000
0.0300000000	202.8335739594	1.0000000000	621.5281912874	1.0000000000	0.0000000000	0.0000000000	-13.6965301998	1.0000000000	218.0496413376	1.0000000000	0.0000000000	0.0000000000
0.0400000000	198.3608353200	1.0000000000	558.8454962095	1.0000000000	0.0000000000	0.0000000000	-41.0790442383	1.0000000000	328.6928367183	1.0000000000	0.0000000000	0.0000000000
0.0500000000	184.8345616454	1.0000000000	482.7905564472	1.0000000000	0.0000000000	0.0000000000	-74.3763795931	1.0000000000	438.4672514710	1.0000000000	0.0000000000	0.0000000000
0.0600000000	163.5430651475	1.0000000000	397.7878260095	1.0000000000	0.0000000000	0.0000000000	-103.8280292465	1.0000000000	528.6057477241	1.0000000000	0.0000000000	0.0000000000
0.0700000000	136.2078703129	1.0000000000	309.4010142193	1.0000000000	0.0000000000	0.0000000000	-126.1696531309	1.0000000000	589.2548000125	1.0000000000	0.0000000000	0.0000000000
0.0800000000	103.4818381367	1.0000000000	224.2467949253	1.0000000000	0.0000000000	0.0000000000	-141.6178084375	1.0000000000	624.7101158514	1.0000000000	0.0000000000	0.0000000000
0.0900000000	71.1885407282	1.0000000000	149.5570128932	1.0000000000	0.0000000000	0.0000000000	-151.9335541609	1.0000000000	647.9704823944	1.0000000000	0.0000000000	0.0000000000
0.1000000000	43.4685103885	1.0000000000	91.0197763561	1.0000000000	0.0000000000	0.0000000000	-157.6832151067	1.0000000000	670.0248303778	1.0000000000	0.0000000000	0.0000000000
0.1100000000	22.1234600639	1.0000000000	49.3900890149	1.0000000000	0.0000000000	0.0000000000	-160.4725365252	1.0000000000	693.6724421329	1.0000000000	0.0000000000	0.0000000000
0.1200000000	7.7056592034	1.0000000000	21.5840260554	1.0000000000	0.0000000000	0.0000000000	-160.5483646923	1.0000000000	716.5190607786	1.0000000000	0.0000000000	0.0000000000
0.1300000000	0.0566289737	1.0000000000	5.0374481628	1.0000000000	0.0000000000	0.0000000000	-156.5886397217	1.0000000000	736.4886670126	1.0000000000	0.0000000000	0.0000000000
0.1400000000	0.0000000000	1.0000000000	0.0000000000	1.0000000000	0.0000000000	0.0000000000	-149.9157842497	1.0000000000	752.2051197992	1.0000000000	0.0000000000	0.0000000000
0.1500000000	0.0000000000	1.0000000000	0.0000000000	1.0000000000	0.0000000000	0.0000000000	-141.6348821880	1.0000000000	761.7088524052	1.0000000000	0.0000000000	0.0000000000
0.1600000000	0.0000000000	1.0000000000	0.0000000000	1.0000000000	0.0000000000	0.0000000000	-131.4199025236	1.0000000000	762.8831303219	1.0000000000	0.0000000000	0.0000000000
0.1700000000	0.0000000000	1.0000000000	0.0000000000	1.0000000000	0.0000000000	0.0000000000	-118.6532986320	1.0000000000	755.1292999049	1.0000000000	0.0000000000	0.0000000000
0.1800000000	0.0000000000	1.0000000000	0.0000000000	1.0000000000	0.0000000000	0.0000000000	-105.6177512885	1.0000000000	739.1960610323	1.0000000000	0.0000000000	0.0000000000
0.1900000000	0.0000000000	1.0000000000	0.0000000000	1.0000000000	0.0000000000	0.0000000000	-92.4689370776	1.0000000000	715.3408705534	1.0000000000	0.0000000000	0.0000000000
0.2000000000	1.6465238622	1.0000000000	0.6239460286	1.0000000000	0.0000000000	0.0000000000	-79.0070495097	1.0000000000	684.8020481281	1.0000000000	0.0000000000	0.0000000000
0.2100000000	1.8983015008	1.0000000000	1.0768758993	1.0000000000	0.0000000000	0.0000000000	-66.4831576112	1.0000000000	649.8303934623	1.0000000000	0.0000000000	0.0000000000
0.2200000000	1.4735830194	1.0000000000	1.6943087308	1.0000000000	0.0000000000	0.0000000000	-55.5247638500	1.0000000000	611.9439003476	1.0000000000	0.0000000000	0.0000000000
0.2300000000	1.7615497752	1.0000000000	1.9539036167	1.0000000000	0.0000000000	0.0000000000	-45.8375641581	1.0000000000	572.2339227112	1.0000000000	0.0000000000	0.0000000000
0.2400000000	1.9607316561	1.0000000000	1.5380874617	1.0000000000	0.0000000000	0.0000000000	-37.2936763201	1.0000000000	532.7113108567	1.0000000000	0.0000000000	0.0000000000
0.2500000000	1.7393332877	1.0000000000	1.2245619756	1.0000000000	0.0000000000	0.0000000000	-30.7754336411	1.0000000000	496.0591098523	1.0000000000	0.0000000000	0.0000000000
0.2600000000	1.6832593412	1.0000000000	1.2924935788	1.0000000000	0.0000000000	0.0000000000	-25.1269571280	1.0000000000	463.4804635661	1.0000000000	0.0000000000	0.0000000000
0.2700000000	1.9344042058	1.0000000000	1.1903813808	1.0000000000	0.0000000000	0.0000000000	-20.0564741737	1.0000000000	435.0065209115	1.0000000000	0.0000000000	0.0000000000
0.2800000000	1.2615646855	1.0000000000	0.7221477696	1.0000000000	0.0000000000	0.0000000000	-16.0372691231	1.0000000000	411.0861329294	1.0000000000	0.0000000000	0.0000000000
0.2900000000	0.4705045695	1.0000000000	0.3990921517	1.0000000000	0.0000000000	0.0000000000	-12.7981204421	1.0000000000	392.4682393054	1.0000000000	0.0000000000	0.0000000000
0.3000000000	0.5640615719	1.0000000000	0.4221736510	1.0000000000	0.0000000000	0.0000000000	-9.5059261410	1.0000000000	379.4369701806	1.0000000000	0.0000000000	0.0000000000
0.3100000000	0.5699228266	1.0000000000	0.3373421664	1.0000000000	0.0000000000	0.0000000000	-6.0929953290	1.0000000000	371.7187010398	1.0000000000	0.0000000000	0.0000000000
0.3200000000	0.4958982210	1.0000000000	0.1751638300	1.0000000000	0.0000000000	0.0000000000	-2.7221005389	1.0000000000	369.3101195681	1.0000000000	0.0000000000	0.0000000000
0.3300000000	0.9899508362	1.0000000000	0.3302890812	1.0000000000	0.0000000000	0.0000000000	1.4224164878	1.0000000000	372.5382326660	1.0000000000	0.0000000000	0.0000000000
0.3400000000	1.4828264906	1.0000000000	0.6908397829	1.0000000000	0.0000000000	0.0000000000	6.1232812811	1.0000000000	381.3129449005	1.0000000000	0.0000000000	0.0000000000
0.3500000000	0.8308079837	1.0000000000	0.7705024141	1.0000000000	0.0000000000	0.0000000000	11.3701025474	1.0000000000	395.1225368407	1.0000000000	0.0000000000	0.0000000000
0.3600000000	0.1760343513	1.0000000000	0.5339667280	1.0000000000	0.0000000000	0.0000000000	17.5837566956	1.0000000000	413.6738625848	1.0000000000	0.0000000000	0.0000000000
0.3700000000	0.2500167256	1.0000000000	0.3444424995	1.0000000000	0.0000000000	0.0000000000	25.0045098432	1.0000000000	436.9584779533	1.0000000000	0.0000000000	0.0000000000
0.3800000000	0.4371674965	1.0000000000	0.3726126765	1.0000000000	0.0000000000	0.0000000000	33.2525076052	1.0000000000	464.4550454676	1.0000000000	0.0000000000	0.0000000000
0.3900000000	0.6321123494	1.0000000000	0.5088578412	1.0000000000	0.0000000000	0.0000000000	42.7115448112	1.0000000000	495.0326029210	1.0000000000	0.0000000000	0.0000000000
0.4000000000	0.9557287228	1.0000000000	0.6681409650	1.0000000000	0.0000000000	0.0000000000	53.8167255426	1.0000000000	527.8165078868	1.0000000000	0.0000000000	0.0000000000
0.4100000000	1.0038495516	1.0000000000	0.6514482608	1.0000000000	0.0000000000	0.0000000000	65.9148248082	1.0000000000	562.0474411075	1.0000000000	0.0000000000	0.0000000000
0.4200000000	0.0000000000	1.0000000000	0.0000000000	1.0000000000	0.0000000000	0.0000000000	79.0896477559	1.0000000000	596.4568052958	1.0000000000	0.0000000000	0.0000000000
0.4300000000	0.0000000000	1.0000000000	0.0000000000	1.0000000000	0.0000000000	0.0000000000	93.6091115146	1.0000000000	629.6298000598	1.0000000000	0.0000000000	0.0000000000
0.4400000000	0.0000000000	1.0000000000	0.0000000000	1.0000000000	0.0000000000	0.0000000000	109.0744129650	1.0000000000	660.5521283310	1.0000000000	0.0000000000	0.0000000000
0.4500000000	0.0000000000	1.0000000000	0.0000000000	1.0000000000	0.0000000000	0.0000000000	124.8241440341	1.0000000000	688.0668338123	1.0000000000	0.0000000000	0.0000000000
0.4600000000	0.0000000000	1.0000000000	0.0000000000	1.0000000000	0.0000000000	0.0000000000	140.9622815095	1.0000000000	710.2471491842	1.0000000000	0.0000000000	0.0000000000
0.4700000000	0.0000000000	1.0000000000	0.0000000000	1.0000000000	0.0000000000	0.0000000000	157.1565972829	1.0000000000	725.2936013053	1.0000000000	0.0000000000	0.0000000000
0.4800000000	0.0000000000	1.0000000000	0.0000000000	1.0000000000	0.0000000000	0.0000000000	172.3709655088	1.0000000000	732.0277216375	1.0000000000	0.0000000000	0.0000000000
0.4900000000	7.7813816952	1.0000000000	10.2646795179	1.0000000000	0.0000000000	0.0000000000	186.2428088071	1.0000000000	728.8346327823	1.0000000000	0.0000000000	0.0000000000
0.5000000000	5.8712015006	1.0000000000	50.1117805156	1.0000000000	0.0000000000	0.0000000000	198.0851963383	1.0000000000	713.3867046413	1.0000000000	0.0000000000	0.0000000000
0.5100000000	-1.5263490919	1.0000000000	116.0038341573	1.0000000000	0.0000000000	0.0000000000	206.1275813334	1.0000000000	683.9530900649	1.0000000000	0.0000000000	0.0000000000
0.5200000000	-17.7072557210	1.0000000000	207.2922008916	1.0000000000	0.0000000000	0.0000000000	208.8050496940	1.0000000000	640.2595246984	1.0000000000	0.0000000000	0.0000000000
0.5300000000	-43.8595367045	1.0000000000	314.3218376470	1.0000000000	0.0000000000	0.0000000000	205.0537548670	1.0000000000	582.6503649639	1.0000000000	0.0000000000	0.0000000000
0.5400000000	-75.4011267417	1.0000000000	420.5739752514	1.0000000000	0.0000000000	0.0000000000	193.2762123573	1.0000000000	512.0889968227	1.0000000000	0.0000000000	0.0000000000
0.5500000000	-103.6941797337	1.0000000000	508.4320932818	1.0000000000	0.0000000000	0.0000000000	173.5534308948	1.0000000000	431.4356249940	1.0000000000	0.0000000000	0.0000000000
0.5600000000	-123.8750385043	1.0000000000	567.7844959345	1.0000000000	0.0000000000	0.0000000000	147.5747820810	1.0000000000	345.4304585812	1.0000000000	0.0000000000	0.0000000000
0.5700000000	-136.8150174844	1.0000000000	601.3947573972	1.0000000000	0.0000000000	0.0000000000	116.6747277900	1.0000000000	260.0225970771	1.0000000000	0.0000000000	0.0000000000
0.5800000000	-145.0913411052	1.0000000000	620.9841302618	1.0000000000	0.0000000000	0.0000000000	84.1636285374	1.0000000000	181.7682105373	1.0000000000	0.0000000000	0.0000000000
0.5900000000	-149.9635870452	1.0000000000	638.2703636971	1.0000000000	0.0000000000	0.0000000000	54.1137646662	1.0000000000	116.6650511017	1.0000000000	0.0000000000	0.0000000000
0.6000000000	-152.6887857756	1.0000000000	658.6830142840	1.0000000000	0.0000000000	0.0000000000	29.4366232393	1.0000000000	67.5736031077	1.0000000000	0.0000000000	0.0000000000
0.6100000000	-154.0589633769	1.0000000000	681.7605396518	1.0000000000	0.0000000000	0.0000000000	11.7256375844	1.0000000000	33.2598723506	1.0000000000	0.0000000000	0.0000000000
0.6200000000	-153.2587596512	1.0000000000	705.2242159599	1.0000000000	0.0000000000	0.0000000000	1.4474404295	1.0000000000	11.2498983574	1.0000000000	0.0000000000	0.0000000000
0.6300000000	-150.0761106499	1.0000000000	726.7510491112	1.0000000000	0.0000000000	0.0000000000	0.0000000000	1.0000000000	0.0000000000	1.0000000000	0.0000000000	0.0000000000
0.6400000000	-144.9083699293	1.0000000000	743.5414014974	1.0000000000	0.0000000000	0.0000000000	0.0000000000	1.0000000000	0.0000000000	1.0000000000	0.0000000000	0.0000000000
0.6500000000	-137.5647006819	1.0000000000	752.6336373070	1.0000000000	0.0000000000	0.0000000000	0.0000000000	1.0000000000	0.0000000000	1.0000000000	0.0000000000	0.0000000000
0.6600000000	-127.4974627271	1.0000000000	752.3567959260	1.0000000000	0.0000000000	0.0000000000	0.0000000000	1.0000000000	0.0000000000	1.0000000000	0.0000000000	0.0000000000
0.6700000000	-115.9333828648	1.0000000000	742.7451481128	1.0000000000	0.0000000000	0.0000000000	0.0000000000	1.0000000000	0.0000000000	1.0000000000	0.0000000000	0.0000000000
0.6800000000	-103.3890412826	1.0000000000	724.3391089190	1.0000000000	0.0000000000	0.0000000000	-0.1715651846	1.0000000000	0.1066857154	1.0000000000	0.0000000000	0.0000000000
0.6900000000	-89.5132158630	1.0000000000	698.0724277840	1.0000000000	0.0000000000	0.0000000000	0.6180841799	1.0000000000	0.7513464868	1.0000000000	0.0000000000	0.0000000000
0.7000000000	-75.7478966738	1.0000000000	666.0318536504	1.0000000000	0.0000000000	0.0000000000	1.2158276976	1.0000000000	0.7941442895	1.0000000000	0.0000000000	0.0000000000
0.7100000000	-63.2313173850	1.0000000000	630.4315475292	1.0000000000	0.0000000000	0.0000000000	1.2527890328	1.0000000000	1.0707216321	1.0000000000	0.0000000000	0.0000000000
0.7200000000	-51.7811118678	1.0000000000	592.5983639735	1.0000000000	0.0000000000	0.0000000000	1.4274780952	1.0000000000	1.4072038911	1.0000000000	0.0000000000	0.0000000000
0.7300000000	-41.3937303468	1.0000000000	554.0426654265	1.0000000000	0.0000000000	0.0000000000	1.5883598150	1.0000000000	1.1350748145	1.0000000000	0.0000000000	0.0000000000
0.7400000000	-32.9323698662	1.0000000000	517.1702441513	1.0000000000	0.0000000000	0.0000000000	1.3527361617	1.0000000000	0.5804867860	1.0000000000	0.0000000000	0.0000000000
0.7500000000	-25.9985259441	1.0000000000	483.8163211113	1.0000000000	0.0000000000	0.0000000000	1.1186855455	1.0000000000	0.5679064238	1.0000000000	0.0000000000	0.0000000000
0.7600000000	-19.9916128582	1.0000000000	454.3343600913	1.0000000000	0.0000000000	0.0000000000	1.1863338481	1.0000000000	0.8925100846	1.0000000000	0.0000000000	0.0000000000
0.7700000000	-15.4600832088	1.0000000000	428.9167764056	1.0000000000	0.0000000000	0.0000000000	1.0096962876	1.0000000000	0.7553512252	1.0000000000	0.0000000000	0.0000000000
0.7800000000	-12.1711238021	1.0000000000	408.1767214807	1.0000000000	0.0000000000	0.0000000000	0.4291804595	1.0000000000	0.1894141105	1.0000000000	0.0000000000	0.0000000000
0.7900000000	-9.0201420188	1.0000000000	392.1937910860	1.0000000000	0.0000000000	0.0000000000	0.0000000000	1.0000000000	0.0000000000	1.0000000000	0.0000000000	0.0000000000
0.8000000000	-5.8141664174	1.0000000000	380.4897506290	1.0000000000	0.0000000000	0.0000000000	0.0000000000	1.0000000000	0.0000000000	1.0000000000	0.0000000000	0.0000000000
0.8100000000	-2.6800472839	1.0000000000	373.1774206625	1.0000000000	0.0000000000	0.0000000000	0.0000000000	1.0000000000	0.0000000000	1.0000000000	0.0000000000	0.0000000000
0.8200000000	1.4626468516	1.0000000000	371.1380805615	1.0000000000	0.0000000000	0.0000000000	0.7081514972	1.0000000000	0.0265001783	1.0000000000	0.0000000000	0.0000000000
0.8300000000	6.9210009121	1.0000000000	374.8425063965	1.0000000000	0.0000000000	0.0000000000	0.9206004390	1.0000000000	0.2384584084	1.0000000000	0.0000000000	0.0000000000
0.8400000000	12.8369589750	1.0000000000	384.1658206960	1.0000000000	0.0000000000	0.0000000000	0.6455408066	1.0000000000	0.4357664319	1.0000000000	0.0000000000	0.0000000000
0.8500000000	19.1321044731	1.0000000000	399.2946609235	1.0000000000	0.0000000000	0.0000000000	0.2709364327	1.0000000000	0.4864525216	1.0000000000	0.0000000000	0.0000000000
0.8600000000	26.2302705411	1.0000000000	420.5164476554	1.0000000000	0.0000000000	0.0000000000	0.2684935490	1.0000000000	0.5491749238	1.0000000000	0.0000000000	0.0000000000
0.8700000000	33.6109047467	1.0000000000	447.0735293772	1.0000000000	0.0000000000	0.0000000000	0.3964937068	1.0000000000	0.8639652718	1.0000000000	0.0000000000	0.0000000000
0.8800000000	40.9180156511	1.0000000000	477.3930678594	1.0000000000	0.0000000000	0.0000000000	0.5532039058	1.0000000000	1.2724835873	1.0000000000	0.0000000000	0.0000000000
0.8900000000	48.8871267838	1.0000000000	510.3951012656	1.0000000000	0.0000000000	0.0000000000	0.8052893399	1.0000000000	1.4515356513	1.0000000000	0.0000000000	0.0000000000
0.9000000000	57.8670764066	1.0000000000	545.2378425970	1.0000000000	0.0000000000	0.0000000000	0.8103719432	1.0000000000	1.3750187329	1.0000000000	0.0000000000	0.0000000000
0.9100000000	67.9380175549	1.0000000000	580.2850006769	1.0000000000	0.0000000000	0.0000000000	0.2675523557	1.0000000000	1.0514115112	1.0000000000	0.0000000000	0.0000000000
0.9200000000	79.5752356208	1.0000000000	613.7421993379	1.0000000000	0.0000000000	0.0000000000	-0.2465420693	1.0000000000	0.0827383862	1.0000000000	0.0000000000	0.0000000000
0.9300000000	92.8841262533	1.0000000000	644.7885187157	1.0000000000	0.0000000000	0.0000000000	0.0000000000	1.0000000000	0.0000000000	1.0000000000	0.0000000000	0.0000000000
0.9400000000	107.2305525416	1.0000000000	672.9318778853	1.0000000000	0.0000000000	0.0000000000	0.0000000000	1.0000000000	0.0000000000	1.0000000000	0.0000000000	0.0000000000
0.9500000000	122.3317854235	1.0000000000	696.8775402364	1.0000000000	0.0000000000	0.0000000000	0.0000000000	1.0000000000	0.0000000000	1.0000000000	0.0000000000	0.0000000000
0.9600000000	138.0512899359	1.0000000000	715.0650126618	1.0000000000	0.0000000000	0.0000000000	0.0000000000	1.0000000000	0.0000000000	1.0000000000	0.0000000000	0.0000000000
0.9700000000	153.5671220706	1.0000000000	726.4828871829	1.0000000000	0.0000000000	0.0000000000	0.0000000000	1.0000000000	0.0000000000	1.0000000000	0.0000000000	0.0000000000
0.9800000000	168.2209886004	1.0000000000	729.8587220516	1.0000000000	0.0000000000	0.0000000000	0.0000000000	1.0000000000	0.0000000000	1.0000000000	0.0000000000	0.0000000000
0.9900000000	181.6865989692	1.0000000000	722.9099215294	1.0000000000	0.0000000000	0.0000000000	8.6616268390	1.0000000000	11.5113686059	1.0000000000	0.0000000000	0.0000000000
