name p14_grf_mean_speed_1.8
datacolumns 13
datarows 100
range 0.00000000 0.99000000
endheader
time	grf_x_l_mean	grf_x_l_var	grf_y_l_mean	grf_y_l_var	grf_z_l_mean	grf_z_l_var	grf_x_r_mean	grf_x_r_var	grf_y_r_mean	grf_y_r_var	grf_z_r_mean	grf_z_r_var
0.0000000000	199.9747522830	1.0000000000	707.8863906521	1.0000000000	0.0000000000	0.0000000000	8.0710348635	1.0000000000	11.7957219799	1.0000000000	0.0000000000	0.0000000000
0.0100000000	209.6867166232	1.0000000000	681.8296885984	1.0000000000	0.0000000000	0.0000000000	5.7163407704	1.0000000000	59.1471305255	1.0000000000	0.0000000000	0.0000000000
0.0200000000	213.9943016569	1.0000000000	642.3223949245	1.0000000000	0.0000000000	0.0000000000	-2.4716530036	1.0000000000	136.7568804074	1.0000000000	0.0000000000	0.0000000000
0.0300000000	211.7242967851	1.0000000000	589.4077471710	1.0000000000	0.0000000000	0.0000000000	-19.5836184888	1.0000000000	244.2803109979	1.0000000000	0.0000000000	0.0000000000
0.0400000000	201.9369582169	1.0000000000	523.9429104558	1.0000000000	0.0000000000	0.0000000000	-48.2594176979	1.0000000000	370.8661416861	1.0000000000	0.0000000000	0.0000000000
0.0500000000	183.4524817493	1.0000000000	447.8248045761	1.0000000000	0.0000000000	0.0000000000	-85.4523647987	1.0000000000	497.8620018837	1.0000000000	0.0000000000	0.0000000000
0.0600000000	157.0835496632	1.0000000000	364.7463889347	1.0000000000	0.0000000000	0.0000000000	-120.8336214942	1.0000000000	605.7128488020	1.0000000000	0.0000000000	0.0000000000
0.0700000000	126.7588946431	1.0000000000	280.0373289564	1.0000000000	0.0000000000	0.0000000000	-148.4828955639	1.0000000000	682.7265642387	1.0000000000	0.0000000000	0.0000000000
0.0800000000	93.8864603217	1.0000000000	200.1312097673	1.0000000000	0.0000000000	0.0000000000	-168.1548176261	1.0000000000	729.2773153122	1.0000000000	0.0000000000	0.0000000000
0.0900000000	61.2902817725	1.0000000000	131.1277567820	1.0000000000	0.0000000000	0.0000000000	-180.3717418411	1.0000000000	755.5619194485	1.0000000000	0.0000000000	0.0000000000
0.1000000000	34.8607633350	1.0000000000	77.2252684390	1.0000000000	0.0000000000	0.0000000000	-186.1548728939	1.0000000000	773.5330102935	1.0000000000	0.0000000000	0.0000000000
0.1100000000	15.7610825112	1.0000000000	39.3210472319	1.0000000000	0.0000000000	0.0000000000	-185.6980785628	1.0000000000	789.4858665126	1.0000000000	0.0000000000	0.0000000000
0.1200000000	3.7238417284	1.0000000000	15.0926216222	1.0000000000	0.0000000000	0.0000000000	-181.5969533598	1.0000000000	803.5545665966	1.0000000000	0.0000000000	0.0000000000
0.1300000000	-2.4667731899	1.0000000000	1.3287995261	1.0000000000	0.0000000000	0.0000000000	-174.4949648304	1.0000000000	813.8658176682	1.0000000000	0.0000000000	0.0000000000
0.1400000000	0.0000000000	1.0000000000	0.0000000000	1.0000000000	0.0000000000	0.0000000000	-163.6832634316	1.0000000000	819.2877502230	1.0000000000	0.0000000000	0.0000000000
0.1500000000	0.0000000000	1.0000000000	0.0000000000	1.0000000000	0.0000000000	0.0000000000	-150.6903036019	1.0000000000	818.8894582737	1.0000000000	0.0000000000	0.0000000000
0.1600000000	0.0000000000	1.0000000000	0.0000000000	1.0000000000	0.0000000000	0.0000000000	-136.7746475143	1.0000000000	811.2066332310	1.0000000000	0.0000000000	0.0000000000
0.1700000000	0.0000000000	1.0000000000	0.0000000000	1.0000000000	0.0000000000	0.0000000000	-121.7227407012	1.0000000000	794.8221638153	1.0000000000	0.0000000000	0.0000000000
0.1800000000	0.1904956130	1.0000000000	0.0452691003	1.0000000000	0.0000000000	0.0000000000	-104.7647757585	1.0000000000	769.2770789700	1.0000000000	0.0000000000	0.0000000000
0.1900000000	0.8834701373	1.0000000000	1.8453128029	1.0000000000	0.0000000000	0.0000000000	-87.8803919378	1.0000000000	735.2792467809	1.0000000000	0.0000000000	0.0000000000
0.2000000000	1.0021163164	1.0000000000	3.0809586803	1.0000000000	0.0000000000	0.0000000000	-72.3013847442	1.0000000000	693.8079226768	1.0000000000	0.0000000000	0.0000000000
0.2100000000	1.6172546944	1.0000000000	3.7079609470	1.0000000000	0.0000000000	0.0000000000	-57.3168073477	1.0000000000	646.5727777222	1.0000000000	0.0000000000	0.0000000000
0.2200000000	2.2213211953	1.0000000000	4.0761062774	1.0000000000	0.0000000000	0.0000000000	-43.8669281251	1.0000000000	596.3310660642	1.0000000000	0.0000000000	0.0000000000
0.2300000000	1.7428892460	1.0000000000	4.2893363561	1.0000000000	0.0000000000	0.0000000000	-32.7347130115	1.0000000000	545.4666619999	1.0000000000	0.0000000000	0.0000000000
0.2400000000	1.4389758166	1.0000000000	4.2489551349	1.0000000000	0.0000000000	0.0000000000	-23.7665864120	1.0000000000	495.6827210913	1.0000000000	0.0000000000	0.0000000000
0.2500000000	1.8582437944	1.0000000000	3.9382897826	1.0000000000	0.0000000000	0.0000000000	-16.2776291943	1.0000000000	448.8969706346	1.0000000000	0.0000000000	0.0000000000
0.2600000000	1.8778961167	1.0000000000	3.5610985479	1.0000000000	0.0000000000	0.0000000000	-10.4229095836	1.0000000000	407.5647568214	1.0000000000	0.0000000000	0.0000000000
0.2700000000	1.5887652099	1.0000000000	3.2347051316	1.0000000000	0.0000000000	0.0000000000	-6.5236421249	1.0000000000	373.4502745961	1.0000000000	0.0000000000	0.0000000000
0.2800000000	1.7960871970	1.0000000000	2.7947562053	1.0000000000	0.0000000000	0.0000000000	-3.5089502675	1.0000000000	346.7742342116	1.0000000000	0.0000000000	0.0000000000
0.2900000000	2.1510960370	1.0000000000	2.1749219219	1.0000000000	0.0000000000	0.0000000000	-1.0401029408	1.0000000000	327.2850791738	1.0000000000	0.0000000000	0.0000000000
0.3000000000	1.5880270329	1.0000000000	1.5156959766	1.0000000000	0.0000000000	0.0000000000	0.5974188685	1.0000000000	315.0455306206	1.0000000000	0.0000000000	0.0000000000
0.3100000000	0.8499188578	1.0000000000	0.9401893296	1.0000000000	0.0000000000	0.0000000000	1.8820072701	1.0000000000	309.9782103240	1.0000000000	0.0000000000	0.0000000000
0.3200000000	0.9046081445	1.0000000000	0.4807652834	1.0000000000	0.0000000000	0.0000000000	3.6199801423	1.0000000000	311.5853464728	1.0000000000	0.0000000000	0.0000000000
0.3300000000	0.9766213823	1.0000000000	0.1058100331	1.0000000000	0.0000000000	0.0000000000	5.9348962265	1.0000000000	319.2958273691	1.0000000000	0.0000000000	0.0000000000
0.3400000000	0.0000000000	1.0000000000	0.0000000000	1.0000000000	0.0000000000	0.0000000000	8.8029550326	1.0000000000	332.7948326081	1.0000000000	0.0000000000	0.0000000000
0.3500000000	0.0000000000	1.0000000000	0.0000000000	1.0000000000	0.0000000000	0.0000000000	12.8543080760	1.0000000000	351.7430847944	1.0000000000	0.0000000000	0.0000000000
0.3600000000	1.0342563660	1.0000000000	0.1478759060	1.0000000000	0.0000000000	0.0000000000	18.2320911152	1.0000000000	375.6196247359	1.0000000000	0.0000000000	0.0000000000
0.3700000000	0.7113270611	1.0000000000	0.3770740102	1.0000000000	0.0000000000	0.0000000000	24.9174782002	1.0000000000	403.7934852912	1.0000000000	0.0000000000	0.0000000000
0.3800000000	-0.0949351253	1.0000000000	0.5789932868	1.0000000000	0.0000000000	0.0000000000	33.4381722435	1.0000000000	435.5127911577	1.0000000000	0.0000000000	0.0000000000
0.3900000000	-0.3147021227	1.0000000000	0.7371652013	1.0000000000	0.0000000000	0.0000000000	44.2267218584	1.0000000000	470.1165571230	1.0000000000	0.0000000000	0.0000000000
0.4000000000	-0.1572112706	1.0000000000	0.6708998475	1.0000000000	0.0000000000	0.0000000000	57.0522152249	1.0000000000	507.0851712279	1.0000000000	0.0000000000	0.0000000000
0.4100000000	-0.1434939467	1.0000000000	0.0765076365	1.0000000000	0.0000000000	0.0000000000	71.4754340409	1.0000000000	545.4568162288	1.0000000000	0.0000000000	0.0000000000
0.4200000000	0.0000000000	1.0000000000	0.0000000000	1.0000000000	0.0000000000	0.0000000000	87.5622147081	1.0000000000	583.6758744661	1.0000000000	0.0000000000	0.0000000000
0.4300000000	0.0000000000	1.0000000000	0.0000000000	1.0000000000	0.0000000000	0.0000000000	104.9409320642	1.0000000000	620.1207317814	1.0000000000	0.0000000000	0.0000000000
0.4400000000	0.0000000000	1.0000000000	0.0000000000	1.0000000000	0.0000000000	0.0000000000	122.7119008592	1.0000000000	653.3699439854	1.0000000000	0.0000000000	0.0000000000
0.4500000000	0.0000000000	1.0000000000	0.0000000000	1.0000000000	0.0000000000	0.0000000000	140.5820863805	1.0000000000	681.9713183311	1.0000000000	0.0000000000	0.0000000000
0.4600000000	0.0000000000	1.0000000000	0.0000000000	1.0000000000	0.0000000000	0.0000000000	158.4457592915	1.0000000000	704.2165228755	1.0000000000	0.0000000000	0.0000000000
0.4700000000	0.0000000000	1.0000000000	0.0000000000	1.0000000000	0.0000000000	0.0000000000	175.4494627366	1.0000000000	718.2387636840	1.0000000000	0.0000000000	0.0000000000
0.4800000000	0.0000000000	1.0000000000	0.0000000000	1.0000000000	0.0000000000	0.0000000000	190.7366204963	1.0000000000	722.1156523945	1.0000000000	0.0000000000	0.0000000000
0.4900000000	7.6747864145	1.0000000000	6.6227110679	1.0000000000	0.0000000000	0.0000000000	203.8101856955	1.0000000000	713.9458059392	1.0000000000	0.0000000000	0.0000000000
0.5000000000	5.7199465503	1.0000000000	46.0367167962	1.0000000000	0.0000000000	0.0000000000	213.5958059209	1.0000000000	692.3523673024	1.0000000000	0.0000000000	0.0000000000
0.5100000000	-1.4752698502	1.0000000000	112.7192917779	1.0000000000	0.0000000000	0.0000000000	218.2714338875	1.0000000000	656.8444392760	1.0000000000	0.0000000000	0.0000000000
0.5200000000	-16.8926213625	1.0000000000	208.5632687970	1.0000000000	0.0000000000	0.0000000000	216.3461727318	1.0000000000	607.6542023411	1.0000000000	0.0000000000	0.0000000000
0.5300000000	-42.6844363627	1.0000000000	326.8705670500	1.0000000000	0.0000000000	0.0000000000	207.0136704931	1.0000000000	545.6298212777	1.0000000000	0.0000000000	0.0000000000
0.5400000000	-77.4144158004	1.0000000000	453.0368023777	1.0000000000	0.0000000000	0.0000000000	189.3887728991	1.0000000000	472.4777612117	1.0000000000	0.0000000000	0.0000000000
0.5500000000	-113.8304784658	1.0000000000	569.3644639424	1.0000000000	0.0000000000	0.0000000000	163.7500164001	1.0000000000	391.4292357966	1.0000000000	0.0000000000	0.0000000000
0.5600000000	-144.1707951363	1.0000000000	661.2318693630	1.0000000000	0.0000000000	0.0000000000	133.1924543915	1.0000000000	307.4445246211	1.0000000000	0.0000000000	0.0000000000
0.5700000000	-165.9771800008	1.0000000000	722.9767793389	1.0000000000	0.0000000000	0.0000000000	100.6942346559	1.0000000000	226.4383261100	1.0000000000	0.0000000000	0.0000000000
0.5800000000	-180.3440536960	1.0000000000	758.9994130102	1.0000000000	0.0000000000	0.0000000000	68.5737866527	1.0000000000	154.2217095124	1.0000000000	0.0000000000	0.0000000000
0.5900000000	-188.3558190248	1.0000000000	779.0025339823	1.0000000000	0.0000000000	0.0000000000	40.7132754655	1.0000000000	95.3123740498	1.0000000000	0.0000000000	0.0000000000
0.6000000000	-190.4982171208	1.0000000000	791.6187826584	1.0000000000	0.0000000000	0.0000000000	19.9248457078	1.0000000000	51.9468348631	1.0000000000	0.0000000000	0.0000000000
0.6100000000	-188.3621579376	1.0000000000	801.1325948387	1.0000000000	0.0000000000	0.0000000000	6.5456734354	1.0000000000	23.4102285159	1.0000000000	0.0000000000	0.0000000000
0.6200000000	-183.0732962708	1.0000000000	808.4031285690	1.0000000000	0.0000000000	0.0000000000	-0.6255136047	1.0000000000	6.7532953674	1.0000000000	0.0000000000	0.0000000000
0.6300000000	-174.4293090041	1.0000000000	812.8982424225	1.0000000000	0.0000000000	0.0000000000	0.0000000000	1.0000000000	0.0000000000	1.0000000000	0.0000000000	0.0000000000
0.6400000000	-163.0178798868	1.0000000000	813.4549846335	1.0000000000	0.0000000000	0.0000000000	0.0000000000	1.0000000000	0.0000000000	1.0000000000	0.0000000000	0.0000000000
0.6500000000	-150.1922094439	1.0000000000	808.2936498214	1.0000000000	0.0000000000	0.0000000000	0.0000000000	1.0000000000	0.0000000000	1.0000000000	0.0000000000	0.0000000000
0.6600000000	-136.3198328170	1.0000000000	795.5202881761	1.0000000000	0.0000000000	0.0000000000	0.0000000000	1.0000000000	0.0000000000	1.0000000000	0.0000000000	0.0000000000
0.6700000000	-120.7788533174	1.0000000000	774.1308301904	1.0000000000	0.0000000000	0.0000000000	-0.4018367735	1.0000000000	0.1035444983	1.0000000000	0.0000000000	0.0000000000
0.6800000000	-104.4688371760	1.0000000000	744.2981439598	1.0000000000	0.0000000000	0.0000000000	0.2013522536	1.0000000000	0.8440008374	1.0000000000	0.0000000000	0.0000000000
0.6900000000	-88.6004134555	1.0000000000	706.7674270265	1.0000000000	0.0000000000	0.0000000000	0.3127642631	1.0000000000	1.2306649931	1.0000000000	0.0000000000	0.0000000000
0.7000000000	-72.9341628156	1.0000000000	662.8336960402	1.0000000000	0.0000000000	0.0000000000	0.3934514260	1.0000000000	1.2832970765	1.0000000000	0.0000000000	0.0000000000
0.7100000000	-57.9054149376	1.0000000000	614.7413391973	1.0000000000	0.0000000000	0.0000000000	0.6987153479	1.0000000000	0.9877744253	1.0000000000	0.0000000000	0.0000000000
0.7200000000	-44.6999187157	1.0000000000	565.1822929595	1.0000000000	0.0000000000	0.0000000000	0.6407313773	1.0000000000	0.5883375145	1.0000000000	0.0000000000	0.0000000000
0.7300000000	-33.5712259974	1.0000000000	516.3748620140	1.0000000000	0.0000000000	0.0000000000	0.3595992151	1.0000000000	0.3023397134	1.0000000000	0.0000000000	0.0000000000
0.7400000000	-23.9780459785	1.0000000000	470.0357112817	1.0000000000	0.0000000000	0.0000000000	0.4275691319	1.0000000000	0.1139741822	1.0000000000	0.0000000000	0.0000000000
0.7500000000	-16.0030824212	1.0000000000	427.8909173992	1.0000000000	0.0000000000	0.0000000000	0.0000000000	1.0000000000	0.0000000000	1.0000000000	0.0000000000	0.0000000000
0.7600000000	-10.1025853949	1.0000000000	391.5380691425	1.0000000000	0.0000000000	0.0000000000	0.0000000000	1.0000000000	0.0000000000	1.0000000000	0.0000000000	0.0000000000
0.7700000000	-5.6983379391	1.0000000000	361.7476003298	1.0000000000	0.0000000000	0.0000000000	0.0000000000	1.0000000000	0.0000000000	1.0000000000	0.0000000000	0.0000000000
0.7800000000	-2.1113550712	1.0000000000	338.5228957393	1.0000000000	0.0000000000	0.0000000000	0.0000000000	1.0000000000	0.0000000000	1.0000000000	0.0000000000	0.0000000000
0.7900000000	0.5663182452	1.0000000000	321.9153474899	1.0000000000	0.0000000000	0.0000000000	0.0000000000	1.0000000000	0.0000000000	1.0000000000	0.0000000000	0.0000000000
0.8000000000	2.6892673530	1.0000000000	312.1991340854	1.0000000000	0.0000000000	0.0000000000	0.0000000000	1.0000000000	0.0000000000	1.0000000000	0.0000000000	0.0000000000
0.8100000000	5.2287505168	1.0000000000	309.3288150329	1.0000000000	0.0000000000	0.0000000000	0.0000000000	1.0000000000	0.0000000000	1.0000000000	0.0000000000	0.0000000000
0.8200000000	8.4369078291	1.0000000000	312.8032199538	1.0000000000	0.0000000000	0.0000000000	0.0000000000	1.0000000000	0.0000000000	1.0000000000	0.0000000000	0.0000000000
0.8300000000	12.0005726309	1.0000000000	322.2808583638	1.0000000000	0.0000000000	0.0000000000	0.0000000000	1.0000000000	0.0000000000	1.0000000000	0.0000000000	0.0000000000
0.8400000000	16.2677600744	1.0000000000	337.8755526705	1.0000000000	0.0000000000	0.0000000000	0.0000000000	1.0000000000	0.0000000000	1.0000000000	0.0000000000	0.0000000000
0.8500000000	21.6471614299	1.0000000000	359.5831216549	1.0000000000	0.0000000000	0.0000000000	0.0000000000	1.0000000000	0.0000000000	1.0000000000	0.0000000000	0.0000000000
0.8600000000	27.7892669432	1.0000000000	386.8589447375	1.0000000000	0.0000000000	0.0000000000	-0.1244741318	1.0000000000	0.2885012449	1.0000000000	0.0000000000	0.0000000000
0.8700000000	34.5019238524	1.0000000000	418.8701227248	1.0000000000	0.0000000000	0.0000000000	-0.5199327358	1.0000000000	0.6556144493	1.0000000000	0.0000000000	0.0000000000
0.8800000000	42.2820925101	1.0000000000	454.7298115090	1.0000000000	0.0000000000	0.0000000000	-0.8055972160	1.0000000000	0.9587715229	1.0000000000	0.0000000000	0.0000000000
0.8900000000	51.4570491661	1.0000000000	493.2839367028	1.0000000000	0.0000000000	0.0000000000	-0.7656549365	1.0000000000	1.0811341271	1.0000000000	0.0000000000	0.0000000000
0.9000000000	61.8873736673	1.0000000000	532.9305913200	1.0000000000	0.0000000000	0.0000000000	-0.6455207274	1.0000000000	0.8774060364	1.0000000000	0.0000000000	0.0000000000
0.9100000000	73.7782270350	1.0000000000	571.9755761702	1.0000000000	0.0000000000	0.0000000000	-0.4598795458	1.0000000000	0.0996626520	1.0000000000	0.0000000000	0.0000000000
0.9200000000	87.5097259272	1.0000000000	609.0748690736	1.0000000000	0.0000000000	0.0000000000	0.0000000000	1.0000000000	0.0000000000	1.0000000000	0.0000000000	0.0000000000
0.9300000000	102.8324968338	1.0000000000	643.0934394609	1.0000000000	0.0000000000	0.0000000000	0.0000000000	1.0000000000	0.0000000000	1.0000000000	0.0000000000	0.0000000000
0.9400000000	119.3063473668	1.0000000000	672.7655579311	1.0000000000	0.0000000000	0.0000000000	0.0000000000	1.0000000000	0.0000000000	1.0000000000	0.0000000000	0.0000000000
0.9500000000	136.7490504015	1.0000000000	696.7142091396	1.0000000000	0.0000000000	0.0000000000	0.0000000000	1.0000000000	0.0000000000	1.0000000000	0.0000000000	0.0000000000
0.9600000000	154.6594179129	1.0000000000	713.6071068411	1.0000000000	0.0000000000	0.0000000000	0.0000000000	1.0000000000	0.0000000000	1.0000000000	0.0000000000	0.0000000000
0.9700000000	172.0388769278	1.0000000000	722.0648811473	1.0000000000	0.0000000000	0.0000000000	0.0000000000	1.0000000000	0.0000000000	1.0000000000	0.0000000000	0.0000000000
0.9800000000	187.9349501184	1.0000000000	720.5039811430	1.0000000000	0.0000000000	0.0000000000	0.0000000000	1.0000000000	0.0000000000	1.0000000000	0.0000000000	0.0000000000
0.9900000000	201.4563881399	1.0000000000	707.3223064170	1.0000000000	0.0000000000	0.0000000000	8.0686689157	1.0000000000	11.7893613962	1.0000000000	0.0000000000	0.0000000000
