name p14_grf_mean_speed_1.2
datacolumns 13
datarows 100
range 0.00000000 0.99000000
endheader
time	grf_x_l_mean	grf_x_l_var	grf_y_l_mean	grf_y_l_var	grf_z_l_mean	grf_z_l_var	grf_x_r_mean	grf_x_r_var	grf_y_r_mean	grf_y_r_var	grf_z_r_mean	grf_z_r_var
0.0000000000	117.4751842211	1.0000000000	696.4629500941	1.0000000000	0.0000000000	0.0000000000	10.4547461253	1.0000000000	10.9849627602	1.0000000000	0.0000000000	0.0000000000
0.0100000000	128.0886976683	1.0000000000	689.6718236810	1.0000000000	0.0000000000	0.0000000000	13.7232571485	1.0000000000	43.4648835106	1.0000000000	0.0000000000	0.0000000000
0.0200000000	138.2090635411	1.0000000000	672.4663493642	1.0000000000	0.0000000000	0.0000000000	11.7668298382	1.0000000000	96.1400708615	1.0000000000	0.0000000000	0.0000000000
0.0300000000	146.7155801797	1.0000000000	643.0365645671	1.0000000000	0.0000000000	0.0000000000	-0.5929459493	1.0000000000	166.6814067881	1.0000000000	0.0000000000	0.0000000000
0.0400000000	151.7835065406	1.0000000000	600.1508782361	1.0000000000	0.0000000000	0.0000000000	-21.7886145741	1.0000000000	249.1053846560	1.0000000000	0.0000000000	0.0000000000
0.0500000000	152.7658979492	1.0000000000	543.8611260556	1.0000000000	0.0000000000	0.0000000000	-44.6679237963	1.0000000000	331.7872736555	1.0000000000	0.0000000000	0.0000000000
0.0600000000	147.6992846460	1.0000000000	474.6111340059	1.0000000000	0.0000000000	0.0000000000	-65.4918451676	1.0000000000	400.4781811545	1.0000000000	0.0000000000	0.0000000000
0.0700000000	134.1622207771	1.0000000000	394.7316968280	1.0000000000	0.0000000000	0.0000000000	-82.0592687886	1.0000000000	449.2623324343	1.0000000000	0.0000000000	0.0000000000
0.0800000000	113.7003195161	1.0000000000	310.2374291738	1.0000000000	0.0000000000	0.0000000000	-93.7949673120	1.0000000000	483.3648447706	1.0000000000	0.0000000000	0.0000000000
0.0900000000	88.2074612037	1.0000000000	228.5385008852	1.0000000000	0.0000000000	0.0000000000	-102.5581692668	1.0000000000	512.1243124295	1.0000000000	0.0000000000	0.0000000000
0.1000000000	61.3867060098	1.0000000000	155.5607112771	1.0000000000	0.0000000000	0.0000000000	-109.8885105852	1.0000000000	540.2779066802	1.0000000000	0.0000000000	0.0000000000
0.1100000000	37.3865219781	1.0000000000	96.0520436852	1.0000000000	0.0000000000	0.0000000000	-114.5512048353	1.0000000000	568.3479861509	1.0000000000	0.0000000000	0.0000000000
0.1200000000	18.7919468213	1.0000000000	52.7628563948	1.0000000000	0.0000000000	0.0000000000	-116.4138627839	1.0000000000	596.4724244043	1.0000000000	0.0000000000	0.0000000000
0.1300000000	6.4822642065	1.0000000000	24.4634928065	1.0000000000	0.0000000000	0.0000000000	-116.5104993900	1.0000000000	623.5116792871	1.0000000000	0.0000000000	0.0000000000
0.1400000000	0.4098291639	1.0000000000	7.8004157478	1.0000000000	0.0000000000	0.0000000000	-113.9918023714	1.0000000000	646.7866241977	1.0000000000	0.0000000000	0.0000000000
0.1500000000	0.0000000000	1.0000000000	0.0000000000	1.0000000000	0.0000000000	0.0000000000	-108.8526699109	1.0000000000	664.5805948521	1.0000000000	0.0000000000	0.0000000000
0.1600000000	0.0000000000	1.0000000000	0.0000000000	1.0000000000	0.0000000000	0.0000000000	-102.3837381821	1.0000000000	676.5798813998	1.0000000000	0.0000000000	0.0000000000
0.1700000000	0.0000000000	1.0000000000	0.0000000000	1.0000000000	0.0000000000	0.0000000000	-94.5150721271	1.0000000000	682.2575930263	1.0000000000	0.0000000000	0.0000000000
0.1800000000	0.0000000000	1.0000000000	0.0000000000	1.0000000000	0.0000000000	0.0000000000	-85.6990698538	1.0000000000	681.3772831166	1.0000000000	0.0000000000	0.0000000000
0.1900000000	0.0000000000	1.0000000000	0.0000000000	1.0000000000	0.0000000000	0.0000000000	-76.8129980188	1.0000000000	673.9032684487	1.0000000000	0.0000000000	0.0000000000
0.2000000000	1.2585392647	1.0000000000	0.1263484482	1.0000000000	0.0000000000	0.0000000000	-67.9456830578	1.0000000000	659.8839851179	1.0000000000	0.0000000000	0.0000000000
0.2100000000	1.4828027372	1.0000000000	0.5266169867	1.0000000000	0.0000000000	0.0000000000	-59.5164287855	1.0000000000	640.1127498824	1.0000000000	0.0000000000	0.0000000000
0.2200000000	1.3626839518	1.0000000000	0.5412057825	1.0000000000	0.0000000000	0.0000000000	-52.2725622813	1.0000000000	616.2997885211	1.0000000000	0.0000000000	0.0000000000
0.2300000000	1.2989048270	1.0000000000	0.4684275715	1.0000000000	0.0000000000	0.0000000000	-45.7400091842	1.0000000000	590.4542425247	1.0000000000	0.0000000000	0.0000000000
0.2400000000	1.1925446353	1.0000000000	0.3375640563	1.0000000000	0.0000000000	0.0000000000	-39.7260584937	1.0000000000	564.0900286434	1.0000000000	0.0000000000	0.0000000000
0.2500000000	1.0821367838	1.0000000000	0.2425619736	1.0000000000	0.0000000000	0.0000000000	-34.5366428739	1.0000000000	538.6403355920	1.0000000000	0.0000000000	0.0000000000
0.2600000000	1.5093188912	1.0000000000	0.3517848036	1.0000000000	0.0000000000	0.0000000000	-29.9565166981	1.0000000000	515.8173466326	1.0000000000	0.0000000000	0.0000000000
0.2700000000	1.8909321610	1.0000000000	0.4705809138	1.0000000000	0.0000000000	0.0000000000	-25.7325775093	1.0000000000	496.9464691684	1.0000000000	0.0000000000	0.0000000000
0.2800000000	1.6541463121	1.0000000000	0.4010327230	1.0000000000	0.0000000000	0.0000000000	-21.7370245207	1.0000000000	482.1607245857	1.0000000000	0.0000000000	0.0000000000
0.2900000000	1.3194381668	1.0000000000	0.2744425157	1.0000000000	0.0000000000	0.0000000000	-17.7615627418	1.0000000000	471.4249251788	1.0000000000	0.0000000000	0.0000000000
0.3000000000	1.0776576876	1.0000000000	0.1709029104	1.0000000000	0.0000000000	0.0000000000	-13.8185289008	1.0000000000	465.2273811577	1.0000000000	0.0000000000	0.0000000000
0.3100000000	0.7982447601	1.0000000000	0.0399014039	1.0000000000	0.0000000000	0.0000000000	-9.7638184161	1.0000000000	463.5659449400	1.0000000000	0.0000000000	0.0000000000
0.3200000000	0.0000000000	1.0000000000	0.0000000000	1.0000000000	0.0000000000	0.0000000000	-5.3091862827	1.0000000000	465.7335657703	1.0000000000	0.0000000000	0.0000000000
0.3300000000	0.0000000000	1.0000000000	0.0000000000	1.0000000000	0.0000000000	0.0000000000	-0.7083341991	1.0000000000	471.3396857956	1.0000000000	0.0000000000	0.0000000000
0.3400000000	0.0000000000	1.0000000000	0.0000000000	1.0000000000	0.0000000000	0.0000000000	3.9878050564	1.0000000000	480.3399245658	1.0000000000	0.0000000000	0.0000000000
0.3500000000	0.0000000000	1.0000000000	0.0000000000	1.0000000000	0.0000000000	0.0000000000	8.9726337341	1.0000000000	492.1825991935	1.0000000000	0.0000000000	0.0000000000
0.3600000000	0.0000000000	1.0000000000	0.0000000000	1.0000000000	0.0000000000	0.0000000000	13.9764773085	1.0000000000	506.0350048270	1.0000000000	0.0000000000	0.0000000000
0.3700000000	0.0000000000	1.0000000000	0.0000000000	1.0000000000	0.0000000000	0.0000000000	19.0879434495	1.0000000000	521.2808101123	1.0000000000	0.0000000000	0.0000000000
0.3800000000	0.3877669263	1.0000000000	0.0578905825	1.0000000000	0.0000000000	0.0000000000	24.7362716934	1.0000000000	537.6398561230	1.0000000000	0.0000000000	0.0000000000
0.3900000000	0.3980738267	1.0000000000	0.1620873510	1.0000000000	0.0000000000	0.0000000000	30.9112890510	1.0000000000	555.0851340878	1.0000000000	0.0000000000	0.0000000000
0.4000000000	0.2662523540	1.0000000000	0.2887240180	1.0000000000	0.0000000000	0.0000000000	37.8567104967	1.0000000000	573.4939541124	1.0000000000	0.0000000000	0.0000000000
0.4100000000	0.0674048987	1.0000000000	0.2800013330	1.0000000000	0.0000000000	0.0000000000	45.9100915970	1.0000000000	592.4432072116	1.0000000000	0.0000000000	0.0000000000
0.4200000000	0.0000000000	1.0000000000	0.0000000000	1.0000000000	0.0000000000	0.0000000000	54.7069221115	1.0000000000	611.7693289856	1.0000000000	0.0000000000	0.0000000000
0.4300000000	0.0000000000	1.0000000000	0.0000000000	1.0000000000	0.0000000000	0.0000000000	64.0056626248	1.0000000000	631.6254621652	1.0000000000	0.0000000000	0.0000000000
0.4400000000	0.0000000000	1.0000000000	0.0000000000	1.0000000000	0.0000000000	0.0000000000	73.9002414292	1.0000000000	651.5600200204	1.0000000000	0.0000000000	0.0000000000
0.4500000000	0.0000000000	1.0000000000	0.0000000000	1.0000000000	0.0000000000	0.0000000000	83.9084677648	1.0000000000	670.4528450697	1.0000000000	0.0000000000	0.0000000000
0.4600000000	0.0000000000	1.0000000000	0.0000000000	1.0000000000	0.0000000000	0.0000000000	93.8725979763	1.0000000000	687.1754627869	1.0000000000	0.0000000000	0.0000000000
0.4700000000	0.0000000000	1.0000000000	0.0000000000	1.0000000000	0.0000000000	0.0000000000	104.1044324394	1.0000000000	700.5697617278	1.0000000000	0.0000000000	0.0000000000
0.4800000000	0.0000000000	1.0000000000	0.0000000000	1.0000000000	0.0000000000	0.0000000000	114.3043611714	1.0000000000	708.9712870737	1.0000000000	0.0000000000	0.0000000000
0.4900000000	8.8900478458	1.0000000000	10.6191677586	1.0000000000	0.0000000000	0.0000000000	124.1554077346	1.0000000000	710.3419307702	1.0000000000	0.0000000000	0.0000000000
0.5000000000	11.3616508130	1.0000000000	39.6136173831	1.0000000000	0.0000000000	0.0000000000	133.6547459613	1.0000000000	702.7905367152	1.0000000000	0.0000000000	0.0000000000
0.5100000000	9.4204452298	1.0000000000	86.7343124370	1.0000000000	0.0000000000	0.0000000000	142.1680611789	1.0000000000	685.0821401768	1.0000000000	0.0000000000	0.0000000000
0.5200000000	-0.4578042011	1.0000000000	150.6176367860	1.0000000000	0.0000000000	0.0000000000	148.6387090966	1.0000000000	656.6347965842	1.0000000000	0.0000000000	0.0000000000
0.5300000000	-17.8531724202	1.0000000000	225.2591073487	1.0000000000	0.0000000000	0.0000000000	152.2348098339	1.0000000000	617.0724918189	1.0000000000	0.0000000000	0.0000000000
0.5400000000	-38.1154962438	1.0000000000	300.1220235938	1.0000000000	0.0000000000	0.0000000000	152.2904539717	1.0000000000	566.1797060488	1.0000000000	0.0000000000	0.0000000000
0.5500000000	-56.9955083823	1.0000000000	363.4728731645	1.0000000000	0.0000000000	0.0000000000	147.7911903512	1.0000000000	504.3058677818	1.0000000000	0.0000000000	0.0000000000
0.5600000000	-72.4513798064	1.0000000000	410.0174464800	1.0000000000	0.0000000000	0.0000000000	137.8238949537	1.0000000000	433.3023417015	1.0000000000	0.0000000000	0.0000000000
0.5700000000	-84.0274975815	1.0000000000	443.6774920527	1.0000000000	0.0000000000	0.0000000000	122.2861748269	1.0000000000	357.0830752831	1.0000000000	0.0000000000	0.0000000000
0.5800000000	-92.9800958897	1.0000000000	471.9883581716	1.0000000000	0.0000000000	0.0000000000	101.7104386149	1.0000000000	280.5132730942	1.0000000000	0.0000000000	0.0000000000
0.5900000000	-100.5454734269	1.0000000000	499.6627124126	1.0000000000	0.0000000000	0.0000000000	78.1284514769	1.0000000000	207.9531538966	1.0000000000	0.0000000000	0.0000000000
0.6000000000	-106.5174636029	1.0000000000	527.9380834444	1.0000000000	0.0000000000	0.0000000000	54.7730563214	1.0000000000	143.5421875210	1.0000000000	0.0000000000	0.0000000000
0.6100000000	-110.4735502171	1.0000000000	556.6879483216	1.0000000000	0.0000000000	0.0000000000	34.0406183921	1.0000000000	91.2722731848	1.0000000000	0.0000000000	0.0000000000
0.6200000000	-112.3607108962	1.0000000000	584.8350637472	1.0000000000	0.0000000000	0.0000000000	17.4660563749	1.0000000000	52.8631854745	1.0000000000	0.0000000000	0.0000000000
0.6300000000	-111.8428011183	1.0000000000	610.4886292185	1.0000000000	0.0000000000	0.0000000000	6.2800334507	1.0000000000	26.7424959002	1.0000000000	0.0000000000	0.0000000000
0.6400000000	-108.8570748420	1.0000000000	632.1236672295	1.0000000000	0.0000000000	0.0000000000	0.2767016482	1.0000000000	10.2318755623	1.0000000000	0.0000000000	0.0000000000
0.6500000000	-103.8339171814	1.0000000000	648.7426797784	1.0000000000	0.0000000000	0.0000000000	-2.0663406382	1.0000000000	1.2261063488	1.0000000000	0.0000000000	0.0000000000
0.6600000000	-96.9032935205	1.0000000000	659.2023252366	1.0000000000	0.0000000000	0.0000000000	0.0000000000	1.0000000000	0.0000000000	1.0000000000	0.0000000000	0.0000000000
0.6700000000	-88.5646594499	1.0000000000	662.8814489207	1.0000000000	0.0000000000	0.0000000000	0.0000000000	1.0000000000	0.0000000000	1.0000000000	0.0000000000	0.0000000000
0.6800000000	-79.5956841196	1.0000000000	660.2523020131	1.0000000000	0.0000000000	0.0000000000	0.0000000000	1.0000000000	0.0000000000	1.0000000000	0.0000000000	0.0000000000
0.6900000000	-70.3605292658	1.0000000000	651.9881308547	1.0000000000	0.0000000000	0.0000000000	0.0000000000	1.0000000000	0.0000000000	1.0000000000	0.0000000000	0.0000000000
0.7000000000	-61.3745541111	1.0000000000	638.6468737042	1.0000000000	0.0000000000	0.0000000000	1.1428708146	1.0000000000	0.0627987994	1.0000000000	0.0000000000	0.0000000000
0.7100000000	-53.1018005545	1.0000000000	621.4198493484	1.0000000000	0.0000000000	0.0000000000	1.2541004522	1.0000000000	0.4592757427	1.0000000000	0.0000000000	0.0000000000
0.7200000000	-45.4867033652	1.0000000000	601.8448058251	1.0000000000	0.0000000000	0.0000000000	1.0538997696	1.0000000000	0.5257396261	1.0000000000	0.0000000000	0.0000000000
0.7300000000	-38.5742437109	1.0000000000	581.0508574121	1.0000000000	0.0000000000	0.0000000000	0.7914010662	1.0000000000	0.4255958003	1.0000000000	0.0000000000	0.0000000000
0.7400000000	-32.5788094642	1.0000000000	560.1842900640	1.0000000000	0.0000000000	0.0000000000	0.5061516453	1.0000000000	0.2637456547	1.0000000000	0.0000000000	0.0000000000
0.7500000000	-27.2288128110	1.0000000000	540.6175158628	1.0000000000	0.0000000000	0.0000000000	0.3160838371	1.0000000000	0.1459098482	1.0000000000	0.0000000000	0.0000000000
0.7600000000	-22.3777596793	1.0000000000	523.1195550013	1.0000000000	0.0000000000	0.0000000000	0.2689449765	1.0000000000	0.1042170130	1.0000000000	0.0000000000	0.0000000000
0.7700000000	-18.0884191284	1.0000000000	507.9240534407	1.0000000000	0.0000000000	0.0000000000	0.2475074451	1.0000000000	0.0970508060	1.0000000000	0.0000000000	0.0000000000
0.7800000000	-14.0370744916	1.0000000000	495.6116296784	1.0000000000	0.0000000000	0.0000000000	0.2138802396	1.0000000000	0.1042321360	1.0000000000	0.0000000000	0.0000000000
0.7900000000	-9.9914767968	1.0000000000	486.7668054565	1.0000000000	0.0000000000	0.0000000000	0.1827979609	1.0000000000	0.0994419695	1.0000000000	0.0000000000	0.0000000000
0.8000000000	-6.0160879688	1.0000000000	481.3932572548	1.0000000000	0.0000000000	0.0000000000	0.1956100474	1.0000000000	0.0333474058	1.0000000000	0.0000000000	0.0000000000
0.8100000000	-1.9260328417	1.0000000000	479.5112343702	1.0000000000	0.0000000000	0.0000000000	0.0000000000	1.0000000000	0.0000000000	1.0000000000	0.0000000000	0.0000000000
0.8200000000	2.3539680703	1.0000000000	481.3950392431	1.0000000000	0.0000000000	0.0000000000	0.0000000000	1.0000000000	0.0000000000	1.0000000000	0.0000000000	0.0000000000
0.8300000000	6.6658661463	1.0000000000	486.7834156821	1.0000000000	0.0000000000	0.0000000000	0.0000000000	1.0000000000	0.0000000000	1.0000000000	0.0000000000	0.0000000000
0.8400000000	10.9602030725	1.0000000000	494.9132176640	1.0000000000	0.0000000000	0.0000000000	0.0000000000	1.0000000000	0.0000000000	1.0000000000	0.0000000000	0.0000000000
0.8500000000	15.1781586104	1.0000000000	505.3054314824	1.0000000000	0.0000000000	0.0000000000	0.0000000000	1.0000000000	0.0000000000	1.0000000000	0.0000000000	0.0000000000
0.8600000000	19.2338246042	1.0000000000	517.5604134286	1.0000000000	0.0000000000	0.0000000000	0.0000000000	1.0000000000	0.0000000000	1.0000000000	0.0000000000	0.0000000000
0.8700000000	23.3678829803	1.0000000000	530.9445795143	1.0000000000	0.0000000000	0.0000000000	0.0993801862	1.0000000000	0.0512870440	1.0000000000	0.0000000000	0.0000000000
0.8800000000	27.8481758711	1.0000000000	544.9217277561	1.0000000000	0.0000000000	0.0000000000	0.0603805380	1.0000000000	0.1708654190	1.0000000000	0.0000000000	0.0000000000
0.8900000000	32.8295725890	1.0000000000	559.4183137603	1.0000000000	0.0000000000	0.0000000000	0.0271691873	1.0000000000	0.3022359629	1.0000000000	0.0000000000	0.0000000000
0.9000000000	38.6249523664	1.0000000000	574.3463295470	1.0000000000	0.0000000000	0.0000000000	-0.0249936518	1.0000000000	0.4007604002	1.0000000000	0.0000000000	0.0000000000
0.9100000000	45.3660573046	1.0000000000	589.6897462208	1.0000000000	0.0000000000	0.0000000000	-0.1289193986	1.0000000000	0.3579238395	1.0000000000	0.0000000000	0.0000000000
0.9200000000	52.8479471700	1.0000000000	605.7879344658	1.0000000000	0.0000000000	0.0000000000	0.0000000000	1.0000000000	0.0000000000	1.0000000000	0.0000000000	0.0000000000
0.9300000000	60.9527927140	1.0000000000	622.7352982903	1.0000000000	0.0000000000	0.0000000000	0.0000000000	1.0000000000	0.0000000000	1.0000000000	0.0000000000	0.0000000000
0.9400000000	69.5060994892	1.0000000000	640.0160723349	1.0000000000	0.0000000000	0.0000000000	0.0000000000	1.0000000000	0.0000000000	1.0000000000	0.0000000000	0.0000000000
0.9500000000	78.2760840179	1.0000000000	656.9883654241	1.0000000000	0.0000000000	0.0000000000	0.0000000000	1.0000000000	0.0000000000	1.0000000000	0.0000000000	0.0000000000
0.9600000000	87.3763745490	1.0000000000	672.8802451569	1.0000000000	0.0000000000	0.0000000000	0.0000000000	1.0000000000	0.0000000000	1.0000000000	0.0000000000	0.0000000000
0.9700000000	97.0093652192	1.0000000000	686.1754773099	1.0000000000	0.0000000000	0.0000000000	0.0000000000	1.0000000000	0.0000000000	1.0000000000	0.0000000000	0.0000000000
0.9800000000	107.0798528916	1.0000000000	694.7496769999	1.0000000000	0.0000000000	0.0000000000	0.0000000000	1.0000000000	0.0000000000	1.0000000000	0.0000000000	0.0000000000
0.9900000000	117.5289777448	1.0000000000	696.5751286547	1.0000000000	0.0000000000	0.0000000000	10.4345008375	1.0000000000	10.9882268664	1.0000000000	0.0000000000	0.0000000000
