name p15_grf_mean_speed_1.4
datacolumns 13
datarows 100
range 0.00000000 0.99000000
endheader
time	grf_x_l_mean	grf_x_l_var	grf_y_l_mean	grf_y_l_var	grf_z_l_mean	grf_z_l_var	grf_x_r_mean	grf_x_r_var	grf_y_r_mean	grf_y_r_var	grf_z_r_mean	grf_z_r_var
0.0000000000	128.8762177872	1.0000000000	818.8719232661	1.0000000000	0.0000000000	0.0000000000	15.2290903847	1.0000000000	11.2656617823	1.0000000000	0.0000000000	0.0000000000
0.0100000000	139.8405254425	1.0000000000	808.3562398379	1.0000000000	0.0000000000	0.0000000000	23.1732256273	1.0000000000	48.7551466870	1.0000000000	0.0000000000	0.0000000000
0.0200000000	150.8343241217	1.0000000000	786.8742900669	1.0000000000	0.0000000000	0.0000000000	28.3494517796	1.0000000000	110.1409318215	1.0000000000	0.0000000000	0.0000000000
0.0300000000	161.5121735703	1.0000000000	752.9026381135	1.0000000000	0.0000000000	0.0000000000	23.2311765012	1.0000000000	192.1263543286	1.0000000000	0.0000000000	0.0000000000
0.0400000000	169.6938376237	1.0000000000	704.4679339660	1.0000000000	0.0000000000	0.0000000000	2.6758563086	1.0000000000	285.1887932853	1.0000000000	0.0000000000	0.0000000000
0.0500000000	172.4373368129	1.0000000000	640.1224177854	1.0000000000	0.0000000000	0.0000000000	-27.6005498353	1.0000000000	378.2010771470	1.0000000000	0.0000000000	0.0000000000
0.0600000000	169.2823181256	1.0000000000	560.6246182134	1.0000000000	0.0000000000	0.0000000000	-58.5738032547	1.0000000000	458.9501086200	1.0000000000	0.0000000000	0.0000000000
0.0700000000	157.3758428821	1.0000000000	468.7485387218	1.0000000000	0.0000000000	0.0000000000	-86.6052829344	1.0000000000	518.4483342265	1.0000000000	0.0000000000	0.0000000000
0.0800000000	134.6723617607	1.0000000000	370.1542182740	1.0000000000	0.0000000000	0.0000000000	-109.7140308692	1.0000000000	556.4830479364	1.0000000000	0.0000000000	0.0000000000
0.0900000000	105.0225599331	1.0000000000	273.9334463058	1.0000000000	0.0000000000	0.0000000000	-126.2153509438	1.0000000000	581.5768338798	1.0000000000	0.0000000000	0.0000000000
0.1000000000	73.0309302507	1.0000000000	189.8608745158	1.0000000000	0.0000000000	0.0000000000	-137.5746124444	1.0000000000	604.7860374528	1.0000000000	0.0000000000	0.0000000000
0.1100000000	43.4665739220	1.0000000000	123.4079842209	1.0000000000	0.0000000000	0.0000000000	-145.3080196979	1.0000000000	631.8474593580	1.0000000000	0.0000000000	0.0000000000
0.1200000000	22.0464814706	1.0000000000	75.0774469729	1.0000000000	0.0000000000	0.0000000000	-148.0633476298	1.0000000000	662.4945577173	1.0000000000	0.0000000000	0.0000000000
0.1300000000	9.1792269985	1.0000000000	42.9194453477	1.0000000000	0.0000000000	0.0000000000	-145.8463140311	1.0000000000	694.3981118921	1.0000000000	0.0000000000	0.0000000000
0.1400000000	1.9966963174	1.0000000000	23.2418105590	1.0000000000	0.0000000000	0.0000000000	-141.0982308072	1.0000000000	724.7891157397	1.0000000000	0.0000000000	0.0000000000
0.1500000000	-0.5262831800	1.0000000000	11.6092744974	1.0000000000	0.0000000000	0.0000000000	-132.8356811960	1.0000000000	750.4790937286	1.0000000000	0.0000000000	0.0000000000
0.1600000000	0.1231452197	1.0000000000	5.0311954794	1.0000000000	0.0000000000	0.0000000000	-121.6283833069	1.0000000000	769.0884330391	1.0000000000	0.0000000000	0.0000000000
0.1700000000	0.9835926094	1.0000000000	2.1486775693	1.0000000000	0.0000000000	0.0000000000	-109.9928322444	1.0000000000	779.3823539556	1.0000000000	0.0000000000	0.0000000000
0.1800000000	2.2202256987	1.0000000000	1.5077279870	1.0000000000	0.0000000000	0.0000000000	-97.8623958436	1.0000000000	780.3254668411	1.0000000000	0.0000000000	0.0000000000
0.1900000000	3.5145621484	1.0000000000	1.6870747751	1.0000000000	0.0000000000	0.0000000000	-85.1087867671	1.0000000000	771.7236261120	1.0000000000	0.0000000000	0.0000000000
0.2000000000	3.9476204519	1.0000000000	1.9992165305	1.0000000000	0.0000000000	0.0000000000	-73.7570642029	1.0000000000	754.7515504911	1.0000000000	0.0000000000	0.0000000000
0.2100000000	4.2748022209	1.0000000000	2.1978082317	1.0000000000	0.0000000000	0.0000000000	-63.4497594694	1.0000000000	731.1104307670	1.0000000000	0.0000000000	0.0000000000
0.2200000000	4.7687171659	1.0000000000	2.0459295600	1.0000000000	0.0000000000	0.0000000000	-53.4865918871	1.0000000000	703.0843516793	1.0000000000	0.0000000000	0.0000000000
0.2300000000	4.3677426577	1.0000000000	1.4876799291	1.0000000000	0.0000000000	0.0000000000	-44.8213464081	1.0000000000	673.1668137165	1.0000000000	0.0000000000	0.0000000000
0.2400000000	3.9387907370	1.0000000000	0.8948530537	1.0000000000	0.0000000000	0.0000000000	-37.1969801398	1.0000000000	643.1606626453	1.0000000000	0.0000000000	0.0000000000
0.2500000000	4.0456215887	1.0000000000	0.3691856334	1.0000000000	0.0000000000	0.0000000000	-29.5244236855	1.0000000000	614.2233107537	1.0000000000	0.0000000000	0.0000000000
0.2600000000	0.0000000000	1.0000000000	0.0000000000	1.0000000000	0.0000000000	0.0000000000	-22.8123160582	1.0000000000	587.6578463853	1.0000000000	0.0000000000	0.0000000000
0.2700000000	0.0000000000	1.0000000000	0.0000000000	1.0000000000	0.0000000000	0.0000000000	-17.1616156230	1.0000000000	564.8203108904	1.0000000000	0.0000000000	0.0000000000
0.2800000000	0.0000000000	1.0000000000	0.0000000000	1.0000000000	0.0000000000	0.0000000000	-11.7413393958	1.0000000000	546.5097616763	1.0000000000	0.0000000000	0.0000000000
0.2900000000	0.0000000000	1.0000000000	0.0000000000	1.0000000000	0.0000000000	0.0000000000	-7.1065771067	1.0000000000	532.8532913879	1.0000000000	0.0000000000	0.0000000000
0.3000000000	0.0000000000	1.0000000000	0.0000000000	1.0000000000	0.0000000000	0.0000000000	-3.3498055920	1.0000000000	523.7923149727	1.0000000000	0.0000000000	0.0000000000
0.3100000000	0.0000000000	1.0000000000	0.0000000000	1.0000000000	0.0000000000	0.0000000000	0.3305590868	1.0000000000	519.7632178692	1.0000000000	0.0000000000	0.0000000000
0.3200000000	0.0000000000	1.0000000000	0.0000000000	1.0000000000	0.0000000000	0.0000000000	3.6257579761	1.0000000000	520.8369818882	1.0000000000	0.0000000000	0.0000000000
0.3300000000	0.0000000000	1.0000000000	0.0000000000	1.0000000000	0.0000000000	0.0000000000	6.4656322232	1.0000000000	526.0143679532	1.0000000000	0.0000000000	0.0000000000
0.3400000000	0.0000000000	1.0000000000	0.0000000000	1.0000000000	0.0000000000	0.0000000000	9.8064228816	1.0000000000	534.5378768064	1.0000000000	0.0000000000	0.0000000000
0.3500000000	0.0000000000	1.0000000000	0.0000000000	1.0000000000	0.0000000000	0.0000000000	13.4848849213	1.0000000000	546.4695591226	1.0000000000	0.0000000000	0.0000000000
0.3600000000	0.0000000000	1.0000000000	0.0000000000	1.0000000000	0.0000000000	0.0000000000	17.5189730985	1.0000000000	561.4215405676	1.0000000000	0.0000000000	0.0000000000
0.3700000000	0.0000000000	1.0000000000	0.0000000000	1.0000000000	0.0000000000	0.0000000000	22.6289566431	1.0000000000	578.5121223658	1.0000000000	0.0000000000	0.0000000000
0.3800000000	0.0000000000	1.0000000000	0.0000000000	1.0000000000	0.0000000000	0.0000000000	28.7378690898	1.0000000000	597.2760471254	1.0000000000	0.0000000000	0.0000000000
0.3900000000	0.0000000000	1.0000000000	0.0000000000	1.0000000000	0.0000000000	0.0000000000	35.7181708668	1.0000000000	617.4475880570	1.0000000000	0.0000000000	0.0000000000
0.4000000000	0.0000000000	1.0000000000	0.0000000000	1.0000000000	0.0000000000	0.0000000000	44.0556173669	1.0000000000	638.9167230282	1.0000000000	0.0000000000	0.0000000000
0.4100000000	0.0000000000	1.0000000000	0.0000000000	1.0000000000	0.0000000000	0.0000000000	53.1108996073	1.0000000000	662.2155286785	1.0000000000	0.0000000000	0.0000000000
0.4200000000	0.0000000000	1.0000000000	0.0000000000	1.0000000000	0.0000000000	0.0000000000	62.2022033269	1.0000000000	687.7274536754	1.0000000000	0.0000000000	0.0000000000
0.4300000000	0.0000000000	1.0000000000	0.0000000000	1.0000000000	0.0000000000	0.0000000000	71.3486875621	1.0000000000	714.8186116133	1.0000000000	0.0000000000	0.0000000000
0.4400000000	0.0000000000	1.0000000000	0.0000000000	1.0000000000	0.0000000000	0.0000000000	80.0160346870	1.0000000000	742.5088164809	1.0000000000	0.0000000000	0.0000000000
0.4500000000	0.0000000000	1.0000000000	0.0000000000	1.0000000000	0.0000000000	0.0000000000	87.7496838014	1.0000000000	769.7850927531	1.0000000000	0.0000000000	0.0000000000
0.4600000000	0.0000000000	1.0000000000	0.0000000000	1.0000000000	0.0000000000	0.0000000000	95.3267248397	1.0000000000	794.7670120487	1.0000000000	0.0000000000	0.0000000000
0.4700000000	0.0000000000	1.0000000000	0.0000000000	1.0000000000	0.0000000000	0.0000000000	102.9709610769	1.0000000000	815.0319891118	1.0000000000	0.0000000000	0.0000000000
0.4800000000	0.0000000000	1.0000000000	0.0000000000	1.0000000000	0.0000000000	0.0000000000	110.7488627900	1.0000000000	828.8635635570	1.0000000000	0.0000000000	0.0000000000
0.4900000000	0.0000000000	1.0000000000	0.0000000000	1.0000000000	0.0000000000	0.0000000000	119.6894772258	1.0000000000	835.1970744605	1.0000000000	0.0000000000	0.0000000000
0.5000000000	16.4168516258	1.0000000000	17.6051353983	1.0000000000	0.0000000000	0.0000000000	130.2154218814	1.0000000000	832.6595421154	1.0000000000	0.0000000000	0.0000000000
0.5100000000	24.5700131999	1.0000000000	59.2592457589	1.0000000000	0.0000000000	0.0000000000	141.9988742268	1.0000000000	819.4442669541	1.0000000000	0.0000000000	0.0000000000
0.5200000000	29.7879375959	1.0000000000	123.7842674744	1.0000000000	0.0000000000	0.0000000000	154.9782384788	1.0000000000	793.5659412774	1.0000000000	0.0000000000	0.0000000000
0.5300000000	24.3786752090	1.0000000000	205.7854307688	1.0000000000	0.0000000000	0.0000000000	167.6150449010	1.0000000000	752.6176468830	1.0000000000	0.0000000000	0.0000000000
0.5400000000	3.3363139072	1.0000000000	295.3312366829	1.0000000000	0.0000000000	0.0000000000	176.0230639173	1.0000000000	694.0120071800	1.0000000000	0.0000000000	0.0000000000
0.5500000000	-26.8923979617	1.0000000000	384.6839880755	1.0000000000	0.0000000000	0.0000000000	177.5252920973	1.0000000000	616.8967990893	1.0000000000	0.0000000000	0.0000000000
0.5600000000	-57.2145841987	1.0000000000	466.9070384102	1.0000000000	0.0000000000	0.0000000000	170.4547352544	1.0000000000	523.8933289565	1.0000000000	0.0000000000	0.0000000000
0.5700000000	-84.6998089719	1.0000000000	534.5430310258	1.0000000000	0.0000000000	0.0000000000	151.4518891580	1.0000000000	420.6864769156	1.0000000000	0.0000000000	0.0000000000
0.5800000000	-107.4364052992	1.0000000000	583.9239319397	1.0000000000	0.0000000000	0.0000000000	121.5042250131	1.0000000000	315.9575203460	1.0000000000	0.0000000000	0.0000000000
0.5900000000	-122.9535018405	1.0000000000	617.8759806292	1.0000000000	0.0000000000	0.0000000000	86.8699655376	1.0000000000	220.6290017691	1.0000000000	0.0000000000	0.0000000000
0.6000000000	-133.0497947760	1.0000000000	642.9176141605	1.0000000000	0.0000000000	0.0000000000	53.5017137695	1.0000000000	143.5586517381	1.0000000000	0.0000000000	0.0000000000
0.6100000000	-139.2215680401	1.0000000000	664.1528825776	1.0000000000	0.0000000000	0.0000000000	26.5989282922	1.0000000000	87.0470917477	1.0000000000	0.0000000000	0.0000000000
0.6200000000	-140.5296982030	1.0000000000	684.1628501916	1.0000000000	0.0000000000	0.0000000000	9.6006342565	1.0000000000	48.7636523338	1.0000000000	0.0000000000	0.0000000000
0.6300000000	-138.3504272446	1.0000000000	703.7451161683	1.0000000000	0.0000000000	0.0000000000	0.4353559667	1.0000000000	25.6310795393	1.0000000000	0.0000000000	0.0000000000
0.6400000000	-134.0223299219	1.0000000000	721.3148194114	1.0000000000	0.0000000000	0.0000000000	-3.6138913870	1.0000000000	13.3777561162	1.0000000000	0.0000000000	0.0000000000
0.6500000000	-126.1793200310	1.0000000000	734.4482649291	1.0000000000	0.0000000000	0.0000000000	-3.3432753695	1.0000000000	6.7117626068	1.0000000000	0.0000000000	0.0000000000
0.6600000000	-115.9358287659	1.0000000000	742.3623112654	1.0000000000	0.0000000000	0.0000000000	-1.0873933622	1.0000000000	2.7580696778	1.0000000000	0.0000000000	0.0000000000
0.6700000000	-104.9535474550	1.0000000000	745.1028157858	1.0000000000	0.0000000000	0.0000000000	0.8528232424	1.0000000000	1.5393330380	1.0000000000	0.0000000000	0.0000000000
0.6800000000	-92.4292937510	1.0000000000	741.7378218752	1.0000000000	0.0000000000	0.0000000000	2.7640291134	1.0000000000	2.1535667998	1.0000000000	0.0000000000	0.0000000000
0.6900000000	-79.2946219426	1.0000000000	731.6028100125	1.0000000000	0.0000000000	0.0000000000	4.1771933754	1.0000000000	2.8011804589	1.0000000000	0.0000000000	0.0000000000
0.7000000000	-67.1817135989	1.0000000000	715.5031548260	1.0000000000	0.0000000000	0.0000000000	4.2632704387	1.0000000000	3.0661959723	1.0000000000	0.0000000000	0.0000000000
0.7100000000	-55.3612765767	1.0000000000	694.5759079271	1.0000000000	0.0000000000	0.0000000000	4.3408353439	1.0000000000	3.3537007623	1.0000000000	0.0000000000	0.0000000000
0.7200000000	-44.2588374297	1.0000000000	669.9913229162	1.0000000000	0.0000000000	0.0000000000	4.6257948507	1.0000000000	3.6419137530	1.0000000000	0.0000000000	0.0000000000
0.7300000000	-35.2853964517	1.0000000000	643.6283643012	1.0000000000	0.0000000000	0.0000000000	4.2322833300	1.0000000000	3.7094606303	1.0000000000	0.0000000000	0.0000000000
0.7400000000	-27.1979644136	1.0000000000	617.5994578485	1.0000000000	0.0000000000	0.0000000000	4.0276390795	1.0000000000	3.7032174378	1.0000000000	0.0000000000	0.0000000000
0.7500000000	-19.7741830559	1.0000000000	593.1294873810	1.0000000000	0.0000000000	0.0000000000	4.4138065968	1.0000000000	3.7798029465	1.0000000000	0.0000000000	0.0000000000
0.7600000000	-14.2562278358	1.0000000000	571.1723627426	1.0000000000	0.0000000000	0.0000000000	4.3978882798	1.0000000000	3.8616427090	1.0000000000	0.0000000000	0.0000000000
0.7700000000	-9.5652180717	1.0000000000	553.0997789617	1.0000000000	0.0000000000	0.0000000000	4.3183346216	1.0000000000	3.7973531511	1.0000000000	0.0000000000	0.0000000000
0.7800000000	-4.8447467963	1.0000000000	539.5005305693	1.0000000000	0.0000000000	0.0000000000	4.3815102791	1.0000000000	3.4962882165	1.0000000000	0.0000000000	0.0000000000
0.7900000000	-1.3099349134	1.0000000000	529.9982249991	1.0000000000	0.0000000000	0.0000000000	4.2909820981	1.0000000000	2.9285240896	1.0000000000	0.0000000000	0.0000000000
0.8000000000	1.6795415226	1.0000000000	524.7239114029	1.0000000000	0.0000000000	0.0000000000	4.4825106826	1.0000000000	2.1636381055	1.0000000000	0.0000000000	0.0000000000
0.8100000000	4.9374599233	1.0000000000	524.1356425782	1.0000000000	0.0000000000	0.0000000000	5.1859274742	1.0000000000	1.5063293886	1.0000000000	0.0000000000	0.0000000000
0.8200000000	7.7679948029	1.0000000000	527.6802790744	1.0000000000	0.0000000000	0.0000000000	5.3308247728	1.0000000000	1.1290633755	1.0000000000	0.0000000000	0.0000000000
0.8300000000	10.5056053452	1.0000000000	534.5398041196	1.0000000000	0.0000000000	0.0000000000	5.1012348475	1.0000000000	0.7169270556	1.0000000000	0.0000000000	0.0000000000
0.8400000000	14.0505765361	1.0000000000	544.8156943074	1.0000000000	0.0000000000	0.0000000000	5.1072927433	1.0000000000	0.1580755359	1.0000000000	0.0000000000	0.0000000000
0.8500000000	17.8492270259	1.0000000000	558.4039296124	1.0000000000	0.0000000000	0.0000000000	0.0000000000	1.0000000000	0.0000000000	1.0000000000	0.0000000000	0.0000000000
0.8600000000	22.2095858017	1.0000000000	574.1694276506	1.0000000000	0.0000000000	0.0000000000	0.0000000000	1.0000000000	0.0000000000	1.0000000000	0.0000000000	0.0000000000
0.8700000000	27.9664493164	1.0000000000	591.2683167515	1.0000000000	0.0000000000	0.0000000000	0.0000000000	1.0000000000	0.0000000000	1.0000000000	0.0000000000	0.0000000000
0.8800000000	34.3108012595	1.0000000000	609.7810647571	1.0000000000	0.0000000000	0.0000000000	0.0000000000	1.0000000000	0.0000000000	1.0000000000	0.0000000000	0.0000000000
0.8900000000	41.1051761786	1.0000000000	629.7634693094	1.0000000000	0.0000000000	0.0000000000	0.0000000000	1.0000000000	0.0000000000	1.0000000000	0.0000000000	0.0000000000
0.9000000000	49.1259413473	1.0000000000	651.2579785972	1.0000000000	0.0000000000	0.0000000000	0.0000000000	1.0000000000	0.0000000000	1.0000000000	0.0000000000	0.0000000000
0.9100000000	57.6282169444	1.0000000000	674.9539219305	1.0000000000	0.0000000000	0.0000000000	0.0000000000	1.0000000000	0.0000000000	1.0000000000	0.0000000000	0.0000000000
0.9200000000	66.1011182523	1.0000000000	701.2053299151	1.0000000000	0.0000000000	0.0000000000	0.0000000000	1.0000000000	0.0000000000	1.0000000000	0.0000000000	0.0000000000
0.9300000000	75.0603927209	1.0000000000	728.7524582677	1.0000000000	0.0000000000	0.0000000000	0.0000000000	1.0000000000	0.0000000000	1.0000000000	0.0000000000	0.0000000000
0.9400000000	83.9241421845	1.0000000000	755.5608839017	1.0000000000	0.0000000000	0.0000000000	0.0000000000	1.0000000000	0.0000000000	1.0000000000	0.0000000000	0.0000000000
0.9500000000	92.2981132668	1.0000000000	779.9023879654	1.0000000000	0.0000000000	0.0000000000	0.0000000000	1.0000000000	0.0000000000	1.0000000000	0.0000000000	0.0000000000
0.9600000000	100.9167669601	1.0000000000	799.9963808764	1.0000000000	0.0000000000	0.0000000000	0.0000000000	1.0000000000	0.0000000000	1.0000000000	0.0000000000	0.0000000000
0.9700000000	109.7505136414	1.0000000000	814.0569824850	1.0000000000	0.0000000000	0.0000000000	0.0000000000	1.0000000000	0.0000000000	1.0000000000	0.0000000000	0.0000000000
0.9800000000	118.6806759157	1.0000000000	820.9745531921	1.0000000000	0.0000000000	0.0000000000	0.0000000000	1.0000000000	0.0000000000	1.0000000000	0.0000000000	0.0000000000
0.9900000000	128.6985128831	1.0000000000	819.9165586634	1.0000000000	0.0000000000	0.0000000000	15.1567373966	1.0000000000	11.2606314892	1.0000000000	0.0000000000	0.0000000000
