name p15_grf_mean_speed_1.0
datacolumns 13
datarows 100
range 0.00000000 0.99000000
endheader
time	grf_x_l_mean	grf_x_l_var	grf_y_l_mean	grf_y_l_var	grf_z_l_mean	grf_z_l_var	grf_x_r_mean	grf_x_r_var	grf_y_r_mean	grf_y_r_var	grf_z_r_mean	grf_z_r_var
0.0000000000	81.9093403606	1.0000000000	750.1811676079	1.0000000000	0.0000000000	0.0000000000	14.4854557637	1.0000000000	10.8964155334	1.0000000000	0.0000000000	0.0000000000
0.0100000000	88.2503830054	1.0000000000	743.8608746670	1.0000000000	0.0000000000	0.0000000000	25.0049202905	1.0000000000	41.2724161184	1.0000000000	0.0000000000	0.0000000000
0.0200000000	95.9450639300	1.0000000000	731.3781654727	1.0000000000	0.0000000000	0.0000000000	32.1237522296	1.0000000000	90.0788959113	1.0000000000	0.0000000000	0.0000000000
0.0300000000	104.3176173577	1.0000000000	711.1937852151	1.0000000000	0.0000000000	0.0000000000	27.4569031160	1.0000000000	154.2649174036	1.0000000000	0.0000000000	0.0000000000
0.0400000000	112.1890314341	1.0000000000	681.5420926694	1.0000000000	0.0000000000	0.0000000000	10.5641882022	1.0000000000	228.1023214330	1.0000000000	0.0000000000	0.0000000000
0.0500000000	119.6440053395	1.0000000000	641.0990143963	1.0000000000	0.0000000000	0.0000000000	-11.8202220601	1.0000000000	302.6981506923	1.0000000000	0.0000000000	0.0000000000
0.0600000000	124.7217975804	1.0000000000	587.8958795138	1.0000000000	0.0000000000	0.0000000000	-35.5241358881	1.0000000000	367.1013635538	1.0000000000	0.0000000000	0.0000000000
0.0700000000	124.8339044212	1.0000000000	520.6353297594	1.0000000000	0.0000000000	0.0000000000	-57.1732406460	1.0000000000	415.0930986532	1.0000000000	0.0000000000	0.0000000000
0.0800000000	119.1565702280	1.0000000000	441.3988948592	1.0000000000	0.0000000000	0.0000000000	-73.3451045111	1.0000000000	448.5253301999	1.0000000000	0.0000000000	0.0000000000
0.0900000000	105.7048747405	1.0000000000	354.9981088389	1.0000000000	0.0000000000	0.0000000000	-84.8913773784	1.0000000000	474.4732110226	1.0000000000	0.0000000000	0.0000000000
0.1000000000	84.5881150785	1.0000000000	267.9301072372	1.0000000000	0.0000000000	0.0000000000	-92.5810295855	1.0000000000	499.7806415182	1.0000000000	0.0000000000	0.0000000000
0.1100000000	59.8425693539	1.0000000000	188.7568940636	1.0000000000	0.0000000000	0.0000000000	-96.1684834418	1.0000000000	529.4010330454	1.0000000000	0.0000000000	0.0000000000
0.1200000000	35.2553965937	1.0000000000	124.7204328831	1.0000000000	0.0000000000	0.0000000000	-97.4116971780	1.0000000000	565.0134040255	1.0000000000	0.0000000000	0.0000000000
0.1300000000	16.0019982853	1.0000000000	77.7042798412	1.0000000000	0.0000000000	0.0000000000	-96.6448237507	1.0000000000	603.7598000822	1.0000000000	0.0000000000	0.0000000000
0.1400000000	4.1580962465	1.0000000000	45.6900716536	1.0000000000	0.0000000000	0.0000000000	-93.3748882936	1.0000000000	641.4498955550	1.0000000000	0.0000000000	0.0000000000
0.1500000000	-2.3528856424	1.0000000000	25.5267764253	1.0000000000	0.0000000000	0.0000000000	-89.2838893688	1.0000000000	675.4349305327	1.0000000000	0.0000000000	0.0000000000
0.1600000000	-4.3594525868	1.0000000000	13.2148863950	1.0000000000	0.0000000000	0.0000000000	-84.3593863028	1.0000000000	703.8413654734	1.0000000000	0.0000000000	0.0000000000
0.1700000000	-3.6192954110	1.0000000000	5.4606623629	1.0000000000	0.0000000000	0.0000000000	-78.5675914035	1.0000000000	725.0572419339	1.0000000000	0.0000000000	0.0000000000
0.1800000000	-2.3106752374	1.0000000000	0.9764568140	1.0000000000	0.0000000000	0.0000000000	-72.9247935638	1.0000000000	738.2447699782	1.0000000000	0.0000000000	0.0000000000
0.1900000000	0.0000000000	1.0000000000	0.0000000000	1.0000000000	0.0000000000	0.0000000000	-66.8878633464	1.0000000000	743.7285948786	1.0000000000	0.0000000000	0.0000000000
0.2000000000	0.0000000000	1.0000000000	0.0000000000	1.0000000000	0.0000000000	0.0000000000	-60.9122835405	1.0000000000	742.7133466173	1.0000000000	0.0000000000	0.0000000000
0.2100000000	0.0000000000	1.0000000000	0.0000000000	1.0000000000	0.0000000000	0.0000000000	-55.4368459733	1.0000000000	736.0926437124	1.0000000000	0.0000000000	0.0000000000
0.2200000000	0.0000000000	1.0000000000	0.0000000000	1.0000000000	0.0000000000	0.0000000000	-49.5999272933	1.0000000000	724.5470612398	1.0000000000	0.0000000000	0.0000000000
0.2300000000	0.0000000000	1.0000000000	0.0000000000	1.0000000000	0.0000000000	0.0000000000	-43.8493543743	1.0000000000	709.6366889303	1.0000000000	0.0000000000	0.0000000000
0.2400000000	0.0000000000	1.0000000000	0.0000000000	1.0000000000	0.0000000000	0.0000000000	-38.5011822730	1.0000000000	693.4347845406	1.0000000000	0.0000000000	0.0000000000
0.2500000000	0.0000000000	1.0000000000	0.0000000000	1.0000000000	0.0000000000	0.0000000000	-33.0025928313	1.0000000000	677.4047679662	1.0000000000	0.0000000000	0.0000000000
0.2600000000	0.0000000000	1.0000000000	0.0000000000	1.0000000000	0.0000000000	0.0000000000	-27.8093488862	1.0000000000	662.4392209149	1.0000000000	0.0000000000	0.0000000000
0.2700000000	0.0000000000	1.0000000000	0.0000000000	1.0000000000	0.0000000000	0.0000000000	-22.8173937598	1.0000000000	649.4086407789	1.0000000000	0.0000000000	0.0000000000
0.2800000000	0.0000000000	1.0000000000	0.0000000000	1.0000000000	0.0000000000	0.0000000000	-17.9898902502	1.0000000000	639.2085582562	1.0000000000	0.0000000000	0.0000000000
0.2900000000	0.0000000000	1.0000000000	0.0000000000	1.0000000000	0.0000000000	0.0000000000	-13.8280789717	1.0000000000	631.8463134530	1.0000000000	0.0000000000	0.0000000000
0.3000000000	0.0000000000	1.0000000000	0.0000000000	1.0000000000	0.0000000000	0.0000000000	-9.8303268429	1.0000000000	626.6444541302	1.0000000000	0.0000000000	0.0000000000
0.3100000000	0.0000000000	1.0000000000	0.0000000000	1.0000000000	0.0000000000	0.0000000000	-6.0325947555	1.0000000000	623.6724576520	1.0000000000	0.0000000000	0.0000000000
0.3200000000	0.0000000000	1.0000000000	0.0000000000	1.0000000000	0.0000000000	0.0000000000	-2.6702115377	1.0000000000	623.4601516289	1.0000000000	0.0000000000	0.0000000000
0.3300000000	0.0000000000	1.0000000000	0.0000000000	1.0000000000	0.0000000000	0.0000000000	0.8295745529	1.0000000000	625.7803053496	1.0000000000	0.0000000000	0.0000000000
0.3400000000	0.0000000000	1.0000000000	0.0000000000	1.0000000000	0.0000000000	0.0000000000	4.2995801080	1.0000000000	629.9417035507	1.0000000000	0.0000000000	0.0000000000
0.3500000000	0.0000000000	1.0000000000	0.0000000000	1.0000000000	0.0000000000	0.0000000000	7.6716719450	1.0000000000	635.3852287225	1.0000000000	0.0000000000	0.0000000000
0.3600000000	0.0000000000	1.0000000000	0.0000000000	1.0000000000	0.0000000000	0.0000000000	11.3373334257	1.0000000000	641.7830767254	1.0000000000	0.0000000000	0.0000000000
0.3700000000	0.0000000000	1.0000000000	0.0000000000	1.0000000000	0.0000000000	0.0000000000	14.9844867992	1.0000000000	648.6634802770	1.0000000000	0.0000000000	0.0000000000
0.3800000000	0.0000000000	1.0000000000	0.0000000000	1.0000000000	0.0000000000	0.0000000000	18.9312344223	1.0000000000	655.1419392788	1.0000000000	0.0000000000	0.0000000000
0.3900000000	0.0000000000	1.0000000000	0.0000000000	1.0000000000	0.0000000000	0.0000000000	23.5391603060	1.0000000000	661.0811213600	1.0000000000	0.0000000000	0.0000000000
0.4000000000	0.0000000000	1.0000000000	0.0000000000	1.0000000000	0.0000000000	0.0000000000	28.3875795513	1.0000000000	667.6153855457	1.0000000000	0.0000000000	0.0000000000
0.4100000000	0.0000000000	1.0000000000	0.0000000000	1.0000000000	0.0000000000	0.0000000000	33.6095853862	1.0000000000	675.5457521482	1.0000000000	0.0000000000	0.0000000000
0.4200000000	0.4211779093	1.0000000000	0.0044515004	1.0000000000	0.0000000000	0.0000000000	38.9581289364	1.0000000000	684.7695777024	1.0000000000	0.0000000000	0.0000000000
0.4300000000	0.0000000000	1.0000000000	0.0000000000	1.0000000000	0.0000000000	0.0000000000	43.6881105599	1.0000000000	695.3124482470	1.0000000000	0.0000000000	0.0000000000
0.4400000000	0.0000000000	1.0000000000	0.0000000000	1.0000000000	0.0000000000	0.0000000000	47.7768297855	1.0000000000	707.2814595429	1.0000000000	0.0000000000	0.0000000000
0.4500000000	0.0000000000	1.0000000000	0.0000000000	1.0000000000	0.0000000000	0.0000000000	51.1499779307	1.0000000000	720.1017391438	1.0000000000	0.0000000000	0.0000000000
0.4600000000	0.0000000000	1.0000000000	0.0000000000	1.0000000000	0.0000000000	0.0000000000	54.0423582311	1.0000000000	732.7794070276	1.0000000000	0.0000000000	0.0000000000
0.4700000000	0.0000000000	1.0000000000	0.0000000000	1.0000000000	0.0000000000	0.0000000000	57.4773049911	1.0000000000	744.5704538778	1.0000000000	0.0000000000	0.0000000000
0.4800000000	0.0000000000	1.0000000000	0.0000000000	1.0000000000	0.0000000000	0.0000000000	61.9200290898	1.0000000000	754.8265155586	1.0000000000	0.0000000000	0.0000000000
0.4900000000	0.0000000000	1.0000000000	0.0000000000	1.0000000000	0.0000000000	0.0000000000	67.7643854993	1.0000000000	762.3995694388	1.0000000000	0.0000000000	0.0000000000
0.5000000000	16.2163649480	1.0000000000	15.0839479842	1.0000000000	0.0000000000	0.0000000000	75.5021573120	1.0000000000	765.4912523350	1.0000000000	0.0000000000	0.0000000000
0.5100000000	27.0147072393	1.0000000000	44.1497513457	1.0000000000	0.0000000000	0.0000000000	84.9210293956	1.0000000000	762.0858662200	1.0000000000	0.0000000000	0.0000000000
0.5200000000	33.9379218014	1.0000000000	87.9955067978	1.0000000000	0.0000000000	0.0000000000	95.6747355605	1.0000000000	750.3943708165	1.0000000000	0.0000000000	0.0000000000
0.5300000000	30.1638926573	1.0000000000	144.2672259713	1.0000000000	0.0000000000	0.0000000000	106.8421118180	1.0000000000	728.5718056563	1.0000000000	0.0000000000	0.0000000000
0.5400000000	15.4242457949	1.0000000000	210.4526703967	1.0000000000	0.0000000000	0.0000000000	117.1722686660	1.0000000000	694.5360125521	1.0000000000	0.0000000000	0.0000000000
0.5500000000	-4.8163288642	1.0000000000	282.7871180425	1.0000000000	0.0000000000	0.0000000000	125.9219490568	1.0000000000	646.5803570238	1.0000000000	0.0000000000	0.0000000000
0.5600000000	-26.9163055645	1.0000000000	353.5984173154	1.0000000000	0.0000000000	0.0000000000	130.7162248503	1.0000000000	583.5825335706	1.0000000000	0.0000000000	0.0000000000
0.5700000000	-48.0344217770	1.0000000000	414.3020590979	1.0000000000	0.0000000000	0.0000000000	128.9300904195	1.0000000000	505.6935893021	1.0000000000	0.0000000000	0.0000000000
0.5800000000	-65.0793964954	1.0000000000	461.1251516617	1.0000000000	0.0000000000	0.0000000000	119.2470464985	1.0000000000	416.4493174139	1.0000000000	0.0000000000	0.0000000000
0.5900000000	-77.8997329374	1.0000000000	496.5465632459	1.0000000000	0.0000000000	0.0000000000	100.6070487397	1.0000000000	322.9733850777	1.0000000000	0.0000000000	0.0000000000
0.6000000000	-86.6642652265	1.0000000000	526.0483593601	1.0000000000	0.0000000000	0.0000000000	75.1206360995	1.0000000000	233.7813151354	1.0000000000	0.0000000000	0.0000000000
0.6100000000	-91.4242547951	1.0000000000	555.0073672559	1.0000000000	0.0000000000	0.0000000000	48.1245373331	1.0000000000	157.2345458554	1.0000000000	0.0000000000	0.0000000000
0.6200000000	-93.5281352129	1.0000000000	586.0098645608	1.0000000000	0.0000000000	0.0000000000	24.4970101962	1.0000000000	98.7951103548	1.0000000000	0.0000000000	0.0000000000
0.6300000000	-92.9953714810	1.0000000000	617.7848133217	1.0000000000	0.0000000000	0.0000000000	7.7694437162	1.0000000000	58.2750253526	1.0000000000	0.0000000000	0.0000000000
0.6400000000	-89.9793057353	1.0000000000	647.9480679905	1.0000000000	0.0000000000	0.0000000000	-1.9675265988	1.0000000000	32.1993026028	1.0000000000	0.0000000000	0.0000000000
0.6500000000	-85.6932413494	1.0000000000	675.1902081479	1.0000000000	0.0000000000	0.0000000000	-6.8791373476	1.0000000000	17.0199066809	1.0000000000	0.0000000000	0.0000000000
0.6600000000	-79.9733132156	1.0000000000	698.5123519639	1.0000000000	0.0000000000	0.0000000000	-8.1057785520	1.0000000000	8.7995852640	1.0000000000	0.0000000000	0.0000000000
0.6700000000	-73.2992422630	1.0000000000	716.8657624159	1.0000000000	0.0000000000	0.0000000000	-6.8797177190	1.0000000000	3.9515283750	1.0000000000	0.0000000000	0.0000000000
0.6800000000	-66.5116795363	1.0000000000	729.5321607888	1.0000000000	0.0000000000	0.0000000000	-4.5214656977	1.0000000000	1.0222748371	1.0000000000	0.0000000000	0.0000000000
0.6900000000	-59.3562215431	1.0000000000	735.7073457668	1.0000000000	0.0000000000	0.0000000000	0.0000000000	1.0000000000	0.0000000000	1.0000000000	0.0000000000	0.0000000000
0.7000000000	-52.5338430683	1.0000000000	734.6314689490	1.0000000000	0.0000000000	0.0000000000	0.0000000000	1.0000000000	0.0000000000	1.0000000000	0.0000000000	0.0000000000
0.7100000000	-46.2779494498	1.0000000000	726.5049731937	1.0000000000	0.0000000000	0.0000000000	0.0000000000	1.0000000000	0.0000000000	1.0000000000	0.0000000000	0.0000000000
0.7200000000	-40.0985396388	1.0000000000	712.7372061112	1.0000000000	0.0000000000	0.0000000000	0.0000000000	1.0000000000	0.0000000000	1.0000000000	0.0000000000	0.0000000000
0.7300000000	-34.5828481162	1.0000000000	695.3326143624	1.0000000000	0.0000000000	0.0000000000	0.0000000000	1.0000000000	0.0000000000	1.0000000000	0.0000000000	0.0000000000
0.7400000000	-29.4618945885	1.0000000000	676.6977061895	1.0000000000	0.0000000000	0.0000000000	0.0000000000	1.0000000000	0.0000000000	1.0000000000	0.0000000000	0.0000000000
0.7500000000	-24.3247176628	1.0000000000	659.0835545078	1.0000000000	0.0000000000	0.0000000000	0.0000000000	1.0000000000	0.0000000000	1.0000000000	0.0000000000	0.0000000000
0.7600000000	-19.6244012506	1.0000000000	643.8000721064	1.0000000000	0.0000000000	0.0000000000	0.0000000000	1.0000000000	0.0000000000	1.0000000000	0.0000000000	0.0000000000
0.7700000000	-15.0285015742	1.0000000000	631.6254376499	1.0000000000	0.0000000000	0.0000000000	0.0000000000	1.0000000000	0.0000000000	1.0000000000	0.0000000000	0.0000000000
0.7800000000	-10.3830441580	1.0000000000	622.9932014484	1.0000000000	0.0000000000	0.0000000000	0.0000000000	1.0000000000	0.0000000000	1.0000000000	0.0000000000	0.0000000000
0.7900000000	-5.9842213901	1.0000000000	617.6560405595	1.0000000000	0.0000000000	0.0000000000	0.0000000000	1.0000000000	0.0000000000	1.0000000000	0.0000000000	0.0000000000
0.8000000000	-1.5323534442	1.0000000000	615.4021498094	1.0000000000	0.0000000000	0.0000000000	0.0000000000	1.0000000000	0.0000000000	1.0000000000	0.0000000000	0.0000000000
0.8100000000	2.8776621716	1.0000000000	616.2425091272	1.0000000000	0.0000000000	0.0000000000	0.0000000000	1.0000000000	0.0000000000	1.0000000000	0.0000000000	0.0000000000
0.8200000000	7.1225771989	1.0000000000	619.7018152805	1.0000000000	0.0000000000	0.0000000000	0.0000000000	1.0000000000	0.0000000000	1.0000000000	0.0000000000	0.0000000000
0.8300000000	11.5251910153	1.0000000000	625.0613803739	1.0000000000	0.0000000000	0.0000000000	0.0000000000	1.0000000000	0.0000000000	1.0000000000	0.0000000000	0.0000000000
0.8400000000	15.7368411369	1.0000000000	631.7885468816	1.0000000000	0.0000000000	0.0000000000	0.0000000000	1.0000000000	0.0000000000	1.0000000000	0.0000000000	0.0000000000
0.8500000000	19.7521490488	1.0000000000	639.2758752435	1.0000000000	0.0000000000	0.0000000000	0.0000000000	1.0000000000	0.0000000000	1.0000000000	0.0000000000	0.0000000000
0.8600000000	23.7798998909	1.0000000000	646.8281773845	1.0000000000	0.0000000000	0.0000000000	0.0000000000	1.0000000000	0.0000000000	1.0000000000	0.0000000000	0.0000000000
0.8700000000	27.5156568599	1.0000000000	654.0806878579	1.0000000000	0.0000000000	0.0000000000	0.0000000000	1.0000000000	0.0000000000	1.0000000000	0.0000000000	0.0000000000
0.8800000000	31.1807632449	1.0000000000	660.9872376951	1.0000000000	0.0000000000	0.0000000000	0.0000000000	1.0000000000	0.0000000000	1.0000000000	0.0000000000	0.0000000000
0.8900000000	35.1602897741	1.0000000000	667.7266900438	1.0000000000	0.0000000000	0.0000000000	0.0000000000	1.0000000000	0.0000000000	1.0000000000	0.0000000000	0.0000000000
0.9000000000	39.4249981840	1.0000000000	675.0201685022	1.0000000000	0.0000000000	0.0000000000	0.7303557328	1.0000000000	0.0135214564	1.0000000000	0.0000000000	0.0000000000
0.9100000000	44.2715686197	1.0000000000	683.7433831807	1.0000000000	0.0000000000	0.0000000000	0.4858598074	1.0000000000	0.1034923768	1.0000000000	0.0000000000	0.0000000000
0.9200000000	49.6058903176	1.0000000000	694.1307310195	1.0000000000	0.0000000000	0.0000000000	0.0000000000	1.0000000000	0.0000000000	1.0000000000	0.0000000000	0.0000000000
0.9300000000	54.9104536526	1.0000000000	705.8562283096	1.0000000000	0.0000000000	0.0000000000	0.0000000000	1.0000000000	0.0000000000	1.0000000000	0.0000000000	0.0000000000
0.9400000000	60.0307244749	1.0000000000	718.1949215858	1.0000000000	0.0000000000	0.0000000000	0.0000000000	1.0000000000	0.0000000000	1.0000000000	0.0000000000	0.0000000000
0.9500000000	64.6412413355	1.0000000000	729.9869170901	1.0000000000	0.0000000000	0.0000000000	0.0000000000	1.0000000000	0.0000000000	1.0000000000	0.0000000000	0.0000000000
0.9600000000	68.6578918757	1.0000000000	740.0438286808	1.0000000000	0.0000000000	0.0000000000	0.0000000000	1.0000000000	0.0000000000	1.0000000000	0.0000000000	0.0000000000
0.9700000000	72.6270351142	1.0000000000	747.3553435910	1.0000000000	0.0000000000	0.0000000000	0.0000000000	1.0000000000	0.0000000000	1.0000000000	0.0000000000	0.0000000000
0.9800000000	76.9109973001	1.0000000000	750.9622578897	1.0000000000	0.0000000000	0.0000000000	0.0000000000	1.0000000000	0.0000000000	1.0000000000	0.0000000000	0.0000000000
0.9900000000	81.9476015729	1.0000000000	749.9501730335	1.0000000000	0.0000000000	0.0000000000	14.4756547006	1.0000000000	10.8932808495	1.0000000000	0.0000000000	0.0000000000
