name p15_grf_mean_speed_1.8
datacolumns 13
datarows 100
range 0.00000000 0.99000000
endheader
time	grf_x_l_mean	grf_x_l_var	grf_y_l_mean	grf_y_l_var	grf_z_l_mean	grf_z_l_var	grf_x_r_mean	grf_x_r_var	grf_y_r_mean	grf_y_r_var	grf_z_r_mean	grf_z_r_var
0.0000000000	174.6288808098	1.0000000000	813.0740106244	1.0000000000	0.0000000000	0.0000000000	8.2978638397	1.0000000000	12.0708528686	1.0000000000	0.0000000000	0.0000000000
0.0100000000	181.6997259054	1.0000000000	778.7387907688	1.0000000000	0.0000000000	0.0000000000	9.8710978145	1.0000000000	63.2908902339	1.0000000000	0.0000000000	0.0000000000
0.0200000000	184.9278196193	1.0000000000	728.0812653709	1.0000000000	0.0000000000	0.0000000000	9.2321719890	1.0000000000	146.4875893695	1.0000000000	0.0000000000	0.0000000000
0.0300000000	182.7600999121	1.0000000000	661.9284540829	1.0000000000	0.0000000000	0.0000000000	3.3980614387	1.0000000000	262.1964593932	1.0000000000	0.0000000000	0.0000000000
0.0400000000	173.7953894501	1.0000000000	582.8918486953	1.0000000000	0.0000000000	0.0000000000	-12.8212999148	1.0000000000	399.9327751398	1.0000000000	0.0000000000	0.0000000000
0.0500000000	156.9280326299	1.0000000000	494.8253503994	1.0000000000	0.0000000000	0.0000000000	-42.2580944932	1.0000000000	538.3369721557	1.0000000000	0.0000000000	0.0000000000
0.0600000000	132.1538539634	1.0000000000	402.2639306681	1.0000000000	0.0000000000	0.0000000000	-78.0707120790	1.0000000000	655.1165809856	1.0000000000	0.0000000000	0.0000000000
0.0700000000	103.1304636113	1.0000000000	311.4127963409	1.0000000000	0.0000000000	0.0000000000	-110.0084457001	1.0000000000	736.8136165082	1.0000000000	0.0000000000	0.0000000000
0.0800000000	74.5704355784	1.0000000000	229.1823041271	1.0000000000	0.0000000000	0.0000000000	-134.8352924723	1.0000000000	780.7274890405	1.0000000000	0.0000000000	0.0000000000
0.0900000000	48.2674157513	1.0000000000	159.7624782171	1.0000000000	0.0000000000	0.0000000000	-152.2956671440	1.0000000000	795.0537550886	1.0000000000	0.0000000000	0.0000000000
0.1000000000	26.8400119227	1.0000000000	104.4090875655	1.0000000000	0.0000000000	0.0000000000	-162.7143280329	1.0000000000	793.7820412312	1.0000000000	0.0000000000	0.0000000000
0.1100000000	11.9062250961	1.0000000000	62.6960892356	1.0000000000	0.0000000000	0.0000000000	-165.9809544050	1.0000000000	788.7735119123	1.0000000000	0.0000000000	0.0000000000
0.1200000000	2.5270977259	1.0000000000	33.3110059214	1.0000000000	0.0000000000	0.0000000000	-162.8987649469	1.0000000000	786.6297167235	1.0000000000	0.0000000000	0.0000000000
0.1300000000	-2.3583546398	1.0000000000	14.0514769835	1.0000000000	0.0000000000	0.0000000000	-156.2885934562	1.0000000000	789.0984894623	1.0000000000	0.0000000000	0.0000000000
0.1400000000	-4.0383131388	1.0000000000	2.2005953657	1.0000000000	0.0000000000	0.0000000000	-146.2460228208	1.0000000000	794.1141930302	1.0000000000	0.0000000000	0.0000000000
0.1500000000	0.0000000000	1.0000000000	0.0000000000	1.0000000000	0.0000000000	0.0000000000	-132.5757647257	1.0000000000	798.3621283833	1.0000000000	0.0000000000	0.0000000000
0.1600000000	0.0000000000	1.0000000000	0.0000000000	1.0000000000	0.0000000000	0.0000000000	-117.2728254574	1.0000000000	799.3731683392	1.0000000000	0.0000000000	0.0000000000
0.1700000000	0.0000000000	1.0000000000	0.0000000000	1.0000000000	0.0000000000	0.0000000000	-102.3976122112	1.0000000000	795.2036890761	1.0000000000	0.0000000000	0.0000000000
0.1800000000	0.0000000000	1.0000000000	0.0000000000	1.0000000000	0.0000000000	0.0000000000	-87.4456254999	1.0000000000	784.1414627770	1.0000000000	0.0000000000	0.0000000000
0.1900000000	0.0000000000	1.0000000000	0.0000000000	1.0000000000	0.0000000000	0.0000000000	-71.6110018522	1.0000000000	765.1989049328	1.0000000000	0.0000000000	0.0000000000
0.2000000000	0.0000000000	1.0000000000	0.0000000000	1.0000000000	0.0000000000	0.0000000000	-57.0863894486	1.0000000000	738.8859814646	1.0000000000	0.0000000000	0.0000000000
0.2100000000	0.0000000000	1.0000000000	0.0000000000	1.0000000000	0.0000000000	0.0000000000	-44.4917305223	1.0000000000	706.8542151093	1.0000000000	0.0000000000	0.0000000000
0.2200000000	0.0000000000	1.0000000000	0.0000000000	1.0000000000	0.0000000000	0.0000000000	-32.8396250573	1.0000000000	671.1233375259	1.0000000000	0.0000000000	0.0000000000
0.2300000000	0.0000000000	1.0000000000	0.0000000000	1.0000000000	0.0000000000	0.0000000000	-22.4544651227	1.0000000000	634.1012129430	1.0000000000	0.0000000000	0.0000000000
0.2400000000	0.0000000000	1.0000000000	0.0000000000	1.0000000000	0.0000000000	0.0000000000	-14.0686903808	1.0000000000	597.9480597838	1.0000000000	0.0000000000	0.0000000000
0.2500000000	0.0000000000	1.0000000000	0.0000000000	1.0000000000	0.0000000000	0.0000000000	-8.0125948744	1.0000000000	564.1765111618	1.0000000000	0.0000000000	0.0000000000
0.2600000000	0.0000000000	1.0000000000	0.0000000000	1.0000000000	0.0000000000	0.0000000000	-3.1370884570	1.0000000000	534.2582802201	1.0000000000	0.0000000000	0.0000000000
0.2700000000	0.0000000000	1.0000000000	0.0000000000	1.0000000000	0.0000000000	0.0000000000	0.6279492879	1.0000000000	509.5621881324	1.0000000000	0.0000000000	0.0000000000
0.2800000000	0.0000000000	1.0000000000	0.0000000000	1.0000000000	0.0000000000	0.0000000000	2.3406470674	1.0000000000	490.6929909393	1.0000000000	0.0000000000	0.0000000000
0.2900000000	0.0000000000	1.0000000000	0.0000000000	1.0000000000	0.0000000000	0.0000000000	3.1218677252	1.0000000000	477.6820684434	1.0000000000	0.0000000000	0.0000000000
0.3000000000	0.0000000000	1.0000000000	0.0000000000	1.0000000000	0.0000000000	0.0000000000	3.8395909187	1.0000000000	470.4328476103	1.0000000000	0.0000000000	0.0000000000
0.3100000000	0.0000000000	1.0000000000	0.0000000000	1.0000000000	0.0000000000	0.0000000000	4.2699366678	1.0000000000	468.7088847713	1.0000000000	0.0000000000	0.0000000000
0.3200000000	0.0000000000	1.0000000000	0.0000000000	1.0000000000	0.0000000000	0.0000000000	4.6131290350	1.0000000000	472.1409668768	1.0000000000	0.0000000000	0.0000000000
0.3300000000	0.0000000000	1.0000000000	0.0000000000	1.0000000000	0.0000000000	0.0000000000	5.6516390864	1.0000000000	480.5474994336	1.0000000000	0.0000000000	0.0000000000
0.3400000000	0.0000000000	1.0000000000	0.0000000000	1.0000000000	0.0000000000	0.0000000000	8.0846634623	1.0000000000	494.0051441827	1.0000000000	0.0000000000	0.0000000000
0.3500000000	0.0000000000	1.0000000000	0.0000000000	1.0000000000	0.0000000000	0.0000000000	11.8260146204	1.0000000000	512.1853441866	1.0000000000	0.0000000000	0.0000000000
0.3600000000	0.0000000000	1.0000000000	0.0000000000	1.0000000000	0.0000000000	0.0000000000	17.0802497464	1.0000000000	534.2706560232	1.0000000000	0.0000000000	0.0000000000
0.3700000000	0.0000000000	1.0000000000	0.0000000000	1.0000000000	0.0000000000	0.0000000000	24.3494529843	1.0000000000	559.9363862341	1.0000000000	0.0000000000	0.0000000000
0.3800000000	0.0000000000	1.0000000000	0.0000000000	1.0000000000	0.0000000000	0.0000000000	33.4829470267	1.0000000000	589.3547152718	1.0000000000	0.0000000000	0.0000000000
0.3900000000	0.0000000000	1.0000000000	0.0000000000	1.0000000000	0.0000000000	0.0000000000	44.1431539026	1.0000000000	622.1944194796	1.0000000000	0.0000000000	0.0000000000
0.4000000000	0.0000000000	1.0000000000	0.0000000000	1.0000000000	0.0000000000	0.0000000000	56.2630853189	1.0000000000	657.3565657629	1.0000000000	0.0000000000	0.0000000000
0.4100000000	0.0000000000	1.0000000000	0.0000000000	1.0000000000	0.0000000000	0.0000000000	69.5385696422	1.0000000000	693.4917612405	1.0000000000	0.0000000000	0.0000000000
0.4200000000	0.0000000000	1.0000000000	0.0000000000	1.0000000000	0.0000000000	0.0000000000	82.9650049808	1.0000000000	729.3818996171	1.0000000000	0.0000000000	0.0000000000
0.4300000000	0.0000000000	1.0000000000	0.0000000000	1.0000000000	0.0000000000	0.0000000000	95.8338944927	1.0000000000	763.6604604968	1.0000000000	0.0000000000	0.0000000000
0.4400000000	0.0000000000	1.0000000000	0.0000000000	1.0000000000	0.0000000000	0.0000000000	108.0732470643	1.0000000000	794.4647856606	1.0000000000	0.0000000000	0.0000000000
0.4500000000	0.0000000000	1.0000000000	0.0000000000	1.0000000000	0.0000000000	0.0000000000	119.4588122106	1.0000000000	819.6469874426	1.0000000000	0.0000000000	0.0000000000
0.4600000000	0.0000000000	1.0000000000	0.0000000000	1.0000000000	0.0000000000	0.0000000000	130.0013694051	1.0000000000	836.9487217419	1.0000000000	0.0000000000	0.0000000000
0.4700000000	0.0000000000	1.0000000000	0.0000000000	1.0000000000	0.0000000000	0.0000000000	140.1896326691	1.0000000000	844.0126461851	1.0000000000	0.0000000000	0.0000000000
0.4800000000	0.0000000000	1.0000000000	0.0000000000	1.0000000000	0.0000000000	0.0000000000	150.2437103203	1.0000000000	838.5781415277	1.0000000000	0.0000000000	0.0000000000
0.4900000000	6.3672036389	1.0000000000	5.0084349638	1.0000000000	0.0000000000	0.0000000000	159.6010951273	1.0000000000	818.7794025887	1.0000000000	0.0000000000	0.0000000000
0.5000000000	8.3868911755	1.0000000000	46.7968598731	1.0000000000	0.0000000000	0.0000000000	167.2056494428	1.0000000000	783.3452417198	1.0000000000	0.0000000000	0.0000000000
0.5100000000	9.4848291696	1.0000000000	116.5869468897	1.0000000000	0.0000000000	0.0000000000	171.9006849290	1.0000000000	731.7354872189	1.0000000000	0.0000000000	0.0000000000
0.5200000000	7.7922358565	1.0000000000	216.1312650744	1.0000000000	0.0000000000	0.0000000000	171.9393391371	1.0000000000	664.4489866831	1.0000000000	0.0000000000	0.0000000000
0.5300000000	-0.9397785635	1.0000000000	338.4613995270	1.0000000000	0.0000000000	0.0000000000	165.1416559388	1.0000000000	583.6146176023	1.0000000000	0.0000000000	0.0000000000
0.5400000000	-21.0590320922	1.0000000000	467.8592272607	1.0000000000	0.0000000000	0.0000000000	149.9585925949	1.0000000000	493.1178584351	1.0000000000	0.0000000000	0.0000000000
0.5500000000	-50.9308614423	1.0000000000	586.7644702528	1.0000000000	0.0000000000	0.0000000000	126.2450171760	1.0000000000	398.1997138703	1.0000000000	0.0000000000	0.0000000000
0.5600000000	-82.8054981586	1.0000000000	682.8390225581	1.0000000000	0.0000000000	0.0000000000	96.7052357811	1.0000000000	305.4227120580	1.0000000000	0.0000000000	0.0000000000
0.5700000000	-110.2239088367	1.0000000000	750.1329504734	1.0000000000	0.0000000000	0.0000000000	66.1053395985	1.0000000000	221.6444164977	1.0000000000	0.0000000000	0.0000000000
0.5800000000	-131.2773698032	1.0000000000	788.7600541958	1.0000000000	0.0000000000	0.0000000000	38.0789185868	1.0000000000	151.6019990530	1.0000000000	0.0000000000	0.0000000000
0.5900000000	-145.8634857332	1.0000000000	804.8031917605	1.0000000000	0.0000000000	0.0000000000	15.3469725730	1.0000000000	96.8670290293	1.0000000000	0.0000000000	0.0000000000
0.6000000000	-153.5814803383	1.0000000000	807.8732513881	1.0000000000	0.0000000000	0.0000000000	0.0718613989	1.0000000000	56.8519636993	1.0000000000	0.0000000000	0.0000000000
0.6100000000	-154.7884874924	1.0000000000	806.9960630430	1.0000000000	0.0000000000	0.0000000000	-7.8955156879	1.0000000000	29.9229492632	1.0000000000	0.0000000000	0.0000000000
0.6200000000	-151.5057924944	1.0000000000	807.0174125427	1.0000000000	0.0000000000	0.0000000000	-10.2528350530	1.0000000000	13.3475283125	1.0000000000	0.0000000000	0.0000000000
0.6300000000	-144.8058359148	1.0000000000	807.9328438825	1.0000000000	0.0000000000	0.0000000000	-8.9166757357	1.0000000000	3.4641727836	1.0000000000	0.0000000000	0.0000000000
0.6400000000	-134.5178163425	1.0000000000	807.7354296253	1.0000000000	0.0000000000	0.0000000000	0.0000000000	1.0000000000	0.0000000000	1.0000000000	0.0000000000	0.0000000000
0.6500000000	-121.7683055936	1.0000000000	805.1007085614	1.0000000000	0.0000000000	0.0000000000	0.0000000000	1.0000000000	0.0000000000	1.0000000000	0.0000000000	0.0000000000
0.6600000000	-108.3153355956	1.0000000000	799.0236032723	1.0000000000	0.0000000000	0.0000000000	0.0000000000	1.0000000000	0.0000000000	1.0000000000	0.0000000000	0.0000000000
0.6700000000	-94.4420439021	1.0000000000	787.9720100804	1.0000000000	0.0000000000	0.0000000000	0.0000000000	1.0000000000	0.0000000000	1.0000000000	0.0000000000	0.0000000000
0.6800000000	-79.8073682743	1.0000000000	770.7299935090	1.0000000000	0.0000000000	0.0000000000	0.0000000000	1.0000000000	0.0000000000	1.0000000000	0.0000000000	0.0000000000
0.6900000000	-65.4448356638	1.0000000000	747.5080453118	1.0000000000	0.0000000000	0.0000000000	0.0000000000	1.0000000000	0.0000000000	1.0000000000	0.0000000000	0.0000000000
0.7000000000	-52.4395677498	1.0000000000	719.5681809410	1.0000000000	0.0000000000	0.0000000000	0.0000000000	1.0000000000	0.0000000000	1.0000000000	0.0000000000	0.0000000000
0.7100000000	-40.3592936887	1.0000000000	688.0184347545	1.0000000000	0.0000000000	0.0000000000	0.0000000000	1.0000000000	0.0000000000	1.0000000000	0.0000000000	0.0000000000
0.7200000000	-29.1145425115	1.0000000000	653.9119619413	1.0000000000	0.0000000000	0.0000000000	0.0000000000	1.0000000000	0.0000000000	1.0000000000	0.0000000000	0.0000000000
0.7300000000	-19.6777359280	1.0000000000	619.1622545658	1.0000000000	0.0000000000	0.0000000000	0.0000000000	1.0000000000	0.0000000000	1.0000000000	0.0000000000	0.0000000000
0.7400000000	-12.3009888755	1.0000000000	586.1020541211	1.0000000000	0.0000000000	0.0000000000	0.0000000000	1.0000000000	0.0000000000	1.0000000000	0.0000000000	0.0000000000
0.7500000000	-6.3217388855	1.0000000000	556.2573472373	1.0000000000	0.0000000000	0.0000000000	0.0000000000	1.0000000000	0.0000000000	1.0000000000	0.0000000000	0.0000000000
0.7600000000	-1.7053487233	1.0000000000	530.1903769672	1.0000000000	0.0000000000	0.0000000000	0.0000000000	1.0000000000	0.0000000000	1.0000000000	0.0000000000	0.0000000000
0.7700000000	1.0562708014	1.0000000000	508.3243502044	1.0000000000	0.0000000000	0.0000000000	0.0000000000	1.0000000000	0.0000000000	1.0000000000	0.0000000000	0.0000000000
0.7800000000	2.4935365214	1.0000000000	491.3008640010	1.0000000000	0.0000000000	0.0000000000	0.0000000000	1.0000000000	0.0000000000	1.0000000000	0.0000000000	0.0000000000
0.7900000000	3.6563013674	1.0000000000	479.3999125308	1.0000000000	0.0000000000	0.0000000000	0.0000000000	1.0000000000	0.0000000000	1.0000000000	0.0000000000	0.0000000000
0.8000000000	4.5205055534	1.0000000000	472.3310346588	1.0000000000	0.0000000000	0.0000000000	0.0000000000	1.0000000000	0.0000000000	1.0000000000	0.0000000000	0.0000000000
0.8100000000	4.8680660940	1.0000000000	469.9890332075	1.0000000000	0.0000000000	0.0000000000	0.0000000000	1.0000000000	0.0000000000	1.0000000000	0.0000000000	0.0000000000
0.8200000000	5.6344430616	1.0000000000	472.6763241997	1.0000000000	0.0000000000	0.0000000000	0.0000000000	1.0000000000	0.0000000000	1.0000000000	0.0000000000	0.0000000000
0.8300000000	7.6743166460	1.0000000000	480.3144069269	1.0000000000	0.0000000000	0.0000000000	0.0000000000	1.0000000000	0.0000000000	1.0000000000	0.0000000000	0.0000000000
0.8400000000	10.7854020385	1.0000000000	492.1901586744	1.0000000000	0.0000000000	0.0000000000	0.0000000000	1.0000000000	0.0000000000	1.0000000000	0.0000000000	0.0000000000
0.8500000000	14.9793272168	1.0000000000	507.7890787754	1.0000000000	0.0000000000	0.0000000000	0.0000000000	1.0000000000	0.0000000000	1.0000000000	0.0000000000	0.0000000000
0.8600000000	20.8986363174	1.0000000000	527.3050751875	1.0000000000	0.0000000000	0.0000000000	0.0000000000	1.0000000000	0.0000000000	1.0000000000	0.0000000000	0.0000000000
0.8700000000	28.7140240560	1.0000000000	550.9599654000	1.0000000000	0.0000000000	0.0000000000	0.0000000000	1.0000000000	0.0000000000	1.0000000000	0.0000000000	0.0000000000
0.8800000000	37.9985137901	1.0000000000	578.3346760441	1.0000000000	0.0000000000	0.0000000000	0.0000000000	1.0000000000	0.0000000000	1.0000000000	0.0000000000	0.0000000000
0.8900000000	48.5976523330	1.0000000000	608.7420256762	1.0000000000	0.0000000000	0.0000000000	0.0000000000	1.0000000000	0.0000000000	1.0000000000	0.0000000000	0.0000000000
0.9000000000	60.6021106804	1.0000000000	641.7801203689	1.0000000000	0.0000000000	0.0000000000	0.0000000000	1.0000000000	0.0000000000	1.0000000000	0.0000000000	0.0000000000
0.9100000000	73.6013207440	1.0000000000	676.9611922054	1.0000000000	0.0000000000	0.0000000000	0.0000000000	1.0000000000	0.0000000000	1.0000000000	0.0000000000	0.0000000000
0.9200000000	86.9721339670	1.0000000000	712.9902262679	1.0000000000	0.0000000000	0.0000000000	0.0000000000	1.0000000000	0.0000000000	1.0000000000	0.0000000000	0.0000000000
0.9300000000	100.5514831214	1.0000000000	747.8709543778	1.0000000000	0.0000000000	0.0000000000	0.0000000000	1.0000000000	0.0000000000	1.0000000000	0.0000000000	0.0000000000
0.9400000000	114.2182282539	1.0000000000	779.5505927228	1.0000000000	0.0000000000	0.0000000000	0.0000000000	1.0000000000	0.0000000000	1.0000000000	0.0000000000	0.0000000000
0.9500000000	127.5090679968	1.0000000000	806.0459084669	1.0000000000	0.0000000000	0.0000000000	0.0000000000	1.0000000000	0.0000000000	1.0000000000	0.0000000000	0.0000000000
0.9600000000	140.2321261159	1.0000000000	825.0180792479	1.0000000000	0.0000000000	0.0000000000	0.0000000000	1.0000000000	0.0000000000	1.0000000000	0.0000000000	0.0000000000
0.9700000000	152.5286438936	1.0000000000	833.7385878712	1.0000000000	0.0000000000	0.0000000000	0.0000000000	1.0000000000	0.0000000000	1.0000000000	0.0000000000	0.0000000000
0.9800000000	164.0204458970	1.0000000000	829.7102232188	1.0000000000	0.0000000000	0.0000000000	0.0000000000	1.0000000000	0.0000000000	1.0000000000	0.0000000000	0.0000000000
0.9900000000	173.7660205072	1.0000000000	811.1355723175	1.0000000000	0.0000000000	0.0000000000	8.2495207133	1.0000000000	12.0888865581	1.0000000000	0.0000000000	0.0000000000
