name p1_grf_mean_speed_1.4
datacolumns 13
datarows 100
range 0.00000000 0.99000000
endheader
time	grf_x_l_mean	grf_x_l_var	grf_y_l_mean	grf_y_l_var	grf_z_l_mean	grf_z_l_var	grf_x_r_mean	grf_x_r_var	grf_y_r_mean	grf_y_r_var	grf_z_r_mean	grf_z_r_var
0.0000000000	128.8268286845	1.0000000000	714.2101906515	1.0000000000	0.0000000000	0.0000000000	6.3150739252	1.0000000000	11.0350112979	1.0000000000	0.0000000000	0.0000000000
0.0100000000	139.3506959914	1.0000000000	699.4152621657	1.0000000000	0.0000000000	0.0000000000	8.2678826253	1.0000000000	46.5238011101	1.0000000000	0.0000000000	0.0000000000
0.0200000000	149.1171663308	1.0000000000	674.4476218465	1.0000000000	0.0000000000	0.0000000000	6.7356871885	1.0000000000	104.9190633634	1.0000000000	0.0000000000	0.0000000000
0.0300000000	157.1798147192	1.0000000000	638.0548467232	1.0000000000	0.0000000000	0.0000000000	-3.5485131838	1.0000000000	183.4147827303	1.0000000000	0.0000000000	0.0000000000
0.0400000000	161.7737457000	1.0000000000	589.2519499394	1.0000000000	0.0000000000	0.0000000000	-25.7998382573	1.0000000000	273.6606876292	1.0000000000	0.0000000000	0.0000000000
0.0500000000	161.7794543329	1.0000000000	528.1001142333	1.0000000000	0.0000000000	0.0000000000	-56.8717422884	1.0000000000	366.8008659409	1.0000000000	0.0000000000	0.0000000000
0.0600000000	155.9412449540	1.0000000000	456.2347203393	1.0000000000	0.0000000000	0.0000000000	-89.6658029440	1.0000000000	457.5626969015	1.0000000000	0.0000000000	0.0000000000
0.0700000000	143.3738122674	1.0000000000	376.9014865194	1.0000000000	0.0000000000	0.0000000000	-119.4179640077	1.0000000000	542.1473721615	1.0000000000	0.0000000000	0.0000000000
0.0800000000	124.0545542705	1.0000000000	294.4346125201	1.0000000000	0.0000000000	0.0000000000	-143.3652237741	1.0000000000	615.6628597678	1.0000000000	0.0000000000	0.0000000000
0.0900000000	99.2673859673	1.0000000000	214.0353605049	1.0000000000	0.0000000000	0.0000000000	-159.7845479888	1.0000000000	674.0004221486	1.0000000000	0.0000000000	0.0000000000
0.1000000000	71.6637173236	1.0000000000	141.3201923706	1.0000000000	0.0000000000	0.0000000000	-168.0568954264	1.0000000000	715.8032507189	1.0000000000	0.0000000000	0.0000000000
0.1100000000	45.2808562990	1.0000000000	81.2923363233	1.0000000000	0.0000000000	0.0000000000	-169.1343616403	1.0000000000	743.0221292296	1.0000000000	0.0000000000	0.0000000000
0.1200000000	23.6710708358	1.0000000000	37.3026265402	1.0000000000	0.0000000000	0.0000000000	-164.4663892916	1.0000000000	759.3211309259	1.0000000000	0.0000000000	0.0000000000
0.1300000000	8.8824478052	1.0000000000	10.1534638196	1.0000000000	0.0000000000	0.0000000000	-155.3890624961	1.0000000000	767.3746717026	1.0000000000	0.0000000000	0.0000000000
0.1400000000	0.0000000000	1.0000000000	0.0000000000	1.0000000000	0.0000000000	0.0000000000	-143.4166815257	1.0000000000	767.8468902179	1.0000000000	0.0000000000	0.0000000000
0.1500000000	0.0000000000	1.0000000000	0.0000000000	1.0000000000	0.0000000000	0.0000000000	-130.1388027441	1.0000000000	761.0033159616	1.0000000000	0.0000000000	0.0000000000
0.1600000000	0.0000000000	1.0000000000	0.0000000000	1.0000000000	0.0000000000	0.0000000000	-116.3510391493	1.0000000000	748.1463664045	1.0000000000	0.0000000000	0.0000000000
0.1700000000	0.0000000000	1.0000000000	0.0000000000	1.0000000000	0.0000000000	0.0000000000	-102.4046926426	1.0000000000	730.4109183016	1.0000000000	0.0000000000	0.0000000000
0.1800000000	0.0000000000	1.0000000000	0.0000000000	1.0000000000	0.0000000000	0.0000000000	-88.4206567858	1.0000000000	707.4384571456	1.0000000000	0.0000000000	0.0000000000
0.1900000000	0.0000000000	1.0000000000	0.0000000000	1.0000000000	0.0000000000	0.0000000000	-74.7525142216	1.0000000000	678.9127952517	1.0000000000	0.0000000000	0.0000000000
0.2000000000	0.0000000000	1.0000000000	0.0000000000	1.0000000000	0.0000000000	0.0000000000	-61.7938266039	1.0000000000	646.4964821327	1.0000000000	0.0000000000	0.0000000000
0.2100000000	0.1310561889	1.0000000000	0.2898878585	1.0000000000	0.0000000000	0.0000000000	-50.1630339344	1.0000000000	612.8653488875	1.0000000000	0.0000000000	0.0000000000
0.2200000000	0.1813502364	1.0000000000	0.3182649399	1.0000000000	0.0000000000	0.0000000000	-40.0952013452	1.0000000000	579.8936429173	1.0000000000	0.0000000000	0.0000000000
0.2300000000	0.1487904305	1.0000000000	0.2349519806	1.0000000000	0.0000000000	0.0000000000	-31.6650432002	1.0000000000	548.8034547272	1.0000000000	0.0000000000	0.0000000000
0.2400000000	0.0920721938	1.0000000000	0.1335382607	1.0000000000	0.0000000000	0.0000000000	-24.9081866210	1.0000000000	521.1918440746	1.0000000000	0.0000000000	0.0000000000
0.2500000000	0.0413082973	1.0000000000	0.0548796782	1.0000000000	0.0000000000	0.0000000000	-19.5257089229	1.0000000000	498.7149959680	1.0000000000	0.0000000000	0.0000000000
0.2600000000	0.0088262768	1.0000000000	0.0089050033	1.0000000000	0.0000000000	0.0000000000	-15.0417755651	1.0000000000	482.1043079946	1.0000000000	0.0000000000	0.0000000000
0.2700000000	0.0000000000	1.0000000000	0.0000000000	1.0000000000	0.0000000000	0.0000000000	-11.1556967235	1.0000000000	471.2449812707	1.0000000000	0.0000000000	0.0000000000
0.2800000000	0.0000000000	1.0000000000	0.0000000000	1.0000000000	0.0000000000	0.0000000000	-7.4568880867	1.0000000000	465.8771031220	1.0000000000	0.0000000000	0.0000000000
0.2900000000	0.0000000000	1.0000000000	0.0000000000	1.0000000000	0.0000000000	0.0000000000	-3.6981620394	1.0000000000	465.8617918614	1.0000000000	0.0000000000	0.0000000000
0.3000000000	0.0000000000	1.0000000000	0.0000000000	1.0000000000	0.0000000000	0.0000000000	0.0418383208	1.0000000000	470.8662591359	1.0000000000	0.0000000000	0.0000000000
0.3100000000	0.0079563271	1.0000000000	0.0004845000	1.0000000000	0.0000000000	0.0000000000	3.8650570376	1.0000000000	479.9583293539	1.0000000000	0.0000000000	0.0000000000
0.3200000000	0.0000000000	1.0000000000	0.0000000000	1.0000000000	0.0000000000	0.0000000000	8.0875142566	1.0000000000	491.8316524154	1.0000000000	0.0000000000	0.0000000000
0.3300000000	0.0000000000	1.0000000000	0.0000000000	1.0000000000	0.0000000000	0.0000000000	12.6987630525	1.0000000000	505.7145881096	1.0000000000	0.0000000000	0.0000000000
0.3400000000	0.0000000000	1.0000000000	0.0000000000	1.0000000000	0.0000000000	0.0000000000	17.7936406898	1.0000000000	521.3356344431	1.0000000000	0.0000000000	0.0000000000
0.3500000000	0.0000000000	1.0000000000	0.0000000000	1.0000000000	0.0000000000	0.0000000000	23.5744826035	1.0000000000	538.1124240947	1.0000000000	0.0000000000	0.0000000000
0.3600000000	0.0079783478	1.0000000000	0.0056693739	1.0000000000	0.0000000000	0.0000000000	30.0399815005	1.0000000000	555.2472028876	1.0000000000	0.0000000000	0.0000000000
0.3700000000	0.0064508340	1.0000000000	0.0542913017	1.0000000000	0.0000000000	0.0000000000	37.0990019265	1.0000000000	572.4279182710	1.0000000000	0.0000000000	0.0000000000
0.3800000000	0.0017171238	1.0000000000	0.1346549474	1.0000000000	0.0000000000	0.0000000000	44.6428586112	1.0000000000	589.8136197489	1.0000000000	0.0000000000	0.0000000000
0.3900000000	-0.0098651749	1.0000000000	0.2377577869	1.0000000000	0.0000000000	0.0000000000	52.4467735241	1.0000000000	607.4924746440	1.0000000000	0.0000000000	0.0000000000
0.4000000000	-0.0321442378	1.0000000000	0.3218724648	1.0000000000	0.0000000000	0.0000000000	60.4674100178	1.0000000000	625.1822874667	1.0000000000	0.0000000000	0.0000000000
0.4100000000	-0.0668357963	1.0000000000	0.2906564065	1.0000000000	0.0000000000	0.0000000000	68.7587183894	1.0000000000	642.4008122289	1.0000000000	0.0000000000	0.0000000000
0.4200000000	0.0000000000	1.0000000000	0.0000000000	1.0000000000	0.0000000000	0.0000000000	77.2273560653	1.0000000000	658.8301101289	1.0000000000	0.0000000000	0.0000000000
0.4300000000	0.0000000000	1.0000000000	0.0000000000	1.0000000000	0.0000000000	0.0000000000	85.9031227277	1.0000000000	674.3154643778	1.0000000000	0.0000000000	0.0000000000
0.4400000000	0.0000000000	1.0000000000	0.0000000000	1.0000000000	0.0000000000	0.0000000000	94.9720415631	1.0000000000	688.4780200685	1.0000000000	0.0000000000	0.0000000000
0.4500000000	0.0000000000	1.0000000000	0.0000000000	1.0000000000	0.0000000000	0.0000000000	104.4193242042	1.0000000000	700.5835526726	1.0000000000	0.0000000000	0.0000000000
0.4600000000	0.0000000000	1.0000000000	0.0000000000	1.0000000000	0.0000000000	0.0000000000	114.1837250960	1.0000000000	709.9181335765	1.0000000000	0.0000000000	0.0000000000
0.4700000000	0.0000000000	1.0000000000	0.0000000000	1.0000000000	0.0000000000	0.0000000000	124.1099753833	1.0000000000	715.8429844979	1.0000000000	0.0000000000	0.0000000000
0.4800000000	0.0000000000	1.0000000000	0.0000000000	1.0000000000	0.0000000000	0.0000000000	133.9343496395	1.0000000000	717.2292743316	1.0000000000	0.0000000000	0.0000000000
0.4900000000	2.8870959951	1.0000000000	11.7697010035	1.0000000000	0.0000000000	0.0000000000	143.4017449291	1.0000000000	712.3737888594	1.0000000000	0.0000000000	0.0000000000
0.5000000000	2.6646821359	1.0000000000	41.6530943565	1.0000000000	0.0000000000	0.0000000000	152.2445601441	1.0000000000	699.6516965461	1.0000000000	0.0000000000	0.0000000000
0.5100000000	-0.2741166133	1.0000000000	90.2434201533	1.0000000000	0.0000000000	0.0000000000	159.9345546881	1.0000000000	677.8016303973	1.0000000000	0.0000000000	0.0000000000
0.5200000000	-8.6844239346	1.0000000000	155.9690412154	1.0000000000	0.0000000000	0.0000000000	165.7955721471	1.0000000000	645.5801085567	1.0000000000	0.0000000000	0.0000000000
0.5300000000	-24.9480501802	1.0000000000	232.4761004774	1.0000000000	0.0000000000	0.0000000000	168.8931228063	1.0000000000	601.7217920775	1.0000000000	0.0000000000	0.0000000000
0.5400000000	-48.3573129662	1.0000000000	312.4931051936	1.0000000000	0.0000000000	0.0000000000	168.2441666510	1.0000000000	545.6898729703	1.0000000000	0.0000000000	0.0000000000
0.5500000000	-75.0852001333	1.0000000000	391.5272931405	1.0000000000	0.0000000000	0.0000000000	163.0070046021	1.0000000000	478.6576133516	1.0000000000	0.0000000000	0.0000000000
0.5600000000	-101.2617744044	1.0000000000	467.6714481999	1.0000000000	0.0000000000	0.0000000000	152.1948535457	1.0000000000	403.6984151376	1.0000000000	0.0000000000	0.0000000000
0.5700000000	-124.4763974571	1.0000000000	539.0613382015	1.0000000000	0.0000000000	0.0000000000	135.1610651711	1.0000000000	325.0127906843	1.0000000000	0.0000000000	0.0000000000
0.5800000000	-143.2605026819	1.0000000000	603.2192665307	1.0000000000	0.0000000000	0.0000000000	112.6541060970	1.0000000000	247.2240712626	1.0000000000	0.0000000000	0.0000000000
0.5900000000	-156.8785608793	1.0000000000	658.2680821221	1.0000000000	0.0000000000	0.0000000000	86.9504834338	1.0000000000	175.1301985854	1.0000000000	0.0000000000	0.0000000000
0.6000000000	-165.0637952043	1.0000000000	703.3848858222	1.0000000000	0.0000000000	0.0000000000	61.1139135355	1.0000000000	113.1110076579	1.0000000000	0.0000000000	0.0000000000
0.6100000000	-167.9607628090	1.0000000000	738.3837059644	1.0000000000	0.0000000000	0.0000000000	38.1355053040	1.0000000000	64.1384400740	1.0000000000	0.0000000000	0.0000000000
0.6200000000	-166.0461297973	1.0000000000	763.4649553365	1.0000000000	0.0000000000	0.0000000000	20.1022960075	1.0000000000	29.4213922345	1.0000000000	0.0000000000	0.0000000000
0.6300000000	-159.8514475444	1.0000000000	779.1894353675	1.0000000000	0.0000000000	0.0000000000	7.9022602019	1.0000000000	8.2654599589	1.0000000000	0.0000000000	0.0000000000
0.6400000000	-150.1277392460	1.0000000000	786.1650065441	1.0000000000	0.0000000000	0.0000000000	0.0000000000	1.0000000000	0.0000000000	1.0000000000	0.0000000000	0.0000000000
0.6500000000	-137.9480416604	1.0000000000	784.8298924488	1.0000000000	0.0000000000	0.0000000000	0.0000000000	1.0000000000	0.0000000000	1.0000000000	0.0000000000	0.0000000000
0.6600000000	-124.2906434598	1.0000000000	775.6170813815	1.0000000000	0.0000000000	0.0000000000	0.0000000000	1.0000000000	0.0000000000	1.0000000000	0.0000000000	0.0000000000
0.6700000000	-109.9324992623	1.0000000000	759.0046911211	1.0000000000	0.0000000000	0.0000000000	0.0000000000	1.0000000000	0.0000000000	1.0000000000	0.0000000000	0.0000000000
0.6800000000	-95.6042925100	1.0000000000	735.5476121281	1.0000000000	0.0000000000	0.0000000000	0.0000000000	1.0000000000	0.0000000000	1.0000000000	0.0000000000	0.0000000000
0.6900000000	-81.7652362830	1.0000000000	706.1737281307	1.0000000000	0.0000000000	0.0000000000	0.0000000000	1.0000000000	0.0000000000	1.0000000000	0.0000000000	0.0000000000
0.7000000000	-68.6589436144	1.0000000000	672.3193978109	1.0000000000	0.0000000000	0.0000000000	0.0000000000	1.0000000000	0.0000000000	1.0000000000	0.0000000000	0.0000000000
0.7100000000	-56.5762274201	1.0000000000	635.7897726025	1.0000000000	0.0000000000	0.0000000000	0.0476371264	1.0000000000	0.1950086355	1.0000000000	0.0000000000	0.0000000000
0.7200000000	-45.7529277742	1.0000000000	598.7158292706	1.0000000000	0.0000000000	0.0000000000	0.0990450687	1.0000000000	0.2248568496	1.0000000000	0.0000000000	0.0000000000
0.7300000000	-36.3444238961	1.0000000000	563.3284388188	1.0000000000	0.0000000000	0.0000000000	0.0906208985	1.0000000000	0.1696406093	1.0000000000	0.0000000000	0.0000000000
0.7400000000	-28.4355163613	1.0000000000	531.5473396637	1.0000000000	0.0000000000	0.0000000000	0.0607194332	1.0000000000	0.1006581355	1.0000000000	0.0000000000	0.0000000000
0.7500000000	-21.9132281763	1.0000000000	504.8131652291	1.0000000000	0.0000000000	0.0000000000	0.0301363203	1.0000000000	0.0475879862	1.0000000000	0.0000000000	0.0000000000
0.7600000000	-16.5776570312	1.0000000000	484.0281257380	1.0000000000	0.0000000000	0.0000000000	0.0093118141	1.0000000000	0.0146298438	1.0000000000	0.0000000000	0.0000000000
0.7700000000	-12.1614846700	1.0000000000	469.5023556441	1.0000000000	0.0000000000	0.0000000000	0.0000000000	1.0000000000	0.0000000000	1.0000000000	0.0000000000	0.0000000000
0.7800000000	-8.3276136096	1.0000000000	461.0167109680	1.0000000000	0.0000000000	0.0000000000	0.0000000000	1.0000000000	0.0000000000	1.0000000000	0.0000000000	0.0000000000
0.7900000000	-4.7415108690	1.0000000000	458.0430818540	1.0000000000	0.0000000000	0.0000000000	0.0000000000	1.0000000000	0.0000000000	1.0000000000	0.0000000000	0.0000000000
0.8000000000	-1.0973504654	1.0000000000	459.9737228449	1.0000000000	0.0000000000	0.0000000000	0.0000000000	1.0000000000	0.0000000000	1.0000000000	0.0000000000	0.0000000000
0.8100000000	2.8791494665	1.0000000000	466.1577518113	1.0000000000	0.0000000000	0.0000000000	0.0000000000	1.0000000000	0.0000000000	1.0000000000	0.0000000000	0.0000000000
0.8200000000	7.2469654880	1.0000000000	475.8410847035	1.0000000000	0.0000000000	0.0000000000	0.0000000000	1.0000000000	0.0000000000	1.0000000000	0.0000000000	0.0000000000
0.8300000000	11.9748737769	1.0000000000	488.3004326851	1.0000000000	0.0000000000	0.0000000000	0.0000000000	1.0000000000	0.0000000000	1.0000000000	0.0000000000	0.0000000000
0.8400000000	17.0785102017	1.0000000000	502.9571069532	1.0000000000	0.0000000000	0.0000000000	0.0000000000	1.0000000000	0.0000000000	1.0000000000	0.0000000000	0.0000000000
0.8500000000	22.5192920472	1.0000000000	519.2691215721	1.0000000000	0.0000000000	0.0000000000	0.0000000000	1.0000000000	0.0000000000	1.0000000000	0.0000000000	0.0000000000
0.8600000000	28.2647693342	1.0000000000	536.6996210863	1.0000000000	0.0000000000	0.0000000000	0.0107170054	1.0000000000	0.0096990568	1.0000000000	0.0000000000	0.0000000000
0.8700000000	34.3672538278	1.0000000000	554.7957481595	1.0000000000	0.0000000000	0.0000000000	0.0149949016	1.0000000000	0.0648171593	1.0000000000	0.0000000000	0.0000000000
0.8800000000	40.7777039308	1.0000000000	573.2429617434	1.0000000000	0.0000000000	0.0000000000	0.0147308137	1.0000000000	0.1614590102	1.0000000000	0.0000000000	0.0000000000
0.8900000000	47.4305366267	1.0000000000	591.9043498236	1.0000000000	0.0000000000	0.0000000000	0.0024438158	1.0000000000	0.2923922013	1.0000000000	0.0000000000	0.0000000000
0.9000000000	54.3028430707	1.0000000000	610.7894742427	1.0000000000	0.0000000000	0.0000000000	-0.0323640851	1.0000000000	0.4107547238	1.0000000000	0.0000000000	0.0000000000
0.9100000000	61.2902846307	1.0000000000	629.8564007861	1.0000000000	0.0000000000	0.0000000000	-0.0998800909	1.0000000000	0.4006874679	1.0000000000	0.0000000000	0.0000000000
0.9200000000	68.2734918930	1.0000000000	648.8077199414	1.0000000000	0.0000000000	0.0000000000	-0.2013265109	1.0000000000	0.0536068809	1.0000000000	0.0000000000	0.0000000000
0.9300000000	75.3212857923	1.0000000000	667.1452846992	1.0000000000	0.0000000000	0.0000000000	0.0000000000	1.0000000000	0.0000000000	1.0000000000	0.0000000000	0.0000000000
0.9400000000	82.6117970561	1.0000000000	684.2710523816	1.0000000000	0.0000000000	0.0000000000	0.0000000000	1.0000000000	0.0000000000	1.0000000000	0.0000000000	0.0000000000
0.9500000000	90.3970509760	1.0000000000	699.3697050069	1.0000000000	0.0000000000	0.0000000000	0.0000000000	1.0000000000	0.0000000000	1.0000000000	0.0000000000	0.0000000000
0.9600000000	98.9178671525	1.0000000000	711.3113206283	1.0000000000	0.0000000000	0.0000000000	0.0000000000	1.0000000000	0.0000000000	1.0000000000	0.0000000000	0.0000000000
0.9700000000	108.2557043208	1.0000000000	718.7598621649	1.0000000000	0.0000000000	0.0000000000	0.0000000000	1.0000000000	0.0000000000	1.0000000000	0.0000000000	0.0000000000
0.9800000000	118.3219420560	1.0000000000	720.2730821517	1.0000000000	0.0000000000	0.0000000000	0.0000000000	1.0000000000	0.0000000000	1.0000000000	0.0000000000	0.0000000000
0.9900000000	128.8753122336	1.0000000000	714.3430098673	1.0000000000	0.0000000000	0.0000000000	6.3192418856	1.0000000000	11.0262105562	1.0000000000	0.0000000000	0.0000000000
