name p1_grf_mean_speed_1.8
datacolumns 13
datarows 100
range 0.00000000 0.99000000
endheader
time	grf_x_l_mean	grf_x_l_var	grf_y_l_mean	grf_y_l_var	grf_z_l_mean	grf_z_l_var	grf_x_r_mean	grf_x_r_var	grf_y_r_mean	grf_y_r_var	grf_z_r_mean	grf_z_r_var
0.0000000000	178.1621575986	1.0000000000	723.5801984948	1.0000000000	0.0000000000	0.0000000000	5.0952911055	1.0000000000	11.5607224183	1.0000000000	0.0000000000	0.0000000000
0.0100000000	189.9012292273	1.0000000000	703.3849020776	1.0000000000	0.0000000000	0.0000000000	3.1251261492	1.0000000000	58.7934149051	1.0000000000	0.0000000000	0.0000000000
0.0200000000	199.0151616506	1.0000000000	670.5997074138	1.0000000000	0.0000000000	0.0000000000	-3.5454563423	1.0000000000	137.5923119048	1.0000000000	0.0000000000	0.0000000000
0.0300000000	204.4140814189	1.0000000000	624.9376489845	1.0000000000	0.0000000000	0.0000000000	-18.5041352994	1.0000000000	246.7759466181	1.0000000000	0.0000000000	0.0000000000
0.0400000000	204.5309308790	1.0000000000	566.2719875260	1.0000000000	0.0000000000	0.0000000000	-45.9442511143	1.0000000000	374.0819880496	1.0000000000	0.0000000000	0.0000000000
0.0500000000	197.2308493107	1.0000000000	495.0529376837	1.0000000000	0.0000000000	0.0000000000	-84.7378820318	1.0000000000	500.6360376186	1.0000000000	0.0000000000	0.0000000000
0.0600000000	181.9921784544	1.0000000000	413.7155159515	1.0000000000	0.0000000000	0.0000000000	-126.9838510969	1.0000000000	611.9496182011	1.0000000000	0.0000000000	0.0000000000
0.0700000000	159.1114439610	1.0000000000	327.3887431844	1.0000000000	0.0000000000	0.0000000000	-164.3591470462	1.0000000000	702.7558152482	1.0000000000	0.0000000000	0.0000000000
0.0800000000	129.7623744307	1.0000000000	242.2529505889	1.0000000000	0.0000000000	0.0000000000	-194.3585261180	1.0000000000	773.6687010719	1.0000000000	0.0000000000	0.0000000000
0.0900000000	96.6877715976	1.0000000000	164.2455932637	1.0000000000	0.0000000000	0.0000000000	-216.1874202625	1.0000000000	827.3441191785	1.0000000000	0.0000000000	0.0000000000
0.1000000000	64.5060458346	1.0000000000	98.9884883709	1.0000000000	0.0000000000	0.0000000000	-228.1516601145	1.0000000000	866.9835794419	1.0000000000	0.0000000000	0.0000000000
0.1100000000	37.1208738329	1.0000000000	50.3598188302	1.0000000000	0.0000000000	0.0000000000	-230.1719659035	1.0000000000	895.2540946725	1.0000000000	0.0000000000	0.0000000000
0.1200000000	16.7336955270	1.0000000000	18.6835698595	1.0000000000	0.0000000000	0.0000000000	-223.9884806390	1.0000000000	913.3943221635	1.0000000000	0.0000000000	0.0000000000
0.1300000000	4.2842190656	1.0000000000	1.2433417231	1.0000000000	0.0000000000	0.0000000000	-210.8880142493	1.0000000000	921.1124908744	1.0000000000	0.0000000000	0.0000000000
0.1400000000	0.0000000000	1.0000000000	0.0000000000	1.0000000000	0.0000000000	0.0000000000	-191.8902949286	1.0000000000	917.8253417483	1.0000000000	0.0000000000	0.0000000000
0.1500000000	0.0000000000	1.0000000000	0.0000000000	1.0000000000	0.0000000000	0.0000000000	-169.5571058490	1.0000000000	903.1725222798	1.0000000000	0.0000000000	0.0000000000
0.1600000000	0.0000000000	1.0000000000	0.0000000000	1.0000000000	0.0000000000	0.0000000000	-145.8595040337	1.0000000000	876.8259698599	1.0000000000	0.0000000000	0.0000000000
0.1700000000	0.0000000000	1.0000000000	0.0000000000	1.0000000000	0.0000000000	0.0000000000	-121.7775670614	1.0000000000	839.8326838950	1.0000000000	0.0000000000	0.0000000000
0.1800000000	0.0000000000	1.0000000000	0.0000000000	1.0000000000	0.0000000000	0.0000000000	-98.7852937862	1.0000000000	794.9509691417	1.0000000000	0.0000000000	0.0000000000
0.1900000000	0.0000000000	1.0000000000	0.0000000000	1.0000000000	0.0000000000	0.0000000000	-78.0576000289	1.0000000000	744.6300542484	1.0000000000	0.0000000000	0.0000000000
0.2000000000	0.1427812384	1.0000000000	0.3180454082	1.0000000000	0.0000000000	0.0000000000	-59.5658088756	1.0000000000	689.9516713515	1.0000000000	0.0000000000	0.0000000000
0.2100000000	0.3131489949	1.0000000000	0.5262787699	1.0000000000	0.0000000000	0.0000000000	-43.2751316281	1.0000000000	632.2899601468	1.0000000000	0.0000000000	0.0000000000
0.2200000000	0.2552825163	1.0000000000	0.5186622336	1.0000000000	0.0000000000	0.0000000000	-29.6723704332	1.0000000000	574.7147629045	1.0000000000	0.0000000000	0.0000000000
0.2300000000	0.3615971337	1.0000000000	0.5552739443	1.0000000000	0.0000000000	0.0000000000	-18.5584226721	1.0000000000	520.8211211722	1.0000000000	0.0000000000	0.0000000000
0.2400000000	0.5691793488	1.0000000000	0.4800974761	1.0000000000	0.0000000000	0.0000000000	-9.5686053907	1.0000000000	472.7843290675	1.0000000000	0.0000000000	0.0000000000
0.2500000000	0.4943744359	1.0000000000	0.2470704002	1.0000000000	0.0000000000	0.0000000000	-2.6180149819	1.0000000000	431.1993977141	1.0000000000	0.0000000000	0.0000000000
0.2600000000	0.3777680894	1.0000000000	0.1005444973	1.0000000000	0.0000000000	0.0000000000	2.4750329572	1.0000000000	396.7291038980	1.0000000000	0.0000000000	0.0000000000
0.2700000000	0.3956989184	1.0000000000	0.0967542698	1.0000000000	0.0000000000	0.0000000000	6.2277087886	1.0000000000	370.7456696927	1.0000000000	0.0000000000	0.0000000000
0.2800000000	0.3214969173	1.0000000000	0.0796426453	1.0000000000	0.0000000000	0.0000000000	8.8657005838	1.0000000000	353.9271492502	1.0000000000	0.0000000000	0.0000000000
0.2900000000	0.2361675914	1.0000000000	0.0777639250	1.0000000000	0.0000000000	0.0000000000	10.6460767200	1.0000000000	345.4423765881	1.0000000000	0.0000000000	0.0000000000
0.3000000000	0.3445099239	1.0000000000	0.1845166609	1.0000000000	0.0000000000	0.0000000000	12.1200011972	1.0000000000	343.9965415075	1.0000000000	0.0000000000	0.0000000000
0.3100000000	0.3392751591	1.0000000000	0.2167943282	1.0000000000	0.0000000000	0.0000000000	13.6812720132	1.0000000000	348.8662255374	1.0000000000	0.0000000000	0.0000000000
0.3200000000	0.0590297735	1.0000000000	0.0642664109	1.0000000000	0.0000000000	0.0000000000	15.6633772551	1.0000000000	359.6804234131	1.0000000000	0.0000000000	0.0000000000
0.3300000000	0.0000000000	1.0000000000	0.0000000000	1.0000000000	0.0000000000	0.0000000000	18.3369411667	1.0000000000	375.9407790154	1.0000000000	0.0000000000	0.0000000000
0.3400000000	0.0490037724	1.0000000000	0.1057967015	1.0000000000	0.0000000000	0.0000000000	21.9002826964	1.0000000000	396.8347140487	1.0000000000	0.0000000000	0.0000000000
0.3500000000	0.1459680244	1.0000000000	0.1444511132	1.0000000000	0.0000000000	0.0000000000	26.5740136700	1.0000000000	421.2313794421	1.0000000000	0.0000000000	0.0000000000
0.3600000000	0.0000000000	1.0000000000	0.0000000000	1.0000000000	0.0000000000	0.0000000000	32.6215419585	1.0000000000	448.2249602901	1.0000000000	0.0000000000	0.0000000000
0.3700000000	0.0000000000	1.0000000000	0.0000000000	1.0000000000	0.0000000000	0.0000000000	39.9284893541	1.0000000000	477.5872035026	1.0000000000	0.0000000000	0.0000000000
0.3800000000	0.0754096564	1.0000000000	0.2899459598	1.0000000000	0.0000000000	0.0000000000	48.3103996982	1.0000000000	509.1842005361	1.0000000000	0.0000000000	0.0000000000
0.3900000000	-0.0687999907	1.0000000000	0.6766016918	1.0000000000	0.0000000000	0.0000000000	57.8814767896	1.0000000000	542.2045118650	1.0000000000	0.0000000000	0.0000000000
0.4000000000	-0.1754856208	1.0000000000	0.8052495290	1.0000000000	0.0000000000	0.0000000000	68.6826560840	1.0000000000	575.4231307103	1.0000000000	0.0000000000	0.0000000000
0.4100000000	-0.2935941467	1.0000000000	0.6313189649	1.0000000000	0.0000000000	0.0000000000	80.5557350515	1.0000000000	607.9395160221	1.0000000000	0.0000000000	0.0000000000
0.4200000000	0.0000000000	1.0000000000	0.0000000000	1.0000000000	0.0000000000	0.0000000000	93.4764854927	1.0000000000	639.1291393924	1.0000000000	0.0000000000	0.0000000000
0.4300000000	0.0000000000	1.0000000000	0.0000000000	1.0000000000	0.0000000000	0.0000000000	107.3698037353	1.0000000000	668.0592879073	1.0000000000	0.0000000000	0.0000000000
0.4400000000	0.0000000000	1.0000000000	0.0000000000	1.0000000000	0.0000000000	0.0000000000	121.7928855772	1.0000000000	693.3102395142	1.0000000000	0.0000000000	0.0000000000
0.4500000000	0.0000000000	1.0000000000	0.0000000000	1.0000000000	0.0000000000	0.0000000000	136.3804556419	1.0000000000	713.2832369691	1.0000000000	0.0000000000	0.0000000000
0.4600000000	0.0000000000	1.0000000000	0.0000000000	1.0000000000	0.0000000000	0.0000000000	150.7941184847	1.0000000000	726.6985835107	1.0000000000	0.0000000000	0.0000000000
0.4700000000	0.0000000000	1.0000000000	0.0000000000	1.0000000000	0.0000000000	0.0000000000	164.4239424077	1.0000000000	732.8292163432	1.0000000000	0.0000000000	0.0000000000
0.4800000000	0.0000000000	1.0000000000	0.0000000000	1.0000000000	0.0000000000	0.0000000000	176.7741894624	1.0000000000	730.9878217466	1.0000000000	0.0000000000	0.0000000000
0.4900000000	1.6136017017	1.0000000000	6.2560562546	1.0000000000	0.0000000000	0.0000000000	187.6546689423	1.0000000000	719.8065419121	1.0000000000	0.0000000000	0.0000000000
0.5000000000	-1.3761267224	1.0000000000	43.2802596687	1.0000000000	0.0000000000	0.0000000000	196.5846302985	1.0000000000	697.6386468750	1.0000000000	0.0000000000	0.0000000000
0.5100000000	-8.0462478481	1.0000000000	107.0876264082	1.0000000000	0.0000000000	0.0000000000	202.6421360929	1.0000000000	663.6938354662	1.0000000000	0.0000000000	0.0000000000
0.5200000000	-20.3752526900	1.0000000000	198.7594875527	1.0000000000	0.0000000000	0.0000000000	204.8341036924	1.0000000000	618.0823062812	1.0000000000	0.0000000000	0.0000000000
0.5300000000	-41.0251887870	1.0000000000	310.2488117649	1.0000000000	0.0000000000	0.0000000000	201.9582825917	1.0000000000	560.9863764380	1.0000000000	0.0000000000	0.0000000000
0.5400000000	-70.8764323373	1.0000000000	426.2708328340	1.0000000000	0.0000000000	0.0000000000	192.6023707570	1.0000000000	492.8117359781	1.0000000000	0.0000000000	0.0000000000
0.5500000000	-105.9763025267	1.0000000000	532.8546466570	1.0000000000	0.0000000000	0.0000000000	176.5210611815	1.0000000000	415.5337511331	1.0000000000	0.0000000000	0.0000000000
0.5600000000	-139.8340212461	1.0000000000	623.9949166059	1.0000000000	0.0000000000	0.0000000000	154.6350769581	1.0000000000	333.5520236668	1.0000000000	0.0000000000	0.0000000000
0.5700000000	-168.7907420613	1.0000000000	699.9372027275	1.0000000000	0.0000000000	0.0000000000	128.1072776201	1.0000000000	252.6215605008	1.0000000000	0.0000000000	0.0000000000
0.5800000000	-191.9731670510	1.0000000000	762.5951589529	1.0000000000	0.0000000000	0.0000000000	98.9796593898	1.0000000000	178.0999552529	1.0000000000	0.0000000000	0.0000000000
0.5900000000	-208.5122422149	1.0000000000	814.1226232468	1.0000000000	0.0000000000	0.0000000000	70.5949808286	1.0000000000	114.3586943724	1.0000000000	0.0000000000	0.0000000000
0.6000000000	-217.8354172778	1.0000000000	856.8643525070	1.0000000000	0.0000000000	0.0000000000	45.7033548089	1.0000000000	64.7013691526	1.0000000000	0.0000000000	0.0000000000
0.6100000000	-220.2842728146	1.0000000000	891.7531321085	1.0000000000	0.0000000000	0.0000000000	25.7521371977	1.0000000000	30.4202997015	1.0000000000	0.0000000000	0.0000000000
0.6200000000	-216.3582605341	1.0000000000	917.0527509504	1.0000000000	0.0000000000	0.0000000000	11.9159808810	1.0000000000	10.0202557789	1.0000000000	0.0000000000	0.0000000000
0.6300000000	-206.2645404018	1.0000000000	930.2436861519	1.0000000000	0.0000000000	0.0000000000	3.9584281241	1.0000000000	0.1946244458	1.0000000000	0.0000000000	0.0000000000
0.6400000000	-190.9433050280	1.0000000000	930.4295587679	1.0000000000	0.0000000000	0.0000000000	0.0000000000	1.0000000000	0.0000000000	1.0000000000	0.0000000000	0.0000000000
0.6500000000	-171.6619023396	1.0000000000	917.9138076515	1.0000000000	0.0000000000	0.0000000000	0.0000000000	1.0000000000	0.0000000000	1.0000000000	0.0000000000	0.0000000000
0.6600000000	-149.8916007127	1.0000000000	893.0760200738	1.0000000000	0.0000000000	0.0000000000	0.0000000000	1.0000000000	0.0000000000	1.0000000000	0.0000000000	0.0000000000
0.6700000000	-127.4864042894	1.0000000000	856.9866712670	1.0000000000	0.0000000000	0.0000000000	-0.2343788477	1.0000000000	1.5186492139	1.0000000000	0.0000000000	0.0000000000
0.6800000000	-105.9182862349	1.0000000000	811.9548296910	1.0000000000	0.0000000000	0.0000000000	0.5511583657	1.0000000000	2.9573991728	1.0000000000	0.0000000000	0.0000000000
0.6900000000	-85.9136942899	1.0000000000	760.4549946635	1.0000000000	0.0000000000	0.0000000000	1.1863811210	1.0000000000	3.8558641549	1.0000000000	0.0000000000	0.0000000000
0.7000000000	-68.1138261513	1.0000000000	704.4623115938	1.0000000000	0.0000000000	0.0000000000	1.7227144694	1.0000000000	4.1162866352	1.0000000000	0.0000000000	0.0000000000
0.7100000000	-52.9566443434	1.0000000000	646.3515372346	1.0000000000	0.0000000000	0.0000000000	2.0178199237	1.0000000000	4.0917131381	1.0000000000	0.0000000000	0.0000000000
0.7200000000	-39.9926122287	1.0000000000	589.0122059571	1.0000000000	0.0000000000	0.0000000000	2.0408449712	1.0000000000	4.1267455479	1.0000000000	0.0000000000	0.0000000000
0.7300000000	-28.9046608673	1.0000000000	534.6670563108	1.0000000000	0.0000000000	0.0000000000	1.9719216337	1.0000000000	4.1202365072	1.0000000000	0.0000000000	0.0000000000
0.7400000000	-19.8043418300	1.0000000000	484.7844501286	1.0000000000	0.0000000000	0.0000000000	1.8453921964	1.0000000000	3.9477696029	1.0000000000	0.0000000000	0.0000000000
0.7500000000	-12.4785462587	1.0000000000	440.8939473738	1.0000000000	0.0000000000	0.0000000000	1.7340133007	1.0000000000	3.7882200430	1.0000000000	0.0000000000	0.0000000000
0.7600000000	-6.4383827783	1.0000000000	404.3865599537	1.0000000000	0.0000000000	0.0000000000	1.6852996010	1.0000000000	3.7292476623	1.0000000000	0.0000000000	0.0000000000
0.7700000000	-1.7024495246	1.0000000000	375.6973989074	1.0000000000	0.0000000000	0.0000000000	1.5972029263	1.0000000000	3.5259108685	1.0000000000	0.0000000000	0.0000000000
0.7800000000	1.7053354509	1.0000000000	354.6500030944	1.0000000000	0.0000000000	0.0000000000	1.4287557339	1.0000000000	3.1005832801	1.0000000000	0.0000000000	0.0000000000
0.7900000000	4.2933420255	1.0000000000	341.1885045527	1.0000000000	0.0000000000	0.0000000000	1.2892808914	1.0000000000	2.7589041134	1.0000000000	0.0000000000	0.0000000000
0.8000000000	6.4319992638	1.0000000000	335.0347837324	1.0000000000	0.0000000000	0.0000000000	1.1973462997	1.0000000000	2.5945262204	1.0000000000	0.0000000000	0.0000000000
0.8100000000	8.2898853371	1.0000000000	335.3655397593	1.0000000000	0.0000000000	0.0000000000	1.0741838767	1.0000000000	2.3091922516	1.0000000000	0.0000000000	0.0000000000
0.8200000000	10.3298564114	1.0000000000	341.4366174611	1.0000000000	0.0000000000	0.0000000000	0.9406137915	1.0000000000	1.8521697601	1.0000000000	0.0000000000	0.0000000000
0.8300000000	13.0035480007	1.0000000000	352.9620349530	1.0000000000	0.0000000000	0.0000000000	0.8573594570	1.0000000000	1.5717159232	1.0000000000	0.0000000000	0.0000000000
0.8400000000	16.3501701525	1.0000000000	369.5482089897	1.0000000000	0.0000000000	0.0000000000	0.8437515274	1.0000000000	1.4898647149	1.0000000000	0.0000000000	0.0000000000
0.8500000000	20.5160073573	1.0000000000	390.4245139028	1.0000000000	0.0000000000	0.0000000000	0.8741107895	1.0000000000	1.2111996660	1.0000000000	0.0000000000	0.0000000000
0.8600000000	25.7246088104	1.0000000000	414.9753211108	1.0000000000	0.0000000000	0.0000000000	0.9093204095	1.0000000000	0.7232264550	1.0000000000	0.0000000000	0.0000000000
0.8700000000	32.0181711182	1.0000000000	442.8627862542	1.0000000000	0.0000000000	0.0000000000	0.8495442244	1.0000000000	0.4500157071	1.0000000000	0.0000000000	0.0000000000
0.8800000000	39.3792066642	1.0000000000	473.5550019178	1.0000000000	0.0000000000	0.0000000000	0.6861974122	1.0000000000	0.5154284197	1.0000000000	0.0000000000	0.0000000000
0.8900000000	47.8835184135	1.0000000000	506.3554150572	1.0000000000	0.0000000000	0.0000000000	0.4764834641	1.0000000000	0.6257964960	1.0000000000	0.0000000000	0.0000000000
0.9000000000	57.5547625705	1.0000000000	540.7285032617	1.0000000000	0.0000000000	0.0000000000	0.2112835693	1.0000000000	0.5547526900	1.0000000000	0.0000000000	0.0000000000
0.9100000000	68.3223189377	1.0000000000	576.0140023402	1.0000000000	0.0000000000	0.0000000000	-0.0577354829	1.0000000000	0.1913974648	1.0000000000	0.0000000000	0.0000000000
0.9200000000	80.1544145848	1.0000000000	611.0425608858	1.0000000000	0.0000000000	0.0000000000	0.0000000000	1.0000000000	0.0000000000	1.0000000000	0.0000000000	0.0000000000
0.9300000000	92.9131566359	1.0000000000	644.4149221355	1.0000000000	0.0000000000	0.0000000000	0.0000000000	1.0000000000	0.0000000000	1.0000000000	0.0000000000	0.0000000000
0.9400000000	106.4166212276	1.0000000000	674.7760956955	1.0000000000	0.0000000000	0.0000000000	0.0000000000	1.0000000000	0.0000000000	1.0000000000	0.0000000000	0.0000000000
0.9500000000	120.4918981434	1.0000000000	700.5603730598	1.0000000000	0.0000000000	0.0000000000	0.0000000000	1.0000000000	0.0000000000	1.0000000000	0.0000000000	0.0000000000
0.9600000000	134.8465042027	1.0000000000	719.9647293629	1.0000000000	0.0000000000	0.0000000000	0.0000000000	1.0000000000	0.0000000000	1.0000000000	0.0000000000	0.0000000000
0.9700000000	149.1225327686	1.0000000000	731.3876171368	1.0000000000	0.0000000000	0.0000000000	0.0000000000	1.0000000000	0.0000000000	1.0000000000	0.0000000000	0.0000000000
0.9800000000	163.0986730564	1.0000000000	733.5249040750	1.0000000000	0.0000000000	0.0000000000	0.0000000000	1.0000000000	0.0000000000	1.0000000000	0.0000000000	0.0000000000
0.9900000000	176.4024086849	1.0000000000	725.0527446281	1.0000000000	0.0000000000	0.0000000000	5.0975964371	1.0000000000	11.5311260837	1.0000000000	0.0000000000	0.0000000000
