name p1_grf_mean_speed_1.2
datacolumns 13
datarows 100
range 0.00000000 0.99000000
endheader
time	grf_x_l_mean	grf_x_l_var	grf_y_l_mean	grf_y_l_var	grf_z_l_mean	grf_z_l_var	grf_x_r_mean	grf_x_r_var	grf_y_r_mean	grf_y_r_var	grf_z_r_mean	grf_z_r_var
0.0000000000	102.8230523518	1.0000000000	693.6638390447	1.0000000000	0.0000000000	0.0000000000	7.1158285874	1.0000000000	10.9158545709	1.0000000000	0.0000000000	0.0000000000
0.0100000000	112.6236305824	1.0000000000	681.8362635968	1.0000000000	0.0000000000	0.0000000000	10.2543118648	1.0000000000	43.5637995835	1.0000000000	0.0000000000	0.0000000000
0.0200000000	122.2704245653	1.0000000000	661.7360753083	1.0000000000	0.0000000000	0.0000000000	9.7079521755	1.0000000000	96.7376677104	1.0000000000	0.0000000000	0.0000000000
0.0300000000	130.8615518749	1.0000000000	631.6836736740	1.0000000000	0.0000000000	0.0000000000	0.0265988031	1.0000000000	166.8167127202	1.0000000000	0.0000000000	0.0000000000
0.0400000000	137.0734868348	1.0000000000	590.1401124974	1.0000000000	0.0000000000	0.0000000000	-20.5588817603	1.0000000000	246.3935479715	1.0000000000	0.0000000000	0.0000000000
0.0500000000	139.9989925621	1.0000000000	536.5888965153	1.0000000000	0.0000000000	0.0000000000	-47.6318676829	1.0000000000	328.9582895136	1.0000000000	0.0000000000	0.0000000000
0.0600000000	137.9424587917	1.0000000000	471.8494398417	1.0000000000	0.0000000000	0.0000000000	-75.0827009153	1.0000000000	410.6261285985	1.0000000000	0.0000000000	0.0000000000
0.0700000000	129.9430912301	1.0000000000	398.0682657647	1.0000000000	0.0000000000	0.0000000000	-99.4781842967	1.0000000000	487.5195251461	1.0000000000	0.0000000000	0.0000000000
0.0800000000	115.8799570253	1.0000000000	318.8986902415	1.0000000000	0.0000000000	0.0000000000	-118.5765593684	1.0000000000	554.9695647776	1.0000000000	0.0000000000	0.0000000000
0.0900000000	95.9978117204	1.0000000000	239.2508661967	1.0000000000	0.0000000000	0.0000000000	-131.3231331250	1.0000000000	609.3746641695	1.0000000000	0.0000000000	0.0000000000
0.1000000000	72.3210123966	1.0000000000	164.5474187971	1.0000000000	0.0000000000	0.0000000000	-137.7642643001	1.0000000000	649.4461159223	1.0000000000	0.0000000000	0.0000000000
0.1100000000	48.1734467158	1.0000000000	100.3428085223	1.0000000000	0.0000000000	0.0000000000	-138.6252838053	1.0000000000	676.7601661391	1.0000000000	0.0000000000	0.0000000000
0.1200000000	26.9493994690	1.0000000000	51.2432300267	1.0000000000	0.0000000000	0.0000000000	-135.0471076140	1.0000000000	694.4004765264	1.0000000000	0.0000000000	0.0000000000
0.1300000000	11.3379496490	1.0000000000	18.9671870722	1.0000000000	0.0000000000	0.0000000000	-127.9947929412	1.0000000000	704.5974699466	1.0000000000	0.0000000000	0.0000000000
0.1400000000	2.2241689047	1.0000000000	1.6696912268	1.0000000000	0.0000000000	0.0000000000	-118.7503274970	1.0000000000	708.3365472376	1.0000000000	0.0000000000	0.0000000000
0.1500000000	0.0000000000	1.0000000000	0.0000000000	1.0000000000	0.0000000000	0.0000000000	-108.4205267945	1.0000000000	706.6636403230	1.0000000000	0.0000000000	0.0000000000
0.1600000000	0.0000000000	1.0000000000	0.0000000000	1.0000000000	0.0000000000	0.0000000000	-97.6962570000	1.0000000000	700.5585225381	1.0000000000	0.0000000000	0.0000000000
0.1700000000	0.0000000000	1.0000000000	0.0000000000	1.0000000000	0.0000000000	0.0000000000	-86.7803370838	1.0000000000	689.9613810384	1.0000000000	0.0000000000	0.0000000000
0.1800000000	0.0000000000	1.0000000000	0.0000000000	1.0000000000	0.0000000000	0.0000000000	-76.0552672708	1.0000000000	674.5992258118	1.0000000000	0.0000000000	0.0000000000
0.1900000000	0.0000000000	1.0000000000	0.0000000000	1.0000000000	0.0000000000	0.0000000000	-65.6992610698	1.0000000000	655.5459821895	1.0000000000	0.0000000000	0.0000000000
0.2000000000	0.0000000000	1.0000000000	0.0000000000	1.0000000000	0.0000000000	0.0000000000	-56.2049338316	1.0000000000	634.6792227522	1.0000000000	0.0000000000	0.0000000000
0.2100000000	0.0918315399	1.0000000000	0.2208483162	1.0000000000	0.0000000000	0.0000000000	-47.7395521938	1.0000000000	613.2716386345	1.0000000000	0.0000000000	0.0000000000
0.2200000000	0.1240335037	1.0000000000	0.2587504988	1.0000000000	0.0000000000	0.0000000000	-40.3537304208	1.0000000000	592.2472932983	1.0000000000	0.0000000000	0.0000000000
0.2300000000	0.0958579061	1.0000000000	0.1895875598	1.0000000000	0.0000000000	0.0000000000	-34.1397178789	1.0000000000	573.0546534737	1.0000000000	0.0000000000	0.0000000000
0.2400000000	0.0551203922	1.0000000000	0.1046673467	1.0000000000	0.0000000000	0.0000000000	-28.9524364823	1.0000000000	557.0569901721	1.0000000000	0.0000000000	0.0000000000
0.2500000000	0.0226307264	1.0000000000	0.0414290379	1.0000000000	0.0000000000	0.0000000000	-24.4597480402	1.0000000000	544.6684936944	1.0000000000	0.0000000000	0.0000000000
0.2600000000	0.0030153216	1.0000000000	0.0062802516	1.0000000000	0.0000000000	0.0000000000	-20.4420148195	1.0000000000	535.9087681254	1.0000000000	0.0000000000	0.0000000000
0.2700000000	0.0000000000	1.0000000000	0.0000000000	1.0000000000	0.0000000000	0.0000000000	-16.5167908958	1.0000000000	530.9824292613	1.0000000000	0.0000000000	0.0000000000
0.2800000000	0.0000000000	1.0000000000	0.0000000000	1.0000000000	0.0000000000	0.0000000000	-12.5447526890	1.0000000000	529.9310206417	1.0000000000	0.0000000000	0.0000000000
0.2900000000	0.0000000000	1.0000000000	0.0000000000	1.0000000000	0.0000000000	0.0000000000	-8.6307120244	1.0000000000	532.1871700133	1.0000000000	0.0000000000	0.0000000000
0.3000000000	0.0000000000	1.0000000000	0.0000000000	1.0000000000	0.0000000000	0.0000000000	-4.5343430639	1.0000000000	536.7505370032	1.0000000000	0.0000000000	0.0000000000
0.3100000000	0.0000000000	1.0000000000	0.0000000000	1.0000000000	0.0000000000	0.0000000000	-0.1976879638	1.0000000000	542.9329761730	1.0000000000	0.0000000000	0.0000000000
0.3200000000	0.0000000000	1.0000000000	0.0000000000	1.0000000000	0.0000000000	0.0000000000	4.2699955133	1.0000000000	550.6411445784	1.0000000000	0.0000000000	0.0000000000
0.3300000000	0.0000000000	1.0000000000	0.0000000000	1.0000000000	0.0000000000	0.0000000000	8.9573238221	1.0000000000	559.7090001730	1.0000000000	0.0000000000	0.0000000000
0.3400000000	0.0000000000	1.0000000000	0.0000000000	1.0000000000	0.0000000000	0.0000000000	13.8585019377	1.0000000000	569.6822071391	1.0000000000	0.0000000000	0.0000000000
0.3500000000	0.0000000000	1.0000000000	0.0000000000	1.0000000000	0.0000000000	0.0000000000	18.8933425445	1.0000000000	580.3226431070	1.0000000000	0.0000000000	0.0000000000
0.3600000000	0.0000000000	1.0000000000	0.0000000000	1.0000000000	0.0000000000	0.0000000000	24.1234026792	1.0000000000	591.6777090053	1.0000000000	0.0000000000	0.0000000000
0.3700000000	0.0059423003	1.0000000000	0.0214412592	1.0000000000	0.0000000000	0.0000000000	29.4712015470	1.0000000000	603.6178508590	1.0000000000	0.0000000000	0.0000000000
0.3800000000	0.0087822458	1.0000000000	0.0700330604	1.0000000000	0.0000000000	0.0000000000	35.0278792492	1.0000000000	615.6602213554	1.0000000000	0.0000000000	0.0000000000
0.3900000000	0.0088672850	1.0000000000	0.1441912744	1.0000000000	0.0000000000	0.0000000000	40.9250521614	1.0000000000	627.3700613852	1.0000000000	0.0000000000	0.0000000000
0.4000000000	0.0013362658	1.0000000000	0.2232699229	1.0000000000	0.0000000000	0.0000000000	47.0333487195	1.0000000000	638.6988901667	1.0000000000	0.0000000000	0.0000000000
0.4100000000	-0.0208951853	1.0000000000	0.2447667340	1.0000000000	0.0000000000	0.0000000000	53.3009310688	1.0000000000	649.7337606886	1.0000000000	0.0000000000	0.0000000000
0.4200000000	-0.0645893914	1.0000000000	0.0844421843	1.0000000000	0.0000000000	0.0000000000	59.7897954613	1.0000000000	660.3541198812	1.0000000000	0.0000000000	0.0000000000
0.4300000000	0.0000000000	1.0000000000	0.0000000000	1.0000000000	0.0000000000	0.0000000000	66.4620682650	1.0000000000	670.4077140439	1.0000000000	0.0000000000	0.0000000000
0.4400000000	0.0000000000	1.0000000000	0.0000000000	1.0000000000	0.0000000000	0.0000000000	73.3886777850	1.0000000000	679.9906567233	1.0000000000	0.0000000000	0.0000000000
0.4500000000	0.0000000000	1.0000000000	0.0000000000	1.0000000000	0.0000000000	0.0000000000	80.6524676144	1.0000000000	689.1241524477	1.0000000000	0.0000000000	0.0000000000
0.4600000000	0.0000000000	1.0000000000	0.0000000000	1.0000000000	0.0000000000	0.0000000000	88.2622490267	1.0000000000	697.2166340707	1.0000000000	0.0000000000	0.0000000000
0.4700000000	0.0000000000	1.0000000000	0.0000000000	1.0000000000	0.0000000000	0.0000000000	96.2509264240	1.0000000000	703.1825587427	1.0000000000	0.0000000000	0.0000000000
0.4800000000	0.0000000000	1.0000000000	0.0000000000	1.0000000000	0.0000000000	0.0000000000	104.5339844085	1.0000000000	705.9574487994	1.0000000000	0.0000000000	0.0000000000
0.4900000000	2.9125471881	1.0000000000	9.2320074675	1.0000000000	0.0000000000	0.0000000000	112.9515312103	1.0000000000	704.4810087739	1.0000000000	0.0000000000	0.0000000000
0.5000000000	4.3630638437	1.0000000000	33.7541176994	1.0000000000	0.0000000000	0.0000000000	121.3486910947	1.0000000000	697.3961655868	1.0000000000	0.0000000000	0.0000000000
0.5100000000	4.1510250930	1.0000000000	73.5923039161	1.0000000000	0.0000000000	0.0000000000	129.4163709113	1.0000000000	683.0959763881	1.0000000000	0.0000000000	0.0000000000
0.5200000000	-0.7596974783	1.0000000000	126.5484204412	1.0000000000	0.0000000000	0.0000000000	136.5788119679	1.0000000000	660.0357661947	1.0000000000	0.0000000000	0.0000000000
0.5300000000	-12.6219972724	1.0000000000	187.0905575276	1.0000000000	0.0000000000	0.0000000000	142.0640533545	1.0000000000	626.8738673256	1.0000000000	0.0000000000	0.0000000000
0.5400000000	-30.4238105837	1.0000000000	250.3923906609	1.0000000000	0.0000000000	0.0000000000	145.2582781466	1.0000000000	582.5835040439	1.0000000000	0.0000000000	0.0000000000
0.5500000000	-50.9877169152	1.0000000000	314.5934181494	1.0000000000	0.0000000000	0.0000000000	145.3741777585	1.0000000000	526.9274632045	1.0000000000	0.0000000000	0.0000000000
0.5600000000	-71.6341248066	1.0000000000	378.9748858418	1.0000000000	0.0000000000	0.0000000000	141.3448580127	1.0000000000	461.1197602933	1.0000000000	0.0000000000	0.0000000000
0.5700000000	-90.4814529916	1.0000000000	441.8091177702	1.0000000000	0.0000000000	0.0000000000	132.0797727831	1.0000000000	388.1285476014	1.0000000000	0.0000000000	0.0000000000
0.5800000000	-106.2174602319	1.0000000000	500.7071540040	1.0000000000	0.0000000000	0.0000000000	117.0214572998	1.0000000000	312.0846291725	1.0000000000	0.0000000000	0.0000000000
0.5900000000	-118.0349997667	1.0000000000	553.3976093848	1.0000000000	0.0000000000	0.0000000000	97.0039187158	1.0000000000	237.3075617702	1.0000000000	0.0000000000	0.0000000000
0.6000000000	-125.6192410312	1.0000000000	598.1990438989	1.0000000000	0.0000000000	0.0000000000	74.4363816650	1.0000000000	167.9867744339	1.0000000000	0.0000000000	0.0000000000
0.6100000000	-129.0900822555	1.0000000000	634.6273663932	1.0000000000	0.0000000000	0.0000000000	52.0063816878	1.0000000000	108.2717226489	1.0000000000	0.0000000000	0.0000000000
0.6200000000	-128.6121334300	1.0000000000	663.2347240936	1.0000000000	0.0000000000	0.0000000000	32.1464044583	1.0000000000	61.3836491140	1.0000000000	0.0000000000	0.0000000000
0.6300000000	-124.5865215226	1.0000000000	684.6666039077	1.0000000000	0.0000000000	0.0000000000	16.7592922306	1.0000000000	28.4886041586	1.0000000000	0.0000000000	0.0000000000
0.6400000000	-117.9372091270	1.0000000000	699.1904385478	1.0000000000	0.0000000000	0.0000000000	6.5548163621	1.0000000000	8.6163657212	1.0000000000	0.0000000000	0.0000000000
0.6500000000	-109.5478622556	1.0000000000	707.1203031672	1.0000000000	0.0000000000	0.0000000000	0.0000000000	1.0000000000	0.0000000000	1.0000000000	0.0000000000	0.0000000000
0.6600000000	-100.1303107318	1.0000000000	708.9247936739	1.0000000000	0.0000000000	0.0000000000	0.0000000000	1.0000000000	0.0000000000	1.0000000000	0.0000000000	0.0000000000
0.6700000000	-90.3799686190	1.0000000000	704.9643663632	1.0000000000	0.0000000000	0.0000000000	0.0000000000	1.0000000000	0.0000000000	1.0000000000	0.0000000000	0.0000000000
0.6800000000	-80.6202985196	1.0000000000	695.6331207161	1.0000000000	0.0000000000	0.0000000000	0.0000000000	1.0000000000	0.0000000000	1.0000000000	0.0000000000	0.0000000000
0.6900000000	-71.0739322930	1.0000000000	681.5041240528	1.0000000000	0.0000000000	0.0000000000	0.0000000000	1.0000000000	0.0000000000	1.0000000000	0.0000000000	0.0000000000
0.7000000000	-62.0124970638	1.0000000000	663.3153379247	1.0000000000	0.0000000000	0.0000000000	0.0000000000	1.0000000000	0.0000000000	1.0000000000	0.0000000000	0.0000000000
0.7100000000	-53.5320529591	1.0000000000	642.2320066721	1.0000000000	0.0000000000	0.0000000000	-0.0524105684	1.0000000000	0.0259599577	1.0000000000	0.0000000000	0.0000000000
0.7200000000	-45.7860894301	1.0000000000	619.7769445676	1.0000000000	0.0000000000	0.0000000000	0.0512140590	1.0000000000	0.1709852802	1.0000000000	0.0000000000	0.0000000000
0.7300000000	-38.9895105768	1.0000000000	597.4595249184	1.0000000000	0.0000000000	0.0000000000	0.0715111336	1.0000000000	0.1676415859	1.0000000000	0.0000000000	0.0000000000
0.7400000000	-33.0790144594	1.0000000000	576.7559703740	1.0000000000	0.0000000000	0.0000000000	0.0558359926	1.0000000000	0.1128866286	1.0000000000	0.0000000000	0.0000000000
0.7500000000	-27.9552095425	1.0000000000	558.9925931183	1.0000000000	0.0000000000	0.0000000000	0.0324534435	1.0000000000	0.0574934475	1.0000000000	0.0000000000	0.0000000000
0.7600000000	-23.4624209737	1.0000000000	544.9842298189	1.0000000000	0.0000000000	0.0000000000	0.0138206294	1.0000000000	0.0196482151	1.0000000000	0.0000000000	0.0000000000
0.7700000000	-19.3017117504	1.0000000000	534.9963716934	1.0000000000	0.0000000000	0.0000000000	0.0028133601	1.0000000000	0.0001922369	1.0000000000	0.0000000000	0.0000000000
0.7800000000	-15.2799522771	1.0000000000	529.0010295680	1.0000000000	0.0000000000	0.0000000000	0.0000000000	1.0000000000	0.0000000000	1.0000000000	0.0000000000	0.0000000000
0.7900000000	-11.2581927568	1.0000000000	526.7582892974	1.0000000000	0.0000000000	0.0000000000	0.0000000000	1.0000000000	0.0000000000	1.0000000000	0.0000000000	0.0000000000
0.8000000000	-7.0711264644	1.0000000000	527.8252830173	1.0000000000	0.0000000000	0.0000000000	0.0000000000	1.0000000000	0.0000000000	1.0000000000	0.0000000000	0.0000000000
0.8100000000	-2.7094936424	1.0000000000	531.7441330181	1.0000000000	0.0000000000	0.0000000000	0.0000000000	1.0000000000	0.0000000000	1.0000000000	0.0000000000	0.0000000000
0.8200000000	1.8299525685	1.0000000000	538.1344487249	1.0000000000	0.0000000000	0.0000000000	0.0000000000	1.0000000000	0.0000000000	1.0000000000	0.0000000000	0.0000000000
0.8300000000	6.4964189706	1.0000000000	546.5973781091	1.0000000000	0.0000000000	0.0000000000	0.0000000000	1.0000000000	0.0000000000	1.0000000000	0.0000000000	0.0000000000
0.8400000000	11.1316907059	1.0000000000	556.6957220293	1.0000000000	0.0000000000	0.0000000000	0.0000000000	1.0000000000	0.0000000000	1.0000000000	0.0000000000	0.0000000000
0.8500000000	15.7225553857	1.0000000000	567.9464022379	1.0000000000	0.0000000000	0.0000000000	0.0000000000	1.0000000000	0.0000000000	1.0000000000	0.0000000000	0.0000000000
0.8600000000	20.3428978552	1.0000000000	579.8577408969	1.0000000000	0.0000000000	0.0000000000	0.0000000000	1.0000000000	0.0000000000	1.0000000000	0.0000000000	0.0000000000
0.8700000000	25.0013044452	1.0000000000	592.0299493004	1.0000000000	0.0000000000	0.0000000000	0.0142409049	1.0000000000	0.0258315383	1.0000000000	0.0000000000	0.0000000000
0.8800000000	29.8522329733	1.0000000000	604.1524577521	1.0000000000	0.0000000000	0.0000000000	0.0197232390	1.0000000000	0.0909705616	1.0000000000	0.0000000000	0.0000000000
0.8900000000	34.9500921975	1.0000000000	616.0312633908	1.0000000000	0.0000000000	0.0000000000	0.0175062012	1.0000000000	0.1928744899	1.0000000000	0.0000000000	0.0000000000
0.9000000000	40.1851486181	1.0000000000	627.7097944681	1.0000000000	0.0000000000	0.0000000000	-0.0044724315	1.0000000000	0.3063926267	1.0000000000	0.0000000000	0.0000000000
0.9100000000	45.5549484029	1.0000000000	639.3965935750	1.0000000000	0.0000000000	0.0000000000	-0.0623759592	1.0000000000	0.3500635269	1.0000000000	0.0000000000	0.0000000000
0.9200000000	51.0558858761	1.0000000000	651.2256207036	1.0000000000	0.0000000000	0.0000000000	-0.1693647316	1.0000000000	0.1570635198	1.0000000000	0.0000000000	0.0000000000
0.9300000000	56.6911259489	1.0000000000	663.0617121240	1.0000000000	0.0000000000	0.0000000000	0.0000000000	1.0000000000	0.0000000000	1.0000000000	0.0000000000	0.0000000000
0.9400000000	62.6715187514	1.0000000000	674.4834198350	1.0000000000	0.0000000000	0.0000000000	0.0000000000	1.0000000000	0.0000000000	1.0000000000	0.0000000000	0.0000000000
0.9500000000	69.2034656516	1.0000000000	684.7829569146	1.0000000000	0.0000000000	0.0000000000	0.0000000000	1.0000000000	0.0000000000	1.0000000000	0.0000000000	0.0000000000
0.9600000000	76.4256157174	1.0000000000	692.9899495906	1.0000000000	0.0000000000	0.0000000000	0.0000000000	1.0000000000	0.0000000000	1.0000000000	0.0000000000	0.0000000000
0.9700000000	84.4996490396	1.0000000000	698.0156867304	1.0000000000	0.0000000000	0.0000000000	0.0000000000	1.0000000000	0.0000000000	1.0000000000	0.0000000000	0.0000000000
0.9800000000	93.3798796480	1.0000000000	698.6970139058	1.0000000000	0.0000000000	0.0000000000	0.0000000000	1.0000000000	0.0000000000	1.0000000000	0.0000000000	0.0000000000
0.9900000000	102.8628555129	1.0000000000	693.7782709744	1.0000000000	0.0000000000	0.0000000000	7.1346269831	1.0000000000	10.9201860874	1.0000000000	0.0000000000	0.0000000000
