name p1_grf_mean_speed_1.0
datacolumns 13
datarows 100
range 0.00000000 0.99000000
endheader
time	grf_x_l_mean	grf_x_l_var	grf_y_l_mean	grf_y_l_var	grf_z_l_mean	grf_z_l_var	grf_x_r_mean	grf_x_r_var	grf_y_r_mean	grf_y_r_var	grf_z_r_mean	grf_z_r_var
0.0000000000	81.3901852537	1.0000000000	684.7001939555	1.0000000000	0.0000000000	0.0000000000	6.7781994197	1.0000000000	10.8363454916	1.0000000000	0.0000000000	0.0000000000
0.0100000000	90.3971590011	1.0000000000	675.4041131459	1.0000000000	0.0000000000	0.0000000000	10.0829352731	1.0000000000	40.7651631919	1.0000000000	0.0000000000	0.0000000000
0.0200000000	99.5320258591	1.0000000000	658.9787364899	1.0000000000	0.0000000000	0.0000000000	9.3599025654	1.0000000000	88.8810085978	1.0000000000	0.0000000000	0.0000000000
0.0300000000	107.7879855960	1.0000000000	633.4330051488	1.0000000000	0.0000000000	0.0000000000	-0.3434406169	1.0000000000	151.6772917354	1.0000000000	0.0000000000	0.0000000000
0.0400000000	114.3357657563	1.0000000000	596.9424664502	1.0000000000	0.0000000000	0.0000000000	-19.0182107119	1.0000000000	223.8293379834	1.0000000000	0.0000000000	0.0000000000
0.0500000000	118.3866568539	1.0000000000	548.7139666397	1.0000000000	0.0000000000	0.0000000000	-41.5385512266	1.0000000000	300.3098078426	1.0000000000	0.0000000000	0.0000000000
0.0600000000	118.4706820854	1.0000000000	489.0379106318	1.0000000000	0.0000000000	0.0000000000	-63.2395390141	1.0000000000	376.0565897706	1.0000000000	0.0000000000	0.0000000000
0.0700000000	113.4270803377	1.0000000000	419.5082086782	1.0000000000	0.0000000000	0.0000000000	-81.3890052822	1.0000000000	445.4008582227	1.0000000000	0.0000000000	0.0000000000
0.0800000000	103.2385258676	1.0000000000	343.0918411346	1.0000000000	0.0000000000	0.0000000000	-94.5777902378	1.0000000000	503.6600137169	1.0000000000	0.0000000000	0.0000000000
0.0900000000	88.1729480760	1.0000000000	264.0888707035	1.0000000000	0.0000000000	0.0000000000	-102.3591507663	1.0000000000	548.4703298441	1.0000000000	0.0000000000	0.0000000000
0.1000000000	69.1336800827	1.0000000000	187.9941842211	1.0000000000	0.0000000000	0.0000000000	-105.4179534929	1.0000000000	580.4924999137	1.0000000000	0.0000000000	0.0000000000
0.1100000000	48.1710995385	1.0000000000	120.7019702082	1.0000000000	0.0000000000	0.0000000000	-104.8730995262	1.0000000000	603.0476707832	1.0000000000	0.0000000000	0.0000000000
0.1200000000	28.6486397794	1.0000000000	67.1365961125	1.0000000000	0.0000000000	0.0000000000	-101.6268906300	1.0000000000	619.6436817019	1.0000000000	0.0000000000	0.0000000000
0.1300000000	13.4371742963	1.0000000000	29.6343305548	1.0000000000	0.0000000000	0.0000000000	-96.5387542733	1.0000000000	632.3510896739	1.0000000000	0.0000000000	0.0000000000
0.1400000000	3.8515546962	1.0000000000	7.5829127369	1.0000000000	0.0000000000	0.0000000000	-90.3628084020	1.0000000000	642.2150399709	1.0000000000	0.0000000000	0.0000000000
0.1500000000	0.0000000000	1.0000000000	0.0000000000	1.0000000000	0.0000000000	0.0000000000	-83.6451998058	1.0000000000	649.4926754799	1.0000000000	0.0000000000	0.0000000000
0.1600000000	0.0000000000	1.0000000000	0.0000000000	1.0000000000	0.0000000000	0.0000000000	-76.5872748617	1.0000000000	653.5157726938	1.0000000000	0.0000000000	0.0000000000
0.1700000000	0.0000000000	1.0000000000	0.0000000000	1.0000000000	0.0000000000	0.0000000000	-69.3192303982	1.0000000000	653.5302581034	1.0000000000	0.0000000000	0.0000000000
0.1800000000	0.0000000000	1.0000000000	0.0000000000	1.0000000000	0.0000000000	0.0000000000	-61.8914623919	1.0000000000	649.7739660614	1.0000000000	0.0000000000	0.0000000000
0.1900000000	0.0000000000	1.0000000000	0.0000000000	1.0000000000	0.0000000000	0.0000000000	-54.6445861422	1.0000000000	643.0629062624	1.0000000000	0.0000000000	0.0000000000
0.2000000000	0.0000000000	1.0000000000	0.0000000000	1.0000000000	0.0000000000	0.0000000000	-47.8497846359	1.0000000000	634.1165982279	1.0000000000	0.0000000000	0.0000000000
0.2100000000	0.0148744613	1.0000000000	0.1576528179	1.0000000000	0.0000000000	0.0000000000	-41.8107441348	1.0000000000	623.7116929379	1.0000000000	0.0000000000	0.0000000000
0.2200000000	0.0528334860	1.0000000000	0.2159915068	1.0000000000	0.0000000000	0.0000000000	-36.6933703514	1.0000000000	612.8414297600	1.0000000000	0.0000000000	0.0000000000
0.2300000000	0.0409096826	1.0000000000	0.1622161816	1.0000000000	0.0000000000	0.0000000000	-32.4180562101	1.0000000000	602.5495408098	1.0000000000	0.0000000000	0.0000000000
0.2400000000	0.0212778614	1.0000000000	0.0877698967	1.0000000000	0.0000000000	0.0000000000	-28.7735380257	1.0000000000	593.6125008308	1.0000000000	0.0000000000	0.0000000000
0.2500000000	0.0074175678	1.0000000000	0.0323189175	1.0000000000	0.0000000000	0.0000000000	-25.3830971101	1.0000000000	586.5210892968	1.0000000000	0.0000000000	0.0000000000
0.2600000000	-0.0007355181	1.0000000000	0.0025127477	1.0000000000	0.0000000000	0.0000000000	-21.9973891205	1.0000000000	581.7855066072	1.0000000000	0.0000000000	0.0000000000
0.2700000000	0.0000000000	1.0000000000	0.0000000000	1.0000000000	0.0000000000	0.0000000000	-18.5454607073	1.0000000000	579.7106152421	1.0000000000	0.0000000000	0.0000000000
0.2800000000	0.0000000000	1.0000000000	0.0000000000	1.0000000000	0.0000000000	0.0000000000	-15.0054716898	1.0000000000	579.9509794507	1.0000000000	0.0000000000	0.0000000000
0.2900000000	0.0000000000	1.0000000000	0.0000000000	1.0000000000	0.0000000000	0.0000000000	-11.4760909672	1.0000000000	582.0304687378	1.0000000000	0.0000000000	0.0000000000
0.3000000000	-0.0233566450	1.0000000000	0.0021329020	1.0000000000	0.0000000000	0.0000000000	-8.0943904004	1.0000000000	585.7661033307	1.0000000000	0.0000000000	0.0000000000
0.3100000000	-0.0185161363	1.0000000000	0.0038279357	1.0000000000	0.0000000000	0.0000000000	-4.9084873308	1.0000000000	590.8381702105	1.0000000000	0.0000000000	0.0000000000
0.3200000000	-0.0113925511	1.0000000000	0.0024687579	1.0000000000	0.0000000000	0.0000000000	-1.8716554407	1.0000000000	596.8328636970	1.0000000000	0.0000000000	0.0000000000
0.3300000000	0.0000000000	1.0000000000	0.0000000000	1.0000000000	0.0000000000	0.0000000000	1.1406506364	1.0000000000	603.3874095864	1.0000000000	0.0000000000	0.0000000000
0.3400000000	0.0000000000	1.0000000000	0.0000000000	1.0000000000	0.0000000000	0.0000000000	4.3106971634	1.0000000000	610.1930777555	1.0000000000	0.0000000000	0.0000000000
0.3500000000	0.0000000000	1.0000000000	0.0000000000	1.0000000000	0.0000000000	0.0000000000	7.8465105687	1.0000000000	616.9715896272	1.0000000000	0.0000000000	0.0000000000
0.3600000000	0.0000000000	1.0000000000	0.0000000000	1.0000000000	0.0000000000	0.0000000000	11.9200124716	1.0000000000	623.3079110746	1.0000000000	0.0000000000	0.0000000000
0.3700000000	0.0034776612	1.0000000000	0.0094692452	1.0000000000	0.0000000000	0.0000000000	16.5560923386	1.0000000000	628.9700300743	1.0000000000	0.0000000000	0.0000000000
0.3800000000	0.0077513270	1.0000000000	0.0359104011	1.0000000000	0.0000000000	0.0000000000	21.6008316656	1.0000000000	634.1363231524	1.0000000000	0.0000000000	0.0000000000
0.3900000000	0.0118177826	1.0000000000	0.0831804003	1.0000000000	0.0000000000	0.0000000000	26.8405818609	1.0000000000	639.1760340205	1.0000000000	0.0000000000	0.0000000000
0.4000000000	0.0111740017	1.0000000000	0.1445879422	1.0000000000	0.0000000000	0.0000000000	32.0715938742	1.0000000000	644.3513835631	1.0000000000	0.0000000000	0.0000000000
0.4100000000	-0.0027653643	1.0000000000	0.1823212972	1.0000000000	0.0000000000	0.0000000000	37.1708794396	1.0000000000	649.8196060037	1.0000000000	0.0000000000	0.0000000000
0.4200000000	-0.0418735258	1.0000000000	0.1073666637	1.0000000000	0.0000000000	0.0000000000	42.1278406115	1.0000000000	655.8126355050	1.0000000000	0.0000000000	0.0000000000
0.4300000000	0.0000000000	1.0000000000	0.0000000000	1.0000000000	0.0000000000	0.0000000000	47.0596074699	1.0000000000	662.2700105804	1.0000000000	0.0000000000	0.0000000000
0.4400000000	0.0000000000	1.0000000000	0.0000000000	1.0000000000	0.0000000000	0.0000000000	52.1520348262	1.0000000000	668.8393921832	1.0000000000	0.0000000000	0.0000000000
0.4500000000	0.0000000000	1.0000000000	0.0000000000	1.0000000000	0.0000000000	0.0000000000	57.6084199809	1.0000000000	675.1610694318	1.0000000000	0.0000000000	0.0000000000
0.4600000000	0.0000000000	1.0000000000	0.0000000000	1.0000000000	0.0000000000	0.0000000000	63.5797353685	1.0000000000	680.6799712546	1.0000000000	0.0000000000	0.0000000000
0.4700000000	0.0000000000	1.0000000000	0.0000000000	1.0000000000	0.0000000000	0.0000000000	70.1514253733	1.0000000000	684.6770385792	1.0000000000	0.0000000000	0.0000000000
0.4800000000	0.0000000000	1.0000000000	0.0000000000	1.0000000000	0.0000000000	0.0000000000	77.3098404810	1.0000000000	686.2756997537	1.0000000000	0.0000000000	0.0000000000
0.4900000000	3.3237380440	1.0000000000	9.2562211889	1.0000000000	0.0000000000	0.0000000000	84.9174285694	1.0000000000	684.5611689827	1.0000000000	0.0000000000	0.0000000000
0.5000000000	5.4732996205	1.0000000000	30.5577013463	1.0000000000	0.0000000000	0.0000000000	92.7177252331	1.0000000000	678.7640396084	1.0000000000	0.0000000000	0.0000000000
0.5100000000	5.9883902497	1.0000000000	64.6635006137	1.0000000000	0.0000000000	0.0000000000	100.3565839501	1.0000000000	667.8969215168	1.0000000000	0.0000000000	0.0000000000
0.5200000000	2.0731967954	1.0000000000	109.7716433922	1.0000000000	0.0000000000	0.0000000000	107.3743519233	1.0000000000	650.6945274486	1.0000000000	0.0000000000	0.0000000000
0.5300000000	-7.8152504388	1.0000000000	162.1950723256	1.0000000000	0.0000000000	0.0000000000	113.3284608704	1.0000000000	625.7462705023	1.0000000000	0.0000000000	0.0000000000
0.5400000000	-22.4969795501	1.0000000000	219.0099441380	1.0000000000	0.0000000000	0.0000000000	117.8849449289	1.0000000000	591.7268032297	1.0000000000	0.0000000000	0.0000000000
0.5500000000	-39.2549821577	1.0000000000	278.3187484433	1.0000000000	0.0000000000	0.0000000000	120.4944457579	1.0000000000	547.8298037513	1.0000000000	0.0000000000	0.0000000000
0.5600000000	-55.6965883323	1.0000000000	337.9699629155	1.0000000000	0.0000000000	0.0000000000	120.4095848718	1.0000000000	494.0218306913	1.0000000000	0.0000000000	0.0000000000
0.5700000000	-70.1348380842	1.0000000000	394.8097293442	1.0000000000	0.0000000000	0.0000000000	116.6753346995	1.0000000000	431.5404113318	1.0000000000	0.0000000000	0.0000000000
0.5800000000	-81.6798780589	1.0000000000	445.7814158879	1.0000000000	0.0000000000	0.0000000000	108.3555709918	1.0000000000	362.9734253597	1.0000000000	0.0000000000	0.0000000000
0.5900000000	-90.0137912239	1.0000000000	489.2391238865	1.0000000000	0.0000000000	0.0000000000	95.3711590744	1.0000000000	291.7562135176	1.0000000000	0.0000000000	0.0000000000
0.6000000000	-95.1617057443	1.0000000000	525.1531889466	1.0000000000	0.0000000000	0.0000000000	78.7048789246	1.0000000000	221.9890655956	1.0000000000	0.0000000000	0.0000000000
0.6100000000	-97.4132014576	1.0000000000	554.8925423738	1.0000000000	0.0000000000	0.0000000000	60.1359602576	1.0000000000	157.8021791719	1.0000000000	0.0000000000	0.0000000000
0.6200000000	-96.9629185963	1.0000000000	580.1617237751	1.0000000000	0.0000000000	0.0000000000	41.8907745765	1.0000000000	102.7828944016	1.0000000000	0.0000000000	0.0000000000
0.6300000000	-94.1125892360	1.0000000000	601.9411090752	1.0000000000	0.0000000000	0.0000000000	25.9766418685	1.0000000000	59.4635499114	1.0000000000	0.0000000000	0.0000000000
0.6400000000	-89.3766457103	1.0000000000	620.4470536689	1.0000000000	0.0000000000	0.0000000000	13.7168096844	1.0000000000	28.8081842152	1.0000000000	0.0000000000	0.0000000000
0.6500000000	-83.2912666907	1.0000000000	635.2514137478	1.0000000000	0.0000000000	0.0000000000	5.5749113181	1.0000000000	10.0538072894	1.0000000000	0.0000000000	0.0000000000
0.6600000000	-76.4997528398	1.0000000000	645.7924708294	1.0000000000	0.0000000000	0.0000000000	1.1257547209	1.0000000000	0.7397096598	1.0000000000	0.0000000000	0.0000000000
0.6700000000	-69.4860302104	1.0000000000	651.8092292500	1.0000000000	0.0000000000	0.0000000000	0.0000000000	1.0000000000	0.0000000000	1.0000000000	0.0000000000	0.0000000000
0.6800000000	-62.5178094478	1.0000000000	653.4670196474	1.0000000000	0.0000000000	0.0000000000	0.0000000000	1.0000000000	0.0000000000	1.0000000000	0.0000000000	0.0000000000
0.6900000000	-55.7979366595	1.0000000000	651.2834953173	1.0000000000	0.0000000000	0.0000000000	0.0000000000	1.0000000000	0.0000000000	1.0000000000	0.0000000000	0.0000000000
0.7000000000	-49.3726182819	1.0000000000	645.8222166672	1.0000000000	0.0000000000	0.0000000000	0.0000000000	1.0000000000	0.0000000000	1.0000000000	0.0000000000	0.0000000000
0.7100000000	-43.3309840678	1.0000000000	637.8330794385	1.0000000000	0.0000000000	0.0000000000	0.0000000000	1.0000000000	0.0000000000	1.0000000000	0.0000000000	0.0000000000
0.7200000000	-37.7542280255	1.0000000000	628.1952638711	1.0000000000	0.0000000000	0.0000000000	-0.0176542546	1.0000000000	0.0232783870	1.0000000000	0.0000000000	0.0000000000
0.7300000000	-32.6706331555	1.0000000000	617.8478665974	1.0000000000	0.0000000000	0.0000000000	0.0369819700	1.0000000000	0.1141595940	1.0000000000	0.0000000000	0.0000000000
0.7400000000	-28.1118520092	1.0000000000	607.8265156898	1.0000000000	0.0000000000	0.0000000000	0.0423756288	1.0000000000	0.1049165739	1.0000000000	0.0000000000	0.0000000000
0.7500000000	-24.0108920906	1.0000000000	598.8746975531	1.0000000000	0.0000000000	0.0000000000	0.0295361774	1.0000000000	0.0656019841	1.0000000000	0.0000000000	0.0000000000
0.7600000000	-20.2688707303	1.0000000000	591.5291663166	1.0000000000	0.0000000000	0.0000000000	0.0150755167	1.0000000000	0.0299080975	1.0000000000	0.0000000000	0.0000000000
0.7700000000	-16.7941216089	1.0000000000	586.1433840916	1.0000000000	0.0000000000	0.0000000000	0.0050759155	1.0000000000	0.0078079851	1.0000000000	0.0000000000	0.0000000000
0.7800000000	-13.4512683684	1.0000000000	582.8069973708	1.0000000000	0.0000000000	0.0000000000	0.0000000000	1.0000000000	0.0000000000	1.0000000000	0.0000000000	0.0000000000
0.7900000000	-10.1402787809	1.0000000000	581.5766316829	1.0000000000	0.0000000000	0.0000000000	0.0000000000	1.0000000000	0.0000000000	1.0000000000	0.0000000000	0.0000000000
0.8000000000	-6.7085711486	1.0000000000	582.3157641405	1.0000000000	0.0000000000	0.0000000000	0.0000000000	1.0000000000	0.0000000000	1.0000000000	0.0000000000	0.0000000000
0.8100000000	-3.1138243676	1.0000000000	584.7742610614	1.0000000000	0.0000000000	0.0000000000	0.0000000000	1.0000000000	0.0000000000	1.0000000000	0.0000000000	0.0000000000
0.8200000000	0.5739913628	1.0000000000	588.6661941404	1.0000000000	0.0000000000	0.0000000000	0.0000000000	1.0000000000	0.0000000000	1.0000000000	0.0000000000	0.0000000000
0.8300000000	4.3208760610	1.0000000000	593.6382083181	1.0000000000	0.0000000000	0.0000000000	0.0000000000	1.0000000000	0.0000000000	1.0000000000	0.0000000000	0.0000000000
0.8400000000	8.0348920300	1.0000000000	599.4679867735	1.0000000000	0.0000000000	0.0000000000	0.0000000000	1.0000000000	0.0000000000	1.0000000000	0.0000000000	0.0000000000
0.8500000000	11.7478839342	1.0000000000	605.8889614983	1.0000000000	0.0000000000	0.0000000000	0.0000000000	1.0000000000	0.0000000000	1.0000000000	0.0000000000	0.0000000000
0.8600000000	15.5173706933	1.0000000000	612.6613509308	1.0000000000	0.0000000000	0.0000000000	0.0000000000	1.0000000000	0.0000000000	1.0000000000	0.0000000000	0.0000000000
0.8700000000	19.3877497714	1.0000000000	619.6294269835	1.0000000000	0.0000000000	0.0000000000	0.0089529225	1.0000000000	0.0035037569	1.0000000000	0.0000000000	0.0000000000
0.8800000000	23.4680672373	1.0000000000	626.6781682990	1.0000000000	0.0000000000	0.0000000000	0.0158699731	1.0000000000	0.0413846632	1.0000000000	0.0000000000	0.0000000000
0.8900000000	27.6921113840	1.0000000000	633.8740331234	1.0000000000	0.0000000000	0.0000000000	0.0201460736	1.0000000000	0.1121158546	1.0000000000	0.0000000000	0.0000000000
0.9000000000	31.9599704590	1.0000000000	641.2681303749	1.0000000000	0.0000000000	0.0000000000	0.0120155933	1.0000000000	0.2076602314	1.0000000000	0.0000000000	0.0000000000
0.9100000000	36.1904354299	1.0000000000	648.9650938703	1.0000000000	0.0000000000	0.0000000000	-0.0248486919	1.0000000000	0.2780241521	1.0000000000	0.0000000000	0.0000000000
0.9200000000	40.3061848527	1.0000000000	656.9459423180	1.0000000000	0.0000000000	0.0000000000	-0.1093862856	1.0000000000	0.1994325082	1.0000000000	0.0000000000	0.0000000000
0.9300000000	44.4106232940	1.0000000000	664.9248024044	1.0000000000	0.0000000000	0.0000000000	0.0000000000	1.0000000000	0.0000000000	1.0000000000	0.0000000000	0.0000000000
0.9400000000	48.6919237800	1.0000000000	672.5809537413	1.0000000000	0.0000000000	0.0000000000	0.0000000000	1.0000000000	0.0000000000	1.0000000000	0.0000000000	0.0000000000
0.9500000000	53.4191987101	1.0000000000	679.3825832552	1.0000000000	0.0000000000	0.0000000000	0.0000000000	1.0000000000	0.0000000000	1.0000000000	0.0000000000	0.0000000000
0.9600000000	58.8932635455	1.0000000000	684.7830544853	1.0000000000	0.0000000000	0.0000000000	0.0000000000	1.0000000000	0.0000000000	1.0000000000	0.0000000000	0.0000000000
0.9700000000	65.3276437899	1.0000000000	688.1134219590	1.0000000000	0.0000000000	0.0000000000	0.0000000000	1.0000000000	0.0000000000	1.0000000000	0.0000000000	0.0000000000
0.9800000000	72.8062066164	1.0000000000	688.4147856796	1.0000000000	0.0000000000	0.0000000000	0.0000000000	1.0000000000	0.0000000000	1.0000000000	0.0000000000	0.0000000000
0.9900000000	81.2076810470	1.0000000000	684.6259279575	1.0000000000	0.0000000000	0.0000000000	6.7755673969	1.0000000000	10.8334827391	1.0000000000	0.0000000000	0.0000000000
