name p2_grf_mean_speed_1.4
datacolumns 13
datarows 100
range 0.00000000 0.99000000
endheader
time	grf_x_l_mean	grf_x_l_var	grf_y_l_mean	grf_y_l_var	grf_z_l_mean	grf_z_l_var	grf_x_r_mean	grf_x_r_var	grf_y_r_mean	grf_y_r_var	grf_z_r_mean	grf_z_r_var
0.0000000000	147.8631258276	1.0000000000	697.5951289431	1.0000000000	0.0000000000	0.0000000000	11.9619938382	1.0000000000	10.8484909375	1.0000000000	0.0000000000	0.0000000000
0.0100000000	154.3643829255	1.0000000000	682.6589477193	1.0000000000	0.0000000000	0.0000000000	22.1287800655	1.0000000000	36.2181706749	1.0000000000	0.0000000000	0.0000000000
0.0200000000	158.6480995990	1.0000000000	655.7442581009	1.0000000000	0.0000000000	0.0000000000	31.7469149372	1.0000000000	75.4095313124	1.0000000000	0.0000000000	0.0000000000
0.0300000000	159.9049473254	1.0000000000	615.8726969341	1.0000000000	0.0000000000	0.0000000000	32.7781739971	1.0000000000	125.0448124929	1.0000000000	0.0000000000	0.0000000000
0.0400000000	156.5200193218	1.0000000000	562.5426172934	1.0000000000	0.0000000000	0.0000000000	21.7296804527	1.0000000000	182.4143131245	1.0000000000	0.0000000000	0.0000000000
0.0500000000	148.9707735768	1.0000000000	497.4989722997	1.0000000000	0.0000000000	0.0000000000	3.6320028475	1.0000000000	248.3888425797	1.0000000000	0.0000000000	0.0000000000
0.0600000000	136.7348213946	1.0000000000	424.0271423422	1.0000000000	0.0000000000	0.0000000000	-19.4969595104	1.0000000000	322.2787411352	1.0000000000	0.0000000000	0.0000000000
0.0700000000	118.4653003410	1.0000000000	345.7159378971	1.0000000000	0.0000000000	0.0000000000	-47.2655802378	1.0000000000	398.6331692363	1.0000000000	0.0000000000	0.0000000000
0.0800000000	96.6213047130	1.0000000000	267.6860088692	1.0000000000	0.0000000000	0.0000000000	-75.1719418218	1.0000000000	471.1597725244	1.0000000000	0.0000000000	0.0000000000
0.0900000000	72.7140862978	1.0000000000	195.9212495978	1.0000000000	0.0000000000	0.0000000000	-100.2311040547	1.0000000000	536.2908573104	1.0000000000	0.0000000000	0.0000000000
0.1000000000	49.1419376414	1.0000000000	133.8131046789	1.0000000000	0.0000000000	0.0000000000	-122.4234029757	1.0000000000	592.7661392189	1.0000000000	0.0000000000	0.0000000000
0.1100000000	29.9770260169	1.0000000000	83.1546980525	1.0000000000	0.0000000000	0.0000000000	-139.5659048931	1.0000000000	642.0230759228	1.0000000000	0.0000000000	0.0000000000
0.1200000000	16.1732513038	1.0000000000	45.5417362064	1.0000000000	0.0000000000	0.0000000000	-150.6523252855	1.0000000000	685.6950869986	1.0000000000	0.0000000000	0.0000000000
0.1300000000	7.1010294492	1.0000000000	20.2080884168	1.0000000000	0.0000000000	0.0000000000	-156.5398103912	1.0000000000	721.7017859110	1.0000000000	0.0000000000	0.0000000000
0.1400000000	2.6482859882	1.0000000000	4.6908794098	1.0000000000	0.0000000000	0.0000000000	-156.2233114287	1.0000000000	746.6151961833	1.0000000000	0.0000000000	0.0000000000
0.1500000000	0.0000000000	1.0000000000	0.0000000000	1.0000000000	0.0000000000	0.0000000000	-150.3245458058	1.0000000000	760.1555251266	1.0000000000	0.0000000000	0.0000000000
0.1600000000	0.0000000000	1.0000000000	0.0000000000	1.0000000000	0.0000000000	0.0000000000	-141.1739261234	1.0000000000	764.0080292112	1.0000000000	0.0000000000	0.0000000000
0.1700000000	0.0000000000	1.0000000000	0.0000000000	1.0000000000	0.0000000000	0.0000000000	-129.3502038647	1.0000000000	758.7260006678	1.0000000000	0.0000000000	0.0000000000
0.1800000000	0.0000000000	1.0000000000	0.0000000000	1.0000000000	0.0000000000	0.0000000000	-115.8221669185	1.0000000000	744.2332094316	1.0000000000	0.0000000000	0.0000000000
0.1900000000	0.0000000000	1.0000000000	0.0000000000	1.0000000000	0.0000000000	0.0000000000	-102.1695831276	1.0000000000	721.0950172919	1.0000000000	0.0000000000	0.0000000000
0.2000000000	0.0000000000	1.0000000000	0.0000000000	1.0000000000	0.0000000000	0.0000000000	-88.6088657360	1.0000000000	690.7698316860	1.0000000000	0.0000000000	0.0000000000
0.2100000000	0.0000000000	1.0000000000	0.0000000000	1.0000000000	0.0000000000	0.0000000000	-75.6741227658	1.0000000000	654.9253701975	1.0000000000	0.0000000000	0.0000000000
0.2200000000	0.0000000000	1.0000000000	0.0000000000	1.0000000000	0.0000000000	0.0000000000	-64.0222030060	1.0000000000	615.0996796792	1.0000000000	0.0000000000	0.0000000000
0.2300000000	0.0000000000	1.0000000000	0.0000000000	1.0000000000	0.0000000000	0.0000000000	-53.4041908902	1.0000000000	573.4764529968	1.0000000000	0.0000000000	0.0000000000
0.2400000000	0.0000000000	1.0000000000	0.0000000000	1.0000000000	0.0000000000	0.0000000000	-43.8323109453	1.0000000000	533.0605962309	1.0000000000	0.0000000000	0.0000000000
0.2500000000	0.0000000000	1.0000000000	0.0000000000	1.0000000000	0.0000000000	0.0000000000	-35.4684423703	1.0000000000	496.3341634594	1.0000000000	0.0000000000	0.0000000000
0.2600000000	0.0000000000	1.0000000000	0.0000000000	1.0000000000	0.0000000000	0.0000000000	-28.1013836538	1.0000000000	464.5504641383	1.0000000000	0.0000000000	0.0000000000
0.2700000000	0.0000000000	1.0000000000	0.0000000000	1.0000000000	0.0000000000	0.0000000000	-21.6315466227	1.0000000000	438.1350078321	1.0000000000	0.0000000000	0.0000000000
0.2800000000	0.0000000000	1.0000000000	0.0000000000	1.0000000000	0.0000000000	0.0000000000	-15.9239960809	1.0000000000	417.2920530044	1.0000000000	0.0000000000	0.0000000000
0.2900000000	0.0000000000	1.0000000000	0.0000000000	1.0000000000	0.0000000000	0.0000000000	-11.0372729454	1.0000000000	402.5960521853	1.0000000000	0.0000000000	0.0000000000
0.3000000000	0.0000000000	1.0000000000	0.0000000000	1.0000000000	0.0000000000	0.0000000000	-6.9331075959	1.0000000000	394.0289663963	1.0000000000	0.0000000000	0.0000000000
0.3100000000	0.0000000000	1.0000000000	0.0000000000	1.0000000000	0.0000000000	0.0000000000	-3.1953393195	1.0000000000	390.2280512912	1.0000000000	0.0000000000	0.0000000000
0.3200000000	0.0000000000	1.0000000000	0.0000000000	1.0000000000	0.0000000000	0.0000000000	0.2841432725	1.0000000000	390.2687687340	1.0000000000	0.0000000000	0.0000000000
0.3300000000	0.0000000000	1.0000000000	0.0000000000	1.0000000000	0.0000000000	0.0000000000	3.4794214153	1.0000000000	394.3553120044	1.0000000000	0.0000000000	0.0000000000
0.3400000000	0.0000000000	1.0000000000	0.0000000000	1.0000000000	0.0000000000	0.0000000000	6.9042964164	1.0000000000	402.1685103951	1.0000000000	0.0000000000	0.0000000000
0.3500000000	0.0000000000	1.0000000000	0.0000000000	1.0000000000	0.0000000000	0.0000000000	10.6948727193	1.0000000000	412.9709970862	1.0000000000	0.0000000000	0.0000000000
0.3600000000	0.0000000000	1.0000000000	0.0000000000	1.0000000000	0.0000000000	0.0000000000	14.9535000456	1.0000000000	426.7276236281	1.0000000000	0.0000000000	0.0000000000
0.3700000000	0.0000000000	1.0000000000	0.0000000000	1.0000000000	0.0000000000	0.0000000000	20.0328796433	1.0000000000	443.7596257102	1.0000000000	0.0000000000	0.0000000000
0.3800000000	0.0000000000	1.0000000000	0.0000000000	1.0000000000	0.0000000000	0.0000000000	25.8241585588	1.0000000000	464.3192232284	1.0000000000	0.0000000000	0.0000000000
0.3900000000	0.0000000000	1.0000000000	0.0000000000	1.0000000000	0.0000000000	0.0000000000	32.3400521415	1.0000000000	488.2822631460	1.0000000000	0.0000000000	0.0000000000
0.4000000000	0.0000000000	1.0000000000	0.0000000000	1.0000000000	0.0000000000	0.0000000000	39.9546421412	1.0000000000	514.7220974040	1.0000000000	0.0000000000	0.0000000000
0.4100000000	0.0000000000	1.0000000000	0.0000000000	1.0000000000	0.0000000000	0.0000000000	48.5080740690	1.0000000000	542.6182452711	1.0000000000	0.0000000000	0.0000000000
0.4200000000	0.0000000000	1.0000000000	0.0000000000	1.0000000000	0.0000000000	0.0000000000	57.8618662983	1.0000000000	571.3521544536	1.0000000000	0.0000000000	0.0000000000
0.4300000000	0.0000000000	1.0000000000	0.0000000000	1.0000000000	0.0000000000	0.0000000000	68.0915868780	1.0000000000	599.8119276969	1.0000000000	0.0000000000	0.0000000000
0.4400000000	0.0000000000	1.0000000000	0.0000000000	1.0000000000	0.0000000000	0.0000000000	78.8076256395	1.0000000000	626.2363213833	1.0000000000	0.0000000000	0.0000000000
0.4500000000	0.0000000000	1.0000000000	0.0000000000	1.0000000000	0.0000000000	0.0000000000	89.7038815223	1.0000000000	649.2839023744	1.0000000000	0.0000000000	0.0000000000
0.4600000000	0.0000000000	1.0000000000	0.0000000000	1.0000000000	0.0000000000	0.0000000000	100.6231216882	1.0000000000	668.1040208257	1.0000000000	0.0000000000	0.0000000000
0.4700000000	0.0000000000	1.0000000000	0.0000000000	1.0000000000	0.0000000000	0.0000000000	111.0391026767	1.0000000000	681.4631290833	1.0000000000	0.0000000000	0.0000000000
0.4800000000	5.4428248501	1.0000000000	1.0315530235	1.0000000000	0.0000000000	0.0000000000	120.7011236457	1.0000000000	687.7366409213	1.0000000000	0.0000000000	0.0000000000
0.4900000000	12.8416723356	1.0000000000	13.9505402188	1.0000000000	0.0000000000	0.0000000000	129.5482357082	1.0000000000	685.5908091242	1.0000000000	0.0000000000	0.0000000000
0.5000000000	22.9014951525	1.0000000000	37.5772230063	1.0000000000	0.0000000000	0.0000000000	137.1893334912	1.0000000000	674.1733441730	1.0000000000	0.0000000000	0.0000000000
0.5100000000	32.2602043402	1.0000000000	72.2325465027	1.0000000000	0.0000000000	0.0000000000	143.3690951979	1.0000000000	652.8631917614	1.0000000000	0.0000000000	0.0000000000
0.5200000000	34.9987518235	1.0000000000	115.2600992403	1.0000000000	0.0000000000	0.0000000000	147.7170958623	1.0000000000	621.0599811389	1.0000000000	0.0000000000	0.0000000000
0.5300000000	27.6949894610	1.0000000000	164.3560063547	1.0000000000	0.0000000000	0.0000000000	149.3974934294	1.0000000000	578.5322400584	1.0000000000	0.0000000000	0.0000000000
0.5400000000	12.4170133080	1.0000000000	220.1240000574	1.0000000000	0.0000000000	0.0000000000	148.2639308473	1.0000000000	526.2066015570	1.0000000000	0.0000000000	0.0000000000
0.5500000000	-8.4149730263	1.0000000000	283.0817640690	1.0000000000	0.0000000000	0.0000000000	143.7191462478	1.0000000000	465.7940968819	1.0000000000	0.0000000000	0.0000000000
0.5600000000	-33.7436431755	1.0000000000	349.6523636225	1.0000000000	0.0000000000	0.0000000000	134.5365995614	1.0000000000	398.7880252110	1.0000000000	0.0000000000	0.0000000000
0.5700000000	-60.8744996977	1.0000000000	413.8301799004	1.0000000000	0.0000000000	0.0000000000	121.0310332643	1.0000000000	327.4490459417	1.0000000000	0.0000000000	0.0000000000
0.5800000000	-87.2465016241	1.0000000000	472.3150264009	1.0000000000	0.0000000000	0.0000000000	103.5454110431	1.0000000000	255.9583240787	1.0000000000	0.0000000000	0.0000000000
0.5900000000	-111.6541605011	1.0000000000	525.8077867885	1.0000000000	0.0000000000	0.0000000000	82.5800543123	1.0000000000	188.7376180110	1.0000000000	0.0000000000	0.0000000000
0.6000000000	-132.1332785392	1.0000000000	576.3010953600	1.0000000000	0.0000000000	0.0000000000	60.7676208101	1.0000000000	129.1242552011	1.0000000000	0.0000000000	0.0000000000
0.6100000000	-147.1696466614	1.0000000000	624.5131636115	1.0000000000	0.0000000000	0.0000000000	40.7124086303	1.0000000000	80.1252998555	1.0000000000	0.0000000000	0.0000000000
0.6200000000	-156.1168470174	1.0000000000	668.7719318577	1.0000000000	0.0000000000	0.0000000000	24.0070969043	1.0000000000	43.6004183467	1.0000000000	0.0000000000	0.0000000000
0.6300000000	-158.1598667066	1.0000000000	706.0172464684	1.0000000000	0.0000000000	0.0000000000	12.2521089324	1.0000000000	19.0709510184	1.0000000000	0.0000000000	0.0000000000
0.6400000000	-154.2389984134	1.0000000000	734.1039783950	1.0000000000	0.0000000000	0.0000000000	5.3083870703	1.0000000000	4.7375709464	1.0000000000	0.0000000000	0.0000000000
0.6500000000	-146.2245499115	1.0000000000	752.4717271522	1.0000000000	0.0000000000	0.0000000000	0.0000000000	1.0000000000	0.0000000000	1.0000000000	0.0000000000	0.0000000000
0.6600000000	-135.0821028419	1.0000000000	760.9095676625	1.0000000000	0.0000000000	0.0000000000	0.0000000000	1.0000000000	0.0000000000	1.0000000000	0.0000000000	0.0000000000
0.6700000000	-122.4681592785	1.0000000000	759.1895650078	1.0000000000	0.0000000000	0.0000000000	0.0000000000	1.0000000000	0.0000000000	1.0000000000	0.0000000000	0.0000000000
0.6800000000	-109.7563678904	1.0000000000	747.4552184633	1.0000000000	0.0000000000	0.0000000000	0.0000000000	1.0000000000	0.0000000000	1.0000000000	0.0000000000	0.0000000000
0.6900000000	-97.0858370589	1.0000000000	725.9678890734	1.0000000000	0.0000000000	0.0000000000	0.0000000000	1.0000000000	0.0000000000	1.0000000000	0.0000000000	0.0000000000
0.7000000000	-85.1624403524	1.0000000000	695.6242948164	1.0000000000	0.0000000000	0.0000000000	0.0000000000	1.0000000000	0.0000000000	1.0000000000	0.0000000000	0.0000000000
0.7100000000	-74.1934926854	1.0000000000	658.7383957913	1.0000000000	0.0000000000	0.0000000000	0.0000000000	1.0000000000	0.0000000000	1.0000000000	0.0000000000	0.0000000000
0.7200000000	-63.5882687725	1.0000000000	618.1945350418	1.0000000000	0.0000000000	0.0000000000	0.0000000000	1.0000000000	0.0000000000	1.0000000000	0.0000000000	0.0000000000
0.7300000000	-53.8215207895	1.0000000000	576.5607673456	1.0000000000	0.0000000000	0.0000000000	0.0000000000	1.0000000000	0.0000000000	1.0000000000	0.0000000000	0.0000000000
0.7400000000	-45.0261530630	1.0000000000	536.3826903780	1.0000000000	0.0000000000	0.0000000000	0.0000000000	1.0000000000	0.0000000000	1.0000000000	0.0000000000	0.0000000000
0.7500000000	-36.7382400651	1.0000000000	499.9047369722	1.0000000000	0.0000000000	0.0000000000	0.0000000000	1.0000000000	0.0000000000	1.0000000000	0.0000000000	0.0000000000
0.7600000000	-29.4759765476	1.0000000000	468.3667908632	1.0000000000	0.0000000000	0.0000000000	0.0000000000	1.0000000000	0.0000000000	1.0000000000	0.0000000000	0.0000000000
0.7700000000	-23.2636116874	1.0000000000	442.3106246525	1.0000000000	0.0000000000	0.0000000000	0.0000000000	1.0000000000	0.0000000000	1.0000000000	0.0000000000	0.0000000000
0.7800000000	-17.6885804612	1.0000000000	421.9326530320	1.0000000000	0.0000000000	0.0000000000	0.0000000000	1.0000000000	0.0000000000	1.0000000000	0.0000000000	0.0000000000
0.7900000000	-13.1001852034	1.0000000000	406.8880878187	1.0000000000	0.0000000000	0.0000000000	0.0000000000	1.0000000000	0.0000000000	1.0000000000	0.0000000000	0.0000000000
0.8000000000	-9.2634922428	1.0000000000	396.6823962522	1.0000000000	0.0000000000	0.0000000000	0.0000000000	1.0000000000	0.0000000000	1.0000000000	0.0000000000	0.0000000000
0.8100000000	-5.7341821748	1.0000000000	391.0464627698	1.0000000000	0.0000000000	0.0000000000	0.0000000000	1.0000000000	0.0000000000	1.0000000000	0.0000000000	0.0000000000
0.8200000000	-2.6053635344	1.0000000000	389.4950391552	1.0000000000	0.0000000000	0.0000000000	0.0000000000	1.0000000000	0.0000000000	1.0000000000	0.0000000000	0.0000000000
0.8300000000	0.5496061505	1.0000000000	391.4431210286	1.0000000000	0.0000000000	0.0000000000	0.0000000000	1.0000000000	0.0000000000	1.0000000000	0.0000000000	0.0000000000
0.8400000000	4.0859178438	1.0000000000	396.8597204316	1.0000000000	0.0000000000	0.0000000000	0.0000000000	1.0000000000	0.0000000000	1.0000000000	0.0000000000	0.0000000000
0.8500000000	8.0078559298	1.0000000000	405.8950279644	1.0000000000	0.0000000000	0.0000000000	0.0000000000	1.0000000000	0.0000000000	1.0000000000	0.0000000000	0.0000000000
0.8600000000	12.7929978571	1.0000000000	418.5403745865	1.0000000000	0.0000000000	0.0000000000	0.0000000000	1.0000000000	0.0000000000	1.0000000000	0.0000000000	0.0000000000
0.8700000000	18.6148562979	1.0000000000	435.1831843206	1.0000000000	0.0000000000	0.0000000000	0.0000000000	1.0000000000	0.0000000000	1.0000000000	0.0000000000	0.0000000000
0.8800000000	25.4395836645	1.0000000000	456.3390976355	1.0000000000	0.0000000000	0.0000000000	0.0000000000	1.0000000000	0.0000000000	1.0000000000	0.0000000000	0.0000000000
0.8900000000	33.7216227791	1.0000000000	481.7819813500	1.0000000000	0.0000000000	0.0000000000	0.0000000000	1.0000000000	0.0000000000	1.0000000000	0.0000000000	0.0000000000
0.9000000000	43.4213166559	1.0000000000	510.7251641899	1.0000000000	0.0000000000	0.0000000000	0.0000000000	1.0000000000	0.0000000000	1.0000000000	0.0000000000	0.0000000000
0.9100000000	54.3276425524	1.0000000000	542.1911176359	1.0000000000	0.0000000000	0.0000000000	0.6201072149	1.0000000000	0.0440976130	1.0000000000	0.0000000000	0.0000000000
0.9200000000	66.4779396803	1.0000000000	574.7770986282	1.0000000000	0.0000000000	0.0000000000	0.0000000000	1.0000000000	0.0000000000	1.0000000000	0.0000000000	0.0000000000
0.9300000000	79.3407786563	1.0000000000	606.7627083610	1.0000000000	0.0000000000	0.0000000000	0.0000000000	1.0000000000	0.0000000000	1.0000000000	0.0000000000	0.0000000000
0.9400000000	92.3766064999	1.0000000000	636.5122391299	1.0000000000	0.0000000000	0.0000000000	0.0000000000	1.0000000000	0.0000000000	1.0000000000	0.0000000000	0.0000000000
0.9500000000	105.3915308025	1.0000000000	662.4223049871	1.0000000000	0.0000000000	0.0000000000	0.0000000000	1.0000000000	0.0000000000	1.0000000000	0.0000000000	0.0000000000
0.9600000000	117.7955227408	1.0000000000	682.8553820931	1.0000000000	0.0000000000	0.0000000000	0.0000000000	1.0000000000	0.0000000000	1.0000000000	0.0000000000	0.0000000000
0.9700000000	129.2043350320	1.0000000000	696.4177975757	1.0000000000	0.0000000000	0.0000000000	0.0000000000	1.0000000000	0.0000000000	1.0000000000	0.0000000000	0.0000000000
0.9800000000	139.4698953185	1.0000000000	701.8776740434	1.0000000000	0.0000000000	0.0000000000	0.0000000000	1.0000000000	0.0000000000	1.0000000000	0.0000000000	0.0000000000
0.9900000000	148.0204060972	1.0000000000	697.8234797902	1.0000000000	0.0000000000	0.0000000000	11.9842585045	1.0000000000	10.8499539848	1.0000000000	0.0000000000	0.0000000000
