name p2_grf_mean_speed_1.6
datacolumns 13
datarows 100
range 0.00000000 0.99000000
endheader
time	grf_x_l_mean	grf_x_l_var	grf_y_l_mean	grf_y_l_var	grf_z_l_mean	grf_z_l_var	grf_x_r_mean	grf_x_r_var	grf_y_r_mean	grf_y_r_var	grf_z_r_mean	grf_z_r_var
0.0000000000	165.6683670325	1.0000000000	702.2246798929	1.0000000000	0.0000000000	0.0000000000	12.0787820530	1.0000000000	11.0267326808	1.0000000000	0.0000000000	0.0000000000
0.0100000000	171.6876333703	1.0000000000	681.5963120685	1.0000000000	0.0000000000	0.0000000000	21.6927154013	1.0000000000	42.2516514897	1.0000000000	0.0000000000	0.0000000000
0.0200000000	173.6870170151	1.0000000000	647.2573130554	1.0000000000	0.0000000000	0.0000000000	31.2145155140	1.0000000000	92.0446508179	1.0000000000	0.0000000000	0.0000000000
0.0300000000	171.1031018408	1.0000000000	598.8981189912	1.0000000000	0.0000000000	0.0000000000	33.7036022886	1.0000000000	157.2882381241	1.0000000000	0.0000000000	0.0000000000
0.0400000000	162.2358052258	1.0000000000	536.6810628252	1.0000000000	0.0000000000	0.0000000000	22.0991216069	1.0000000000	232.7462951179	1.0000000000	0.0000000000	0.0000000000
0.0500000000	146.7943061412	1.0000000000	462.9633300514	1.0000000000	0.0000000000	0.0000000000	-0.3726672182	1.0000000000	316.9261574265	1.0000000000	0.0000000000	0.0000000000
0.0600000000	127.5958315644	1.0000000000	382.8543153218	1.0000000000	0.0000000000	0.0000000000	-28.4110991110	1.0000000000	407.7843311085	1.0000000000	0.0000000000	0.0000000000
0.0700000000	104.2296217744	1.0000000000	301.4059295412	1.0000000000	0.0000000000	0.0000000000	-61.1573130934	1.0000000000	497.5554587136	1.0000000000	0.0000000000	0.0000000000
0.0800000000	78.5356640567	1.0000000000	223.2267281147	1.0000000000	0.0000000000	0.0000000000	-95.3366584114	1.0000000000	577.8230409947	1.0000000000	0.0000000000	0.0000000000
0.0900000000	54.7814106722	1.0000000000	154.2153633879	1.0000000000	0.0000000000	0.0000000000	-125.1809104914	1.0000000000	646.2508292494	1.0000000000	0.0000000000	0.0000000000
0.1000000000	34.2218845977	1.0000000000	98.7039369934	1.0000000000	0.0000000000	0.0000000000	-149.6822634840	1.0000000000	704.3642256057	1.0000000000	0.0000000000	0.0000000000
0.1100000000	18.3121995548	1.0000000000	56.0743306304	1.0000000000	0.0000000000	0.0000000000	-168.9416693192	1.0000000000	752.9630428843	1.0000000000	0.0000000000	0.0000000000
0.1200000000	8.4850134443	1.0000000000	25.3500752449	1.0000000000	0.0000000000	0.0000000000	-179.9141288255	1.0000000000	792.3740827446	1.0000000000	0.0000000000	0.0000000000
0.1300000000	2.7283340351	1.0000000000	7.0086653746	1.0000000000	0.0000000000	0.0000000000	-182.5793007264	1.0000000000	822.2576762077	1.0000000000	0.0000000000	0.0000000000
0.1400000000	0.0000000000	1.0000000000	0.0000000000	1.0000000000	0.0000000000	0.0000000000	-179.2794754311	1.0000000000	840.3740131686	1.0000000000	0.0000000000	0.0000000000
0.1500000000	0.0000000000	1.0000000000	0.0000000000	1.0000000000	0.0000000000	0.0000000000	-169.7009668427	1.0000000000	844.5806627634	1.0000000000	0.0000000000	0.0000000000
0.1600000000	0.0000000000	1.0000000000	0.0000000000	1.0000000000	0.0000000000	0.0000000000	-155.3564547864	1.0000000000	835.8389539437	1.0000000000	0.0000000000	0.0000000000
0.1700000000	0.0000000000	1.0000000000	0.0000000000	1.0000000000	0.0000000000	0.0000000000	-139.5484059431	1.0000000000	817.0033452392	1.0000000000	0.0000000000	0.0000000000
0.1800000000	0.0000000000	1.0000000000	0.0000000000	1.0000000000	0.0000000000	0.0000000000	-122.4316865049	1.0000000000	789.1419808396	1.0000000000	0.0000000000	0.0000000000
0.1900000000	0.0000000000	1.0000000000	0.0000000000	1.0000000000	0.0000000000	0.0000000000	-104.5451411081	1.0000000000	752.1818637794	1.0000000000	0.0000000000	0.0000000000
0.2000000000	0.0000000000	1.0000000000	0.0000000000	1.0000000000	0.0000000000	0.0000000000	-88.1251383360	1.0000000000	707.4004508038	1.0000000000	0.0000000000	0.0000000000
0.2100000000	0.0000000000	1.0000000000	0.0000000000	1.0000000000	0.0000000000	0.0000000000	-73.1559288382	1.0000000000	657.3525025738	1.0000000000	0.0000000000	0.0000000000
0.2200000000	0.0000000000	1.0000000000	0.0000000000	1.0000000000	0.0000000000	0.0000000000	-58.8285602564	1.0000000000	604.6052615596	1.0000000000	0.0000000000	0.0000000000
0.2300000000	0.0000000000	1.0000000000	0.0000000000	1.0000000000	0.0000000000	0.0000000000	-46.6321393481	1.0000000000	551.2286431563	1.0000000000	0.0000000000	0.0000000000
0.2400000000	0.0000000000	1.0000000000	0.0000000000	1.0000000000	0.0000000000	0.0000000000	-36.4418670546	1.0000000000	499.3967808090	1.0000000000	0.0000000000	0.0000000000
0.2500000000	0.0000000000	1.0000000000	0.0000000000	1.0000000000	0.0000000000	0.0000000000	-27.3666975214	1.0000000000	451.9135862806	1.0000000000	0.0000000000	0.0000000000
0.2600000000	0.0000000000	1.0000000000	0.0000000000	1.0000000000	0.0000000000	0.0000000000	-19.8672688825	1.0000000000	411.1235411563	1.0000000000	0.0000000000	0.0000000000
0.2700000000	0.0000000000	1.0000000000	0.0000000000	1.0000000000	0.0000000000	0.0000000000	-13.9451258376	1.0000000000	377.7323640786	1.0000000000	0.0000000000	0.0000000000
0.2800000000	0.0000000000	1.0000000000	0.0000000000	1.0000000000	0.0000000000	0.0000000000	-9.0018561465	1.0000000000	351.8508235855	1.0000000000	0.0000000000	0.0000000000
0.2900000000	0.0000000000	1.0000000000	0.0000000000	1.0000000000	0.0000000000	0.0000000000	-5.1414651796	1.0000000000	333.6927367146	1.0000000000	0.0000000000	0.0000000000
0.3000000000	0.0000000000	1.0000000000	0.0000000000	1.0000000000	0.0000000000	0.0000000000	-2.1507389628	1.0000000000	322.9364971455	1.0000000000	0.0000000000	0.0000000000
0.3100000000	0.0000000000	1.0000000000	0.0000000000	1.0000000000	0.0000000000	0.0000000000	0.3810294930	1.0000000000	318.9670866853	1.0000000000	0.0000000000	0.0000000000
0.3200000000	0.0000000000	1.0000000000	0.0000000000	1.0000000000	0.0000000000	0.0000000000	2.3927049752	1.0000000000	320.9364131977	1.0000000000	0.0000000000	0.0000000000
0.3300000000	0.0000000000	1.0000000000	0.0000000000	1.0000000000	0.0000000000	0.0000000000	4.4075136866	1.0000000000	327.7673521045	1.0000000000	0.0000000000	0.0000000000
0.3400000000	0.0000000000	1.0000000000	0.0000000000	1.0000000000	0.0000000000	0.0000000000	7.0653553209	1.0000000000	339.1729042174	1.0000000000	0.0000000000	0.0000000000
0.3500000000	0.0000000000	1.0000000000	0.0000000000	1.0000000000	0.0000000000	0.0000000000	9.9951808826	1.0000000000	355.3054031340	1.0000000000	0.0000000000	0.0000000000
0.3600000000	0.0000000000	1.0000000000	0.0000000000	1.0000000000	0.0000000000	0.0000000000	13.5855028997	1.0000000000	375.4847170788	1.0000000000	0.0000000000	0.0000000000
0.3700000000	0.0000000000	1.0000000000	0.0000000000	1.0000000000	0.0000000000	0.0000000000	18.6139801156	1.0000000000	399.1532393806	1.0000000000	0.0000000000	0.0000000000
0.3800000000	0.0000000000	1.0000000000	0.0000000000	1.0000000000	0.0000000000	0.0000000000	24.9941805964	1.0000000000	426.5061692197	1.0000000000	0.0000000000	0.0000000000
0.3900000000	0.0000000000	1.0000000000	0.0000000000	1.0000000000	0.0000000000	0.0000000000	32.9442805787	1.0000000000	457.1557014615	1.0000000000	0.0000000000	0.0000000000
0.4000000000	0.0000000000	1.0000000000	0.0000000000	1.0000000000	0.0000000000	0.0000000000	42.7174845188	1.0000000000	490.3407708754	1.0000000000	0.0000000000	0.0000000000
0.4100000000	0.0000000000	1.0000000000	0.0000000000	1.0000000000	0.0000000000	0.0000000000	53.7738200755	1.0000000000	525.7548026568	1.0000000000	0.0000000000	0.0000000000
0.4200000000	0.0000000000	1.0000000000	0.0000000000	1.0000000000	0.0000000000	0.0000000000	65.9190508251	1.0000000000	562.3824361436	1.0000000000	0.0000000000	0.0000000000
0.4300000000	0.0000000000	1.0000000000	0.0000000000	1.0000000000	0.0000000000	0.0000000000	79.2483803977	1.0000000000	598.0548743392	1.0000000000	0.0000000000	0.0000000000
0.4400000000	0.0000000000	1.0000000000	0.0000000000	1.0000000000	0.0000000000	0.0000000000	92.9458985210	1.0000000000	630.9868611645	1.0000000000	0.0000000000	0.0000000000
0.4500000000	0.0000000000	1.0000000000	0.0000000000	1.0000000000	0.0000000000	0.0000000000	106.5469679468	1.0000000000	659.9485644403	1.0000000000	0.0000000000	0.0000000000
0.4600000000	0.0000000000	1.0000000000	0.0000000000	1.0000000000	0.0000000000	0.0000000000	120.2634837378	1.0000000000	683.0797332221	1.0000000000	0.0000000000	0.0000000000
0.4700000000	0.0000000000	1.0000000000	0.0000000000	1.0000000000	0.0000000000	0.0000000000	133.4653612766	1.0000000000	698.3934519108	1.0000000000	0.0000000000	0.0000000000
0.4800000000	0.0000000000	1.0000000000	0.0000000000	1.0000000000	0.0000000000	0.0000000000	145.4896980493	1.0000000000	704.9098915727	1.0000000000	0.0000000000	0.0000000000
0.4900000000	8.4826658830	1.0000000000	7.9469197910	1.0000000000	0.0000000000	0.0000000000	156.3204865279	1.0000000000	702.0079996546	1.0000000000	0.0000000000	0.0000000000
0.5000000000	17.0795464956	1.0000000000	32.2891279332	1.0000000000	0.0000000000	0.0000000000	165.2766453697	1.0000000000	688.5800660166	1.0000000000	0.0000000000	0.0000000000
0.5100000000	26.6058594343	1.0000000000	71.4138202380	1.0000000000	0.0000000000	0.0000000000	171.4835873015	1.0000000000	663.6833171258	1.0000000000	0.0000000000	0.0000000000
0.5200000000	32.7358810446	1.0000000000	123.9005782131	1.0000000000	0.0000000000	0.0000000000	174.4647766591	1.0000000000	626.9505585538	1.0000000000	0.0000000000	0.0000000000
0.5300000000	29.3737274594	1.0000000000	185.0624043024	1.0000000000	0.0000000000	0.0000000000	173.0320061348	1.0000000000	578.2194302572	1.0000000000	0.0000000000	0.0000000000
0.5400000000	14.6243781914	1.0000000000	251.8274072654	1.0000000000	0.0000000000	0.0000000000	166.1403104852	1.0000000000	518.2030055206	1.0000000000	0.0000000000	0.0000000000
0.5500000000	-7.8024116093	1.0000000000	324.2473887953	1.0000000000	0.0000000000	0.0000000000	154.5075611020	1.0000000000	449.2748815524	1.0000000000	0.0000000000	0.0000000000
0.5600000000	-35.4623341901	1.0000000000	400.7484786401	1.0000000000	0.0000000000	0.0000000000	137.9801030478	1.0000000000	374.3922282329	1.0000000000	0.0000000000	0.0000000000
0.5700000000	-67.2197040026	1.0000000000	476.2290510412	1.0000000000	0.0000000000	0.0000000000	116.4969555912	1.0000000000	296.7090586371	1.0000000000	0.0000000000	0.0000000000
0.5800000000	-99.4865319512	1.0000000000	546.5371440785	1.0000000000	0.0000000000	0.0000000000	92.8916544759	1.0000000000	221.2927967927	1.0000000000	0.0000000000	0.0000000000
0.5900000000	-129.0081282962	1.0000000000	611.2151295171	1.0000000000	0.0000000000	0.0000000000	69.2492169773	1.0000000000	154.3048768247	1.0000000000	0.0000000000	0.0000000000
0.6000000000	-154.4473345309	1.0000000000	670.5094365943	1.0000000000	0.0000000000	0.0000000000	46.6923063860	1.0000000000	99.0468138320	1.0000000000	0.0000000000	0.0000000000
0.6100000000	-173.2390868395	1.0000000000	723.0797531071	1.0000000000	0.0000000000	0.0000000000	28.0075942983	1.0000000000	55.7136822680	1.0000000000	0.0000000000	0.0000000000
0.6200000000	-183.4040231942	1.0000000000	767.0411265431	1.0000000000	0.0000000000	0.0000000000	14.8744499423	1.0000000000	24.8182128557	1.0000000000	0.0000000000	0.0000000000
0.6300000000	-185.4612068398	1.0000000000	800.5253943409	1.0000000000	0.0000000000	0.0000000000	6.0424211015	1.0000000000	6.5702892515	1.0000000000	0.0000000000	0.0000000000
0.6400000000	-180.0310430855	1.0000000000	821.6016804297	1.0000000000	0.0000000000	0.0000000000	0.0000000000	1.0000000000	0.0000000000	1.0000000000	0.0000000000	0.0000000000
0.6500000000	-168.3049936591	1.0000000000	829.4306085207	1.0000000000	0.0000000000	0.0000000000	0.0000000000	1.0000000000	0.0000000000	1.0000000000	0.0000000000	0.0000000000
0.6600000000	-153.3215377756	1.0000000000	824.8194647964	1.0000000000	0.0000000000	0.0000000000	0.0000000000	1.0000000000	0.0000000000	1.0000000000	0.0000000000	0.0000000000
0.6700000000	-136.6470098969	1.0000000000	808.8213865003	1.0000000000	0.0000000000	0.0000000000	0.0000000000	1.0000000000	0.0000000000	1.0000000000	0.0000000000	0.0000000000
0.6800000000	-118.9654341970	1.0000000000	782.1315449140	1.0000000000	0.0000000000	0.0000000000	0.0000000000	1.0000000000	0.0000000000	1.0000000000	0.0000000000	0.0000000000
0.6900000000	-102.0147188943	1.0000000000	746.0389396054	1.0000000000	0.0000000000	0.0000000000	0.0000000000	1.0000000000	0.0000000000	1.0000000000	0.0000000000	0.0000000000
0.7000000000	-86.3955225136	1.0000000000	702.3586987897	1.0000000000	0.0000000000	0.0000000000	0.0000000000	1.0000000000	0.0000000000	1.0000000000	0.0000000000	0.0000000000
0.7100000000	-71.6993822245	1.0000000000	652.9219420076	1.0000000000	0.0000000000	0.0000000000	0.0000000000	1.0000000000	0.0000000000	1.0000000000	0.0000000000	0.0000000000
0.7200000000	-58.6167680083	1.0000000000	600.3831442553	1.0000000000	0.0000000000	0.0000000000	0.0000000000	1.0000000000	0.0000000000	1.0000000000	0.0000000000	0.0000000000
0.7300000000	-47.1983345712	1.0000000000	548.1985624095	1.0000000000	0.0000000000	0.0000000000	0.0000000000	1.0000000000	0.0000000000	1.0000000000	0.0000000000	0.0000000000
0.7400000000	-36.6720128563	1.0000000000	499.0493342261	1.0000000000	0.0000000000	0.0000000000	0.0000000000	1.0000000000	0.0000000000	1.0000000000	0.0000000000	0.0000000000
0.7500000000	-27.7258597660	1.0000000000	454.6462582027	1.0000000000	0.0000000000	0.0000000000	0.0000000000	1.0000000000	0.0000000000	1.0000000000	0.0000000000	0.0000000000
0.7600000000	-20.6295764653	1.0000000000	416.6898538215	1.0000000000	0.0000000000	0.0000000000	0.0000000000	1.0000000000	0.0000000000	1.0000000000	0.0000000000	0.0000000000
0.7700000000	-14.3799078974	1.0000000000	386.3298710991	1.0000000000	0.0000000000	0.0000000000	0.0000000000	1.0000000000	0.0000000000	1.0000000000	0.0000000000	0.0000000000
0.7800000000	-9.2542423993	1.0000000000	363.3498521815	1.0000000000	0.0000000000	0.0000000000	0.0000000000	1.0000000000	0.0000000000	1.0000000000	0.0000000000	0.0000000000
0.7900000000	-5.6947197624	1.0000000000	346.9957885063	1.0000000000	0.0000000000	0.0000000000	0.0000000000	1.0000000000	0.0000000000	1.0000000000	0.0000000000	0.0000000000
0.8000000000	-2.7538762856	1.0000000000	336.6911234087	1.0000000000	0.0000000000	0.0000000000	0.0000000000	1.0000000000	0.0000000000	1.0000000000	0.0000000000	0.0000000000
0.8100000000	-0.1781954547	1.0000000000	331.5484526862	1.0000000000	0.0000000000	0.0000000000	0.0000000000	1.0000000000	0.0000000000	1.0000000000	0.0000000000	0.0000000000
0.8200000000	1.7876528064	1.0000000000	330.6057328579	1.0000000000	0.0000000000	0.0000000000	0.0000000000	1.0000000000	0.0000000000	1.0000000000	0.0000000000	0.0000000000
0.8300000000	3.8880767844	1.0000000000	333.7684336842	1.0000000000	0.0000000000	0.0000000000	0.0000000000	1.0000000000	0.0000000000	1.0000000000	0.0000000000	0.0000000000
0.8400000000	6.5640312519	1.0000000000	341.3968824857	1.0000000000	0.0000000000	0.0000000000	0.0000000000	1.0000000000	0.0000000000	1.0000000000	0.0000000000	0.0000000000
0.8500000000	9.7544137990	1.0000000000	353.4009748911	1.0000000000	0.0000000000	0.0000000000	0.0000000000	1.0000000000	0.0000000000	1.0000000000	0.0000000000	0.0000000000
0.8600000000	14.2074284555	1.0000000000	369.8803761851	1.0000000000	0.0000000000	0.0000000000	0.0000000000	1.0000000000	0.0000000000	1.0000000000	0.0000000000	0.0000000000
0.8700000000	20.3494906723	1.0000000000	391.4947058952	1.0000000000	0.0000000000	0.0000000000	0.0000000000	1.0000000000	0.0000000000	1.0000000000	0.0000000000	0.0000000000
0.8800000000	28.0117024488	1.0000000000	418.2885447301	1.0000000000	0.0000000000	0.0000000000	0.0000000000	1.0000000000	0.0000000000	1.0000000000	0.0000000000	0.0000000000
0.8900000000	37.4858454712	1.0000000000	449.4890314390	1.0000000000	0.0000000000	0.0000000000	0.0000000000	1.0000000000	0.0000000000	1.0000000000	0.0000000000	0.0000000000
0.9000000000	48.7377599772	1.0000000000	484.5887513767	1.0000000000	0.0000000000	0.0000000000	0.0000000000	1.0000000000	0.0000000000	1.0000000000	0.0000000000	0.0000000000
0.9100000000	61.1262610952	1.0000000000	522.9805377695	1.0000000000	0.0000000000	0.0000000000	0.0000000000	1.0000000000	0.0000000000	1.0000000000	0.0000000000	0.0000000000
0.9200000000	74.5299391880	1.0000000000	562.7753998725	1.0000000000	0.0000000000	0.0000000000	0.0000000000	1.0000000000	0.0000000000	1.0000000000	0.0000000000	0.0000000000
0.9300000000	88.7649634437	1.0000000000	601.4707275987	1.0000000000	0.0000000000	0.0000000000	0.0000000000	1.0000000000	0.0000000000	1.0000000000	0.0000000000	0.0000000000
0.9400000000	103.1892568416	1.0000000000	637.0921074289	1.0000000000	0.0000000000	0.0000000000	0.0000000000	1.0000000000	0.0000000000	1.0000000000	0.0000000000	0.0000000000
0.9500000000	117.5765748717	1.0000000000	667.7318325225	1.0000000000	0.0000000000	0.0000000000	0.0000000000	1.0000000000	0.0000000000	1.0000000000	0.0000000000	0.0000000000
0.9600000000	131.6977458275	1.0000000000	691.1238299720	1.0000000000	0.0000000000	0.0000000000	0.0000000000	1.0000000000	0.0000000000	1.0000000000	0.0000000000	0.0000000000
0.9700000000	144.7390561792	1.0000000000	705.3769973162	1.0000000000	0.0000000000	0.0000000000	0.0000000000	1.0000000000	0.0000000000	1.0000000000	0.0000000000	0.0000000000
0.9800000000	156.1631454920	1.0000000000	709.2798640362	1.0000000000	0.0000000000	0.0000000000	0.0000000000	1.0000000000	0.0000000000	1.0000000000	0.0000000000	0.0000000000
0.9900000000	165.4172903043	1.0000000000	701.6018709761	1.0000000000	0.0000000000	0.0000000000	12.0895034606	1.0000000000	11.0264298572	1.0000000000	0.0000000000	0.0000000000
