name p2_grf_mean_speed_1.0
datacolumns 13
datarows 100
range 0.00000000 0.99000000
endheader
time	grf_x_l_mean	grf_x_l_var	grf_y_l_mean	grf_y_l_var	grf_z_l_mean	grf_z_l_var	grf_x_r_mean	grf_x_r_var	grf_y_r_mean	grf_y_r_var	grf_z_r_mean	grf_z_r_var
0.0000000000	96.2976733830	1.0000000000	649.9662153529	1.0000000000	0.0000000000	0.0000000000	11.4561859162	1.0000000000	10.5435220694	1.0000000000	0.0000000000	0.0000000000
0.0100000000	102.4641375445	1.0000000000	640.5428316019	1.0000000000	0.0000000000	0.0000000000	20.9540984749	1.0000000000	29.5613530040	1.0000000000	0.0000000000	0.0000000000
0.0200000000	107.6744492104	1.0000000000	623.0980656136	1.0000000000	0.0000000000	0.0000000000	26.2834506862	1.0000000000	56.2641876360	1.0000000000	0.0000000000	0.0000000000
0.0300000000	110.9619818285	1.0000000000	596.4025528328	1.0000000000	0.0000000000	0.0000000000	22.9032827112	1.0000000000	89.8030139558	1.0000000000	0.0000000000	0.0000000000
0.0400000000	112.9185668869	1.0000000000	560.5018982819	1.0000000000	0.0000000000	0.0000000000	14.0422618021	1.0000000000	133.8212647595	1.0000000000	0.0000000000	0.0000000000
0.0500000000	112.6723181987	1.0000000000	515.6823402521	1.0000000000	0.0000000000	0.0000000000	-0.1837960610	1.0000000000	190.9290403658	1.0000000000	0.0000000000	0.0000000000
0.0600000000	109.6997092604	1.0000000000	462.3357646389	1.0000000000	0.0000000000	0.0000000000	-19.2968299123	1.0000000000	258.5524271893	1.0000000000	0.0000000000	0.0000000000
0.0700000000	103.8989683374	1.0000000000	402.0977176895	1.0000000000	0.0000000000	0.0000000000	-39.6881846789	1.0000000000	329.0478674620	1.0000000000	0.0000000000	0.0000000000
0.0800000000	94.0537332909	1.0000000000	336.5405142231	1.0000000000	0.0000000000	0.0000000000	-59.5768180825	1.0000000000	392.7664928809	1.0000000000	0.0000000000	0.0000000000
0.0900000000	80.8004274522	1.0000000000	268.7425663266	1.0000000000	0.0000000000	0.0000000000	-76.1827329185	1.0000000000	444.8901447399	1.0000000000	0.0000000000	0.0000000000
0.1000000000	64.3305889076	1.0000000000	203.4207950405	1.0000000000	0.0000000000	0.0000000000	-88.8994600046	1.0000000000	487.1950700593	1.0000000000	0.0000000000	0.0000000000
0.1100000000	46.5267266304	1.0000000000	144.3774155670	1.0000000000	0.0000000000	0.0000000000	-98.2143725583	1.0000000000	522.4423014382	1.0000000000	0.0000000000	0.0000000000
0.1200000000	30.2663858619	1.0000000000	94.6483838376	1.0000000000	0.0000000000	0.0000000000	-103.0019633771	1.0000000000	552.5338083481	1.0000000000	0.0000000000	0.0000000000
0.1300000000	16.8841821802	1.0000000000	55.9670832069	1.0000000000	0.0000000000	0.0000000000	-104.1473987913	1.0000000000	578.8835121776	1.0000000000	0.0000000000	0.0000000000
0.1400000000	8.1478722901	1.0000000000	28.1811522272	1.0000000000	0.0000000000	0.0000000000	-101.9724864514	1.0000000000	601.6216693926	1.0000000000	0.0000000000	0.0000000000
0.1500000000	3.0012131252	1.0000000000	10.5183120483	1.0000000000	0.0000000000	0.0000000000	-97.4607332383	1.0000000000	620.4376736825	1.0000000000	0.0000000000	0.0000000000
0.1600000000	0.3363007371	1.0000000000	1.3724047038	1.0000000000	0.0000000000	0.0000000000	-91.6537416373	1.0000000000	634.9291913943	1.0000000000	0.0000000000	0.0000000000
0.1700000000	0.0000000000	1.0000000000	0.0000000000	1.0000000000	0.0000000000	0.0000000000	-84.7888265507	1.0000000000	644.5665292945	1.0000000000	0.0000000000	0.0000000000
0.1800000000	0.0000000000	1.0000000000	0.0000000000	1.0000000000	0.0000000000	0.0000000000	-77.8663889520	1.0000000000	648.2817016808	1.0000000000	0.0000000000	0.0000000000
0.1900000000	0.0000000000	1.0000000000	0.0000000000	1.0000000000	0.0000000000	0.0000000000	-70.9583440706	1.0000000000	645.1453278546	1.0000000000	0.0000000000	0.0000000000
0.2000000000	0.0000000000	1.0000000000	0.0000000000	1.0000000000	0.0000000000	0.0000000000	-64.3352628292	1.0000000000	635.4297014862	1.0000000000	0.0000000000	0.0000000000
0.2100000000	0.0000000000	1.0000000000	0.0000000000	1.0000000000	0.0000000000	0.0000000000	-58.2382975083	1.0000000000	620.4395720743	1.0000000000	0.0000000000	0.0000000000
0.2200000000	0.0000000000	1.0000000000	0.0000000000	1.0000000000	0.0000000000	0.0000000000	-52.3539912959	1.0000000000	602.3034281817	1.0000000000	0.0000000000	0.0000000000
0.2300000000	0.0000000000	1.0000000000	0.0000000000	1.0000000000	0.0000000000	0.0000000000	-46.6669746415	1.0000000000	583.1943173869	1.0000000000	0.0000000000	0.0000000000
0.2400000000	0.0000000000	1.0000000000	0.0000000000	1.0000000000	0.0000000000	0.0000000000	-41.0751791243	1.0000000000	564.8545619268	1.0000000000	0.0000000000	0.0000000000
0.2500000000	0.0000000000	1.0000000000	0.0000000000	1.0000000000	0.0000000000	0.0000000000	-35.7260901358	1.0000000000	548.7753431336	1.0000000000	0.0000000000	0.0000000000
0.2600000000	0.0000000000	1.0000000000	0.0000000000	1.0000000000	0.0000000000	0.0000000000	-30.5909725941	1.0000000000	535.4647271853	1.0000000000	0.0000000000	0.0000000000
0.2700000000	0.0000000000	1.0000000000	0.0000000000	1.0000000000	0.0000000000	0.0000000000	-25.6831360044	1.0000000000	524.8364786160	1.0000000000	0.0000000000	0.0000000000
0.2800000000	0.0000000000	1.0000000000	0.0000000000	1.0000000000	0.0000000000	0.0000000000	-21.1162984052	1.0000000000	517.0870923102	1.0000000000	0.0000000000	0.0000000000
0.2900000000	0.0000000000	1.0000000000	0.0000000000	1.0000000000	0.0000000000	0.0000000000	-16.6639293797	1.0000000000	512.2281264835	1.0000000000	0.0000000000	0.0000000000
0.3000000000	0.0000000000	1.0000000000	0.0000000000	1.0000000000	0.0000000000	0.0000000000	-12.3806811367	1.0000000000	509.9483530850	1.0000000000	0.0000000000	0.0000000000
0.3100000000	0.0000000000	1.0000000000	0.0000000000	1.0000000000	0.0000000000	0.0000000000	-8.1866841824	1.0000000000	509.9460608596	1.0000000000	0.0000000000	0.0000000000
0.3200000000	0.0000000000	1.0000000000	0.0000000000	1.0000000000	0.0000000000	0.0000000000	-4.0490788432	1.0000000000	512.0955656182	1.0000000000	0.0000000000	0.0000000000
0.3300000000	0.0000000000	1.0000000000	0.0000000000	1.0000000000	0.0000000000	0.0000000000	0.0031013956	1.0000000000	516.0181003674	1.0000000000	0.0000000000	0.0000000000
0.3400000000	0.0000000000	1.0000000000	0.0000000000	1.0000000000	0.0000000000	0.0000000000	4.1283145345	1.0000000000	521.0327170981	1.0000000000	0.0000000000	0.0000000000
0.3500000000	0.0000000000	1.0000000000	0.0000000000	1.0000000000	0.0000000000	0.0000000000	8.2632921442	1.0000000000	526.9345742427	1.0000000000	0.0000000000	0.0000000000
0.3600000000	0.0000000000	1.0000000000	0.0000000000	1.0000000000	0.0000000000	0.0000000000	12.5310921803	1.0000000000	533.6198644093	1.0000000000	0.0000000000	0.0000000000
0.3700000000	0.0000000000	1.0000000000	0.0000000000	1.0000000000	0.0000000000	0.0000000000	16.9962228530	1.0000000000	540.6941018459	1.0000000000	0.0000000000	0.0000000000
0.3800000000	0.0000000000	1.0000000000	0.0000000000	1.0000000000	0.0000000000	0.0000000000	21.6646651847	1.0000000000	548.1196474957	1.0000000000	0.0000000000	0.0000000000
0.3900000000	0.0000000000	1.0000000000	0.0000000000	1.0000000000	0.0000000000	0.0000000000	26.7547493020	1.0000000000	556.1408692841	1.0000000000	0.0000000000	0.0000000000
0.4000000000	0.0153134945	1.0000000000	0.0328702682	1.0000000000	0.0000000000	0.0000000000	32.2532203948	1.0000000000	564.9087750013	1.0000000000	0.0000000000	0.0000000000
0.4100000000	0.0049139026	1.0000000000	0.0604526665	1.0000000000	0.0000000000	0.0000000000	38.2077485665	1.0000000000	574.4700660180	1.0000000000	0.0000000000	0.0000000000
0.4200000000	-0.0580126299	1.0000000000	0.0201841365	1.0000000000	0.0000000000	0.0000000000	44.6032624022	1.0000000000	584.8242427278	1.0000000000	0.0000000000	0.0000000000
0.4300000000	0.0000000000	1.0000000000	0.0000000000	1.0000000000	0.0000000000	0.0000000000	51.2699895855	1.0000000000	595.8851740878	1.0000000000	0.0000000000	0.0000000000
0.4400000000	0.0000000000	1.0000000000	0.0000000000	1.0000000000	0.0000000000	0.0000000000	58.1926111255	1.0000000000	607.2614842596	1.0000000000	0.0000000000	0.0000000000
0.4500000000	0.0000000000	1.0000000000	0.0000000000	1.0000000000	0.0000000000	0.0000000000	65.2794359051	1.0000000000	618.2164246419	1.0000000000	0.0000000000	0.0000000000
0.4600000000	0.0000000000	1.0000000000	0.0000000000	1.0000000000	0.0000000000	0.0000000000	72.5623855742	1.0000000000	627.8597685851	1.0000000000	0.0000000000	0.0000000000
0.4700000000	0.0000000000	1.0000000000	0.0000000000	1.0000000000	0.0000000000	0.0000000000	80.0232376094	1.0000000000	635.1961161623	1.0000000000	0.0000000000	0.0000000000
0.4800000000	3.3259272565	1.0000000000	1.9531223767	1.0000000000	0.0000000000	0.0000000000	87.4958165986	1.0000000000	638.9538631625	1.0000000000	0.0000000000	0.0000000000
0.4900000000	8.2721270831	1.0000000000	10.9399892233	1.0000000000	0.0000000000	0.0000000000	94.8465463326	1.0000000000	637.9433751490	1.0000000000	0.0000000000	0.0000000000
0.5000000000	14.4424989872	1.0000000000	27.6125178414	1.0000000000	0.0000000000	0.0000000000	101.7245134772	1.0000000000	631.0732985681	1.0000000000	0.0000000000	0.0000000000
0.5100000000	19.0313595599	1.0000000000	52.6850934115	1.0000000000	0.0000000000	0.0000000000	107.7629808765	1.0000000000	617.3330981425	1.0000000000	0.0000000000	0.0000000000
0.5200000000	18.5876295468	1.0000000000	85.7068112720	1.0000000000	0.0000000000	0.0000000000	112.5220604007	1.0000000000	596.1330567194	1.0000000000	0.0000000000	0.0000000000
0.5300000000	12.0559678176	1.0000000000	126.9627145871	1.0000000000	0.0000000000	0.0000000000	115.6169324926	1.0000000000	567.3369214060	1.0000000000	0.0000000000	0.0000000000
0.5400000000	0.5874471595	1.0000000000	177.0633752708	1.0000000000	0.0000000000	0.0000000000	116.8528069211	1.0000000000	531.2714404302	1.0000000000	0.0000000000	0.0000000000
0.5500000000	-14.9925684421	1.0000000000	234.3643763977	1.0000000000	0.0000000000	0.0000000000	115.7739868421	1.0000000000	488.3483878422	1.0000000000	0.0000000000	0.0000000000
0.5600000000	-33.3343348154	1.0000000000	293.5787160986	1.0000000000	0.0000000000	0.0000000000	112.2133164578	1.0000000000	439.1160547460	1.0000000000	0.0000000000	0.0000000000
0.5700000000	-52.5457509431	1.0000000000	348.5532932293	1.0000000000	0.0000000000	0.0000000000	105.9142870947	1.0000000000	384.4023159475	1.0000000000	0.0000000000	0.0000000000
0.5800000000	-70.9549499487	1.0000000000	396.6528944253	1.0000000000	0.0000000000	0.0000000000	96.6204100247	1.0000000000	325.5193295206	1.0000000000	0.0000000000	0.0000000000
0.5900000000	-87.0603397375	1.0000000000	439.5481259214	1.0000000000	0.0000000000	0.0000000000	84.4898795106	1.0000000000	264.7322700824	1.0000000000	0.0000000000	0.0000000000
0.6000000000	-99.9303857879	1.0000000000	480.0520264021	1.0000000000	0.0000000000	0.0000000000	69.7263679703	1.0000000000	204.9923817429	1.0000000000	0.0000000000	0.0000000000
0.6100000000	-108.5580838983	1.0000000000	518.8786564812	1.0000000000	0.0000000000	0.0000000000	53.4953519810	1.0000000000	149.3881483205	1.0000000000	0.0000000000	0.0000000000
0.6200000000	-112.5536053742	1.0000000000	554.5938712033	1.0000000000	0.0000000000	0.0000000000	37.4161460070	1.0000000000	100.9510801784	1.0000000000	0.0000000000	0.0000000000
0.6300000000	-112.2644659447	1.0000000000	585.2321135892	1.0000000000	0.0000000000	0.0000000000	23.1524010140	1.0000000000	61.8700197440	1.0000000000	0.0000000000	0.0000000000
0.6400000000	-108.4252399175	1.0000000000	609.7617135628	1.0000000000	0.0000000000	0.0000000000	12.2727692094	1.0000000000	32.8701142937	1.0000000000	0.0000000000	0.0000000000
0.6500000000	-102.3135451690	1.0000000000	628.0586029403	1.0000000000	0.0000000000	0.0000000000	5.1280267576	1.0000000000	13.7247332021	1.0000000000	0.0000000000	0.0000000000
0.6600000000	-94.9228798879	1.0000000000	640.1958931773	1.0000000000	0.0000000000	0.0000000000	1.2211117380	1.0000000000	3.1521037359	1.0000000000	0.0000000000	0.0000000000
0.6700000000	-87.2379876758	1.0000000000	646.2163570881	1.0000000000	0.0000000000	0.0000000000	0.0000000000	1.0000000000	0.0000000000	1.0000000000	0.0000000000	0.0000000000
0.6800000000	-79.8887446283	1.0000000000	646.1706223977	1.0000000000	0.0000000000	0.0000000000	0.0000000000	1.0000000000	0.0000000000	1.0000000000	0.0000000000	0.0000000000
0.6900000000	-72.9624134790	1.0000000000	640.4715059539	1.0000000000	0.0000000000	0.0000000000	0.0000000000	1.0000000000	0.0000000000	1.0000000000	0.0000000000	0.0000000000
0.7000000000	-66.5440388174	1.0000000000	629.9356105861	1.0000000000	0.0000000000	0.0000000000	0.0000000000	1.0000000000	0.0000000000	1.0000000000	0.0000000000	0.0000000000
0.7100000000	-60.3505020294	1.0000000000	615.7360037835	1.0000000000	0.0000000000	0.0000000000	0.0000000000	1.0000000000	0.0000000000	1.0000000000	0.0000000000	0.0000000000
0.7200000000	-54.3209475384	1.0000000000	599.3161874046	1.0000000000	0.0000000000	0.0000000000	0.0635203488	1.0000000000	0.0147216543	1.0000000000	0.0000000000	0.0000000000
0.7300000000	-48.4738892979	1.0000000000	582.2185611124	1.0000000000	0.0000000000	0.0000000000	0.0841430733	1.0000000000	0.0739635185	1.0000000000	0.0000000000	0.0000000000
0.7400000000	-42.8153942139	1.0000000000	565.7186192030	1.0000000000	0.0000000000	0.0000000000	0.0899479432	1.0000000000	0.0473075323	1.0000000000	0.0000000000	0.0000000000
0.7500000000	-37.5694831765	1.0000000000	550.7085285717	1.0000000000	0.0000000000	0.0000000000	0.0822080637	1.0000000000	0.0105315984	1.0000000000	0.0000000000	0.0000000000
0.7600000000	-32.6724742885	1.0000000000	537.9191906929	1.0000000000	0.0000000000	0.0000000000	0.0000000000	1.0000000000	0.0000000000	1.0000000000	0.0000000000	0.0000000000
0.7700000000	-28.0830266553	1.0000000000	527.8059100773	1.0000000000	0.0000000000	0.0000000000	0.0000000000	1.0000000000	0.0000000000	1.0000000000	0.0000000000	0.0000000000
0.7800000000	-23.7416211463	1.0000000000	520.7017086951	1.0000000000	0.0000000000	0.0000000000	0.0000000000	1.0000000000	0.0000000000	1.0000000000	0.0000000000	0.0000000000
0.7900000000	-19.5103694221	1.0000000000	516.5423893510	1.0000000000	0.0000000000	0.0000000000	0.0000000000	1.0000000000	0.0000000000	1.0000000000	0.0000000000	0.0000000000
0.8000000000	-15.4345778812	1.0000000000	514.9373323252	1.0000000000	0.0000000000	0.0000000000	0.0000000000	1.0000000000	0.0000000000	1.0000000000	0.0000000000	0.0000000000
0.8100000000	-11.4049567461	1.0000000000	515.4399824754	1.0000000000	0.0000000000	0.0000000000	0.0000000000	1.0000000000	0.0000000000	1.0000000000	0.0000000000	0.0000000000
0.8200000000	-7.3971135874	1.0000000000	517.4166443548	1.0000000000	0.0000000000	0.0000000000	0.0000000000	1.0000000000	0.0000000000	1.0000000000	0.0000000000	0.0000000000
0.8300000000	-3.3959239886	1.0000000000	520.2272421560	1.0000000000	0.0000000000	0.0000000000	0.0000000000	1.0000000000	0.0000000000	1.0000000000	0.0000000000	0.0000000000
0.8400000000	0.6784255652	1.0000000000	523.3855002180	1.0000000000	0.0000000000	0.0000000000	0.0000000000	1.0000000000	0.0000000000	1.0000000000	0.0000000000	0.0000000000
0.8500000000	4.7920293595	1.0000000000	526.7566805601	1.0000000000	0.0000000000	0.0000000000	0.0000000000	1.0000000000	0.0000000000	1.0000000000	0.0000000000	0.0000000000
0.8600000000	9.0717168471	1.0000000000	530.3983169081	1.0000000000	0.0000000000	0.0000000000	0.0000000000	1.0000000000	0.0000000000	1.0000000000	0.0000000000	0.0000000000
0.8700000000	13.6354783046	1.0000000000	534.7666566239	1.0000000000	0.0000000000	0.0000000000	0.0000000000	1.0000000000	0.0000000000	1.0000000000	0.0000000000	0.0000000000
0.8800000000	18.6226492205	1.0000000000	540.5574794598	1.0000000000	0.0000000000	0.0000000000	0.0146306380	1.0000000000	0.0109696050	1.0000000000	0.0000000000	0.0000000000
0.8900000000	24.1708468072	1.0000000000	548.4150751401	1.0000000000	0.0000000000	0.0000000000	0.0314417156	1.0000000000	0.0390141264	1.0000000000	0.0000000000	0.0000000000
0.9000000000	30.2610952847	1.0000000000	558.7375984288	1.0000000000	0.0000000000	0.0000000000	0.0452667072	1.0000000000	0.0821741521	1.0000000000	0.0000000000	0.0000000000
0.9100000000	36.8529501125	1.0000000000	571.3914528021	1.0000000000	0.0000000000	0.0000000000	0.0329075966	1.0000000000	0.1196039142	1.0000000000	0.0000000000	0.0000000000
0.9200000000	43.8830550587	1.0000000000	585.9017331680	1.0000000000	0.0000000000	0.0000000000	-0.0491790248	1.0000000000	0.0904838509	1.0000000000	0.0000000000	0.0000000000
0.9300000000	51.2673273116	1.0000000000	601.3193051999	1.0000000000	0.0000000000	0.0000000000	0.0000000000	1.0000000000	0.0000000000	1.0000000000	0.0000000000	0.0000000000
0.9400000000	58.9093139139	1.0000000000	616.5205399228	1.0000000000	0.0000000000	0.0000000000	0.0000000000	1.0000000000	0.0000000000	1.0000000000	0.0000000000	0.0000000000
0.9500000000	66.7093306909	1.0000000000	630.3584592166	1.0000000000	0.0000000000	0.0000000000	0.0000000000	1.0000000000	0.0000000000	1.0000000000	0.0000000000	0.0000000000
0.9600000000	74.5044358837	1.0000000000	641.7534165383	1.0000000000	0.0000000000	0.0000000000	0.0000000000	1.0000000000	0.0000000000	1.0000000000	0.0000000000	0.0000000000
0.9700000000	82.1513998774	1.0000000000	649.5932506906	1.0000000000	0.0000000000	0.0000000000	0.0000000000	1.0000000000	0.0000000000	1.0000000000	0.0000000000	0.0000000000
0.9800000000	89.4689228227	1.0000000000	652.7409137735	1.0000000000	0.0000000000	0.0000000000	4.0961411138	1.0000000000	0.6323270429	1.0000000000	0.0000000000	0.0000000000
0.9900000000	96.2699586901	1.0000000000	650.1779744809	1.0000000000	0.0000000000	0.0000000000	11.4639253611	1.0000000000	10.5466367329	1.0000000000	0.0000000000	0.0000000000
