name p3_grf_mean_speed_1.2
datacolumns 13
datarows 100
range 0.00000000 0.99000000
endheader
time	grf_x_l_mean	grf_x_l_var	grf_y_l_mean	grf_y_l_var	grf_z_l_mean	grf_z_l_var	grf_x_r_mean	grf_x_r_var	grf_y_r_mean	grf_y_r_var	grf_z_r_mean	grf_z_r_var
0.0000000000	149.9069983431	1.0000000000	971.7941865148	1.0000000000	0.0000000000	0.0000000000	12.5394405968	1.0000000000	11.0331599524	1.0000000000	0.0000000000	0.0000000000
0.0100000000	162.3166388883	1.0000000000	956.2108554245	1.0000000000	0.0000000000	0.0000000000	21.7293567692	1.0000000000	46.9072861581	1.0000000000	0.0000000000	0.0000000000
0.0200000000	174.2009300314	1.0000000000	927.7740151897	1.0000000000	0.0000000000	0.0000000000	26.3683438892	1.0000000000	105.6241499086	1.0000000000	0.0000000000	0.0000000000
0.0300000000	184.2754012379	1.0000000000	885.1368869015	1.0000000000	0.0000000000	0.0000000000	15.8839161406	1.0000000000	179.6184709073	1.0000000000	0.0000000000	0.0000000000
0.0400000000	190.4050968690	1.0000000000	827.0047124639	1.0000000000	0.0000000000	0.0000000000	-9.9859011403	1.0000000000	260.8626495262	1.0000000000	0.0000000000	0.0000000000
0.0500000000	192.7811549931	1.0000000000	754.0577495940	1.0000000000	0.0000000000	0.0000000000	-40.6205487379	1.0000000000	346.6105576890	1.0000000000	0.0000000000	0.0000000000
0.0600000000	189.6271091974	1.0000000000	667.2941479022	1.0000000000	0.0000000000	0.0000000000	-70.0288512212	1.0000000000	432.1794659534	1.0000000000	0.0000000000	0.0000000000
0.0700000000	179.1538415684	1.0000000000	567.8964487324	1.0000000000	0.0000000000	0.0000000000	-96.4611806290	1.0000000000	511.1304477544	1.0000000000	0.0000000000	0.0000000000
0.0800000000	161.1771068164	1.0000000000	460.4307561086	1.0000000000	0.0000000000	0.0000000000	-118.1532454099	1.0000000000	580.9830513795	1.0000000000	0.0000000000	0.0000000000
0.0900000000	135.5098258375	1.0000000000	352.1843044749	1.0000000000	0.0000000000	0.0000000000	-136.8089832325	1.0000000000	642.8706583502	1.0000000000	0.0000000000	0.0000000000
0.1000000000	104.6971252527	1.0000000000	251.2593804569	1.0000000000	0.0000000000	0.0000000000	-152.3957149973	1.0000000000	697.7822540925	1.0000000000	0.0000000000	0.0000000000
0.1100000000	73.8580762952	1.0000000000	165.5413498294	1.0000000000	0.0000000000	0.0000000000	-163.1645766387	1.0000000000	747.4464783848	1.0000000000	0.0000000000	0.0000000000
0.1200000000	47.1422785875	1.0000000000	99.3592690137	1.0000000000	0.0000000000	0.0000000000	-169.3348048352	1.0000000000	793.1269503468	1.0000000000	0.0000000000	0.0000000000
0.1300000000	27.1914611645	1.0000000000	52.3306912663	1.0000000000	0.0000000000	0.0000000000	-169.6767583782	1.0000000000	833.7146025654	1.0000000000	0.0000000000	0.0000000000
0.1400000000	13.5775429841	1.0000000000	22.1407105606	1.0000000000	0.0000000000	0.0000000000	-164.5530996580	1.0000000000	867.7185925312	1.0000000000	0.0000000000	0.0000000000
0.1500000000	5.0285136070	1.0000000000	5.8602346069	1.0000000000	0.0000000000	0.0000000000	-155.3645307929	1.0000000000	893.8301675978	1.0000000000	0.0000000000	0.0000000000
0.1600000000	0.0000000000	1.0000000000	0.0000000000	1.0000000000	0.0000000000	0.0000000000	-143.0561638481	1.0000000000	910.3126217975	1.0000000000	0.0000000000	0.0000000000
0.1700000000	0.0000000000	1.0000000000	0.0000000000	1.0000000000	0.0000000000	0.0000000000	-129.4935108715	1.0000000000	916.1968918203	1.0000000000	0.0000000000	0.0000000000
0.1800000000	0.0000000000	1.0000000000	0.0000000000	1.0000000000	0.0000000000	0.0000000000	-116.0250813786	1.0000000000	911.7912915052	1.0000000000	0.0000000000	0.0000000000
0.1900000000	0.0000000000	1.0000000000	0.0000000000	1.0000000000	0.0000000000	0.0000000000	-103.1254472381	1.0000000000	897.9270071832	1.0000000000	0.0000000000	0.0000000000
0.2000000000	0.5996298001	1.0000000000	0.6640751631	1.0000000000	0.0000000000	0.0000000000	-91.5127426196	1.0000000000	876.2093910783	1.0000000000	0.0000000000	0.0000000000
0.2100000000	1.1761559848	1.0000000000	1.0807275211	1.0000000000	0.0000000000	0.0000000000	-80.7883219283	1.0000000000	849.5528120535	1.0000000000	0.0000000000	0.0000000000
0.2200000000	1.4827967862	1.0000000000	1.1202607884	1.0000000000	0.0000000000	0.0000000000	-70.5628094713	1.0000000000	820.7298159449	1.0000000000	0.0000000000	0.0000000000
0.2300000000	1.6621193271	1.0000000000	0.9000279418	1.0000000000	0.0000000000	0.0000000000	-60.8270138829	1.0000000000	791.7971494531	1.0000000000	0.0000000000	0.0000000000
0.2400000000	1.8636561779	1.0000000000	0.6028122773	1.0000000000	0.0000000000	0.0000000000	-51.2645203813	1.0000000000	764.7791874468	1.0000000000	0.0000000000	0.0000000000
0.2500000000	1.8748416506	1.0000000000	0.2817971901	1.0000000000	0.0000000000	0.0000000000	-42.0846401515	1.0000000000	740.9931362134	1.0000000000	0.0000000000	0.0000000000
0.2600000000	0.0000000000	1.0000000000	0.0000000000	1.0000000000	0.0000000000	0.0000000000	-33.5118008112	1.0000000000	720.8613022781	1.0000000000	0.0000000000	0.0000000000
0.2700000000	0.0000000000	1.0000000000	0.0000000000	1.0000000000	0.0000000000	0.0000000000	-25.7117534777	1.0000000000	704.7246873211	1.0000000000	0.0000000000	0.0000000000
0.2800000000	0.0000000000	1.0000000000	0.0000000000	1.0000000000	0.0000000000	0.0000000000	-18.7662714322	1.0000000000	692.7117613899	1.0000000000	0.0000000000	0.0000000000
0.2900000000	0.0000000000	1.0000000000	0.0000000000	1.0000000000	0.0000000000	0.0000000000	-12.4278718135	1.0000000000	684.7854519429	1.0000000000	0.0000000000	0.0000000000
0.3000000000	0.0000000000	1.0000000000	0.0000000000	1.0000000000	0.0000000000	0.0000000000	-6.5696664253	1.0000000000	680.8965799441	1.0000000000	0.0000000000	0.0000000000
0.3100000000	0.0000000000	1.0000000000	0.0000000000	1.0000000000	0.0000000000	0.0000000000	-0.8855893535	1.0000000000	680.7913313055	1.0000000000	0.0000000000	0.0000000000
0.3200000000	0.0000000000	1.0000000000	0.0000000000	1.0000000000	0.0000000000	0.0000000000	4.9303128684	1.0000000000	684.1221205371	1.0000000000	0.0000000000	0.0000000000
0.3300000000	0.0000000000	1.0000000000	0.0000000000	1.0000000000	0.0000000000	0.0000000000	10.9015070147	1.0000000000	690.4135941006	1.0000000000	0.0000000000	0.0000000000
0.3400000000	0.0000000000	1.0000000000	0.0000000000	1.0000000000	0.0000000000	0.0000000000	17.0908550057	1.0000000000	699.0941764082	1.0000000000	0.0000000000	0.0000000000
0.3500000000	0.0000000000	1.0000000000	0.0000000000	1.0000000000	0.0000000000	0.0000000000	23.5783514765	1.0000000000	709.9093385199	1.0000000000	0.0000000000	0.0000000000
0.3600000000	0.0000000000	1.0000000000	0.0000000000	1.0000000000	0.0000000000	0.0000000000	30.3316836294	1.0000000000	722.7206187310	1.0000000000	0.0000000000	0.0000000000
0.3700000000	0.0000000000	1.0000000000	0.0000000000	1.0000000000	0.0000000000	0.0000000000	37.3247829480	1.0000000000	737.2763805045	1.0000000000	0.0000000000	0.0000000000
0.3800000000	0.0000000000	1.0000000000	0.0000000000	1.0000000000	0.0000000000	0.0000000000	44.4600853678	1.0000000000	753.5307905060	1.0000000000	0.0000000000	0.0000000000
0.3900000000	0.0000000000	1.0000000000	0.0000000000	1.0000000000	0.0000000000	0.0000000000	51.6158856506	1.0000000000	771.3814257427	1.0000000000	0.0000000000	0.0000000000
0.4000000000	0.5220763744	1.0000000000	0.0045895663	1.0000000000	0.0000000000	0.0000000000	58.6564538038	1.0000000000	790.3214006739	1.0000000000	0.0000000000	0.0000000000
0.4100000000	0.4534322635	1.0000000000	0.2129641563	1.0000000000	0.0000000000	0.0000000000	65.4912711668	1.0000000000	809.8411274002	1.0000000000	0.0000000000	0.0000000000
0.4200000000	0.3754360966	1.0000000000	0.3394882543	1.0000000000	0.0000000000	0.0000000000	72.1954790917	1.0000000000	829.4632979711	1.0000000000	0.0000000000	0.0000000000
0.4300000000	0.2250203181	1.0000000000	0.2193043667	1.0000000000	0.0000000000	0.0000000000	78.8891014831	1.0000000000	848.6989628002	1.0000000000	0.0000000000	0.0000000000
0.4400000000	0.0000000000	1.0000000000	0.0000000000	1.0000000000	0.0000000000	0.0000000000	85.7714224767	1.0000000000	867.3824717981	1.0000000000	0.0000000000	0.0000000000
0.4500000000	0.0000000000	1.0000000000	0.0000000000	1.0000000000	0.0000000000	0.0000000000	93.1195205530	1.0000000000	885.5641272955	1.0000000000	0.0000000000	0.0000000000
0.4600000000	0.0000000000	1.0000000000	0.0000000000	1.0000000000	0.0000000000	0.0000000000	101.2814945161	1.0000000000	902.9556900130	1.0000000000	0.0000000000	0.0000000000
0.4700000000	0.0000000000	1.0000000000	0.0000000000	1.0000000000	0.0000000000	0.0000000000	110.5478035592	1.0000000000	918.5351238669	1.0000000000	0.0000000000	0.0000000000
0.4800000000	0.0000000000	1.0000000000	0.0000000000	1.0000000000	0.0000000000	0.0000000000	121.0004491122	1.0000000000	930.4671535094	1.0000000000	0.0000000000	0.0000000000
0.4900000000	5.8302052909	1.0000000000	0.6871301898	1.0000000000	0.0000000000	0.0000000000	132.6149288260	1.0000000000	936.4059349321	1.0000000000	0.0000000000	0.0000000000
0.5000000000	10.6771736000	1.0000000000	22.1139722062	1.0000000000	0.0000000000	0.0000000000	145.0833557001	1.0000000000	934.0296191498	1.0000000000	0.0000000000	0.0000000000
0.5100000000	14.3544134192	1.0000000000	64.2762272872	1.0000000000	0.0000000000	0.0000000000	157.8750696494	1.0000000000	921.4352722718	1.0000000000	0.0000000000	0.0000000000
0.5200000000	11.6751635372	1.0000000000	128.5164866953	1.0000000000	0.0000000000	0.0000000000	170.2906983353	1.0000000000	897.0997547602	1.0000000000	0.0000000000	0.0000000000
0.5300000000	-2.2679806815	1.0000000000	209.2112997722	1.0000000000	0.0000000000	0.0000000000	181.2812035188	1.0000000000	859.5460872268	1.0000000000	0.0000000000	0.0000000000
0.5400000000	-26.1652582665	1.0000000000	297.8994567506	1.0000000000	0.0000000000	0.0000000000	189.8045390647	1.0000000000	807.3567832611	1.0000000000	0.0000000000	0.0000000000
0.5500000000	-53.5511922666	1.0000000000	387.0849463470	1.0000000000	0.0000000000	0.0000000000	194.9276824182	1.0000000000	739.6778495290	1.0000000000	0.0000000000	0.0000000000
0.5600000000	-79.4083863027	1.0000000000	470.3732414869	1.0000000000	0.0000000000	0.0000000000	194.8311329292	1.0000000000	656.7140079192	1.0000000000	0.0000000000	0.0000000000
0.5700000000	-101.7496886330	1.0000000000	543.5518349343	1.0000000000	0.0000000000	0.0000000000	187.4158382514	1.0000000000	560.4263451711	1.0000000000	0.0000000000	0.0000000000
0.5800000000	-120.7172854295	1.0000000000	606.4898224127	1.0000000000	0.0000000000	0.0000000000	170.8125221564	1.0000000000	455.3745987614	1.0000000000	0.0000000000	0.0000000000
0.5900000000	-137.3225833405	1.0000000000	661.5909363580	1.0000000000	0.0000000000	0.0000000000	144.5477932491	1.0000000000	348.5098404365	1.0000000000	0.0000000000	0.0000000000
0.6000000000	-151.0631059242	1.0000000000	711.3753870661	1.0000000000	0.0000000000	0.0000000000	111.5162067602	1.0000000000	248.2269197879	1.0000000000	0.0000000000	0.0000000000
0.6100000000	-160.6978162167	1.0000000000	758.0565749013	1.0000000000	0.0000000000	0.0000000000	77.1414693133	1.0000000000	162.5682680920	1.0000000000	0.0000000000	0.0000000000
0.6200000000	-165.5933948123	1.0000000000	802.7145206761	1.0000000000	0.0000000000	0.0000000000	47.0904770607	1.0000000000	96.2775089389	1.0000000000	0.0000000000	0.0000000000
0.6300000000	-165.2191570386	1.0000000000	844.1894987161	1.0000000000	0.0000000000	0.0000000000	25.0136308091	1.0000000000	49.5983594624	1.0000000000	0.0000000000	0.0000000000
0.6400000000	-159.7443668468	1.0000000000	879.8922367462	1.0000000000	0.0000000000	0.0000000000	11.1860722276	1.0000000000	20.1367436862	1.0000000000	0.0000000000	0.0000000000
0.6500000000	-150.0736037396	1.0000000000	907.1254948654	1.0000000000	0.0000000000	0.0000000000	3.8377926702	1.0000000000	4.2475355369	1.0000000000	0.0000000000	0.0000000000
0.6600000000	-137.4753029941	1.0000000000	923.9298633159	1.0000000000	0.0000000000	0.0000000000	0.0000000000	1.0000000000	0.0000000000	1.0000000000	0.0000000000	0.0000000000
0.6700000000	-123.5930685883	1.0000000000	929.4812677936	1.0000000000	0.0000000000	0.0000000000	0.0000000000	1.0000000000	0.0000000000	1.0000000000	0.0000000000	0.0000000000
0.6800000000	-109.6421357177	1.0000000000	923.8213764886	1.0000000000	0.0000000000	0.0000000000	0.0000000000	1.0000000000	0.0000000000	1.0000000000	0.0000000000	0.0000000000
0.6900000000	-96.4370225954	1.0000000000	907.7704836774	1.0000000000	0.0000000000	0.0000000000	0.0000000000	1.0000000000	0.0000000000	1.0000000000	0.0000000000	0.0000000000
0.7000000000	-84.2806697273	1.0000000000	883.2430301410	1.0000000000	0.0000000000	0.0000000000	0.0000000000	1.0000000000	0.0000000000	1.0000000000	0.0000000000	0.0000000000
0.7100000000	-72.9808637392	1.0000000000	852.9265383142	1.0000000000	0.0000000000	0.0000000000	0.0000000000	1.0000000000	0.0000000000	1.0000000000	0.0000000000	0.0000000000
0.7200000000	-62.4069806414	1.0000000000	819.9660343837	1.0000000000	0.0000000000	0.0000000000	0.0000000000	1.0000000000	0.0000000000	1.0000000000	0.0000000000	0.0000000000
0.7300000000	-52.3702381097	1.0000000000	787.5365334704	1.0000000000	0.0000000000	0.0000000000	0.0000000000	1.0000000000	0.0000000000	1.0000000000	0.0000000000	0.0000000000
0.7400000000	-42.7930183343	1.0000000000	757.9937290156	1.0000000000	0.0000000000	0.0000000000	0.0000000000	1.0000000000	0.0000000000	1.0000000000	0.0000000000	0.0000000000
0.7500000000	-33.9109140065	1.0000000000	732.7976071637	1.0000000000	0.0000000000	0.0000000000	0.0000000000	1.0000000000	0.0000000000	1.0000000000	0.0000000000	0.0000000000
0.7600000000	-25.7971539787	1.0000000000	712.8379707170	1.0000000000	0.0000000000	0.0000000000	0.0000000000	1.0000000000	0.0000000000	1.0000000000	0.0000000000	0.0000000000
0.7700000000	-18.5255024325	1.0000000000	698.3074098117	1.0000000000	0.0000000000	0.0000000000	0.0000000000	1.0000000000	0.0000000000	1.0000000000	0.0000000000	0.0000000000
0.7800000000	-12.1618927667	1.0000000000	688.8457454406	1.0000000000	0.0000000000	0.0000000000	0.0000000000	1.0000000000	0.0000000000	1.0000000000	0.0000000000	0.0000000000
0.7900000000	-6.5240395177	1.0000000000	683.8680942656	1.0000000000	0.0000000000	0.0000000000	0.0000000000	1.0000000000	0.0000000000	1.0000000000	0.0000000000	0.0000000000
0.8000000000	-1.3771991097	1.0000000000	682.5816577082	1.0000000000	0.0000000000	0.0000000000	0.0000000000	1.0000000000	0.0000000000	1.0000000000	0.0000000000	0.0000000000
0.8100000000	3.5675598440	1.0000000000	684.2282233771	1.0000000000	0.0000000000	0.0000000000	0.0000000000	1.0000000000	0.0000000000	1.0000000000	0.0000000000	0.0000000000
0.8200000000	8.6397848559	1.0000000000	688.4646437684	1.0000000000	0.0000000000	0.0000000000	0.0000000000	1.0000000000	0.0000000000	1.0000000000	0.0000000000	0.0000000000
0.8300000000	13.9712951946	1.0000000000	695.3121503327	1.0000000000	0.0000000000	0.0000000000	0.0000000000	1.0000000000	0.0000000000	1.0000000000	0.0000000000	0.0000000000
0.8400000000	19.6295045274	1.0000000000	705.0038891356	1.0000000000	0.0000000000	0.0000000000	0.0000000000	1.0000000000	0.0000000000	1.0000000000	0.0000000000	0.0000000000
0.8500000000	25.5184628268	1.0000000000	717.8149138217	1.0000000000	0.0000000000	0.0000000000	0.0000000000	1.0000000000	0.0000000000	1.0000000000	0.0000000000	0.0000000000
0.8600000000	31.3993740330	1.0000000000	733.7056523652	1.0000000000	0.0000000000	0.0000000000	0.0000000000	1.0000000000	0.0000000000	1.0000000000	0.0000000000	0.0000000000
0.8700000000	37.1567308592	1.0000000000	752.2914855061	1.0000000000	0.0000000000	0.0000000000	0.0000000000	1.0000000000	0.0000000000	1.0000000000	0.0000000000	0.0000000000
0.8800000000	42.8978635070	1.0000000000	773.1515230416	1.0000000000	0.0000000000	0.0000000000	0.0000000000	1.0000000000	0.0000000000	1.0000000000	0.0000000000	0.0000000000
0.8900000000	48.9373239343	1.0000000000	795.7944666020	1.0000000000	0.0000000000	0.0000000000	0.0000000000	1.0000000000	0.0000000000	1.0000000000	0.0000000000	0.0000000000
0.9000000000	55.6852627989	1.0000000000	819.5417107900	1.0000000000	0.0000000000	0.0000000000	0.3552670535	1.0000000000	0.1472099875	1.0000000000	0.0000000000	0.0000000000
0.9100000000	63.4888537651	1.0000000000	843.7775017363	1.0000000000	0.0000000000	0.0000000000	0.2615053667	1.0000000000	0.2790070775	1.0000000000	0.0000000000	0.0000000000
0.9200000000	72.4344169101	1.0000000000	868.1181228544	1.0000000000	0.0000000000	0.0000000000	0.0777755146	1.0000000000	0.2474427910	1.0000000000	0.0000000000	0.0000000000
0.9300000000	82.3185750335	1.0000000000	892.2527241233	1.0000000000	0.0000000000	0.0000000000	0.0000000000	1.0000000000	0.0000000000	1.0000000000	0.0000000000	0.0000000000
0.9400000000	92.7396618472	1.0000000000	915.7559530655	1.0000000000	0.0000000000	0.0000000000	0.0000000000	1.0000000000	0.0000000000	1.0000000000	0.0000000000	0.0000000000
0.9500000000	103.4064170373	1.0000000000	937.7549052424	1.0000000000	0.0000000000	0.0000000000	0.0000000000	1.0000000000	0.0000000000	1.0000000000	0.0000000000	0.0000000000
0.9600000000	114.3177301018	1.0000000000	956.6473877946	1.0000000000	0.0000000000	0.0000000000	0.0000000000	1.0000000000	0.0000000000	1.0000000000	0.0000000000	0.0000000000
0.9700000000	125.6350953858	1.0000000000	970.2873384392	1.0000000000	0.0000000000	0.0000000000	0.0000000000	1.0000000000	0.0000000000	1.0000000000	0.0000000000	0.0000000000
0.9800000000	137.5109195303	1.0000000000	976.3017537771	1.0000000000	0.0000000000	0.0000000000	0.0000000000	1.0000000000	0.0000000000	1.0000000000	0.0000000000	0.0000000000
0.9900000000	149.8674309514	1.0000000000	972.4129859883	1.0000000000	0.0000000000	0.0000000000	12.5273775419	1.0000000000	11.0354038583	1.0000000000	0.0000000000	0.0000000000
