name p3_grf_mean_speed_1.0
datacolumns 13
datarows 100
range 0.00000000 0.99000000
endheader
time	grf_x_l_mean	grf_x_l_var	grf_y_l_mean	grf_y_l_var	grf_z_l_mean	grf_z_l_var	grf_x_r_mean	grf_x_r_var	grf_y_r_mean	grf_y_r_var	grf_z_r_mean	grf_z_r_var
0.0000000000	124.7479024067	1.0000000000	916.5625580904	1.0000000000	0.0000000000	0.0000000000	9.8771086246	1.0000000000	10.8601801806	1.0000000000	0.0000000000	0.0000000000
0.0100000000	135.1349021656	1.0000000000	901.0820760087	1.0000000000	0.0000000000	0.0000000000	17.0142028776	1.0000000000	45.7389780236	1.0000000000	0.0000000000	0.0000000000
0.0200000000	145.1710126061	1.0000000000	875.3194356149	1.0000000000	0.0000000000	0.0000000000	18.8901853097	1.0000000000	102.6804454058	1.0000000000	0.0000000000	0.0000000000
0.0300000000	153.3295415075	1.0000000000	837.5078559753	1.0000000000	0.0000000000	0.0000000000	7.6487956655	1.0000000000	174.7875827161	1.0000000000	0.0000000000	0.0000000000
0.0400000000	158.5426738305	1.0000000000	786.2193577528	1.0000000000	0.0000000000	0.0000000000	-13.7398936550	1.0000000000	255.6294616261	1.0000000000	0.0000000000	0.0000000000
0.0500000000	160.4619627203	1.0000000000	721.5106236446	1.0000000000	0.0000000000	0.0000000000	-37.1444426585	1.0000000000	340.2765955525	1.0000000000	0.0000000000	0.0000000000
0.0600000000	157.4119899366	1.0000000000	643.5918229898	1.0000000000	0.0000000000	0.0000000000	-58.8796835363	1.0000000000	421.9808003238	1.0000000000	0.0000000000	0.0000000000
0.0700000000	148.9228341994	1.0000000000	553.9096399278	1.0000000000	0.0000000000	0.0000000000	-76.9021099349	1.0000000000	495.3225487231	1.0000000000	0.0000000000	0.0000000000
0.0800000000	134.5674764641	1.0000000000	456.5316141873	1.0000000000	0.0000000000	0.0000000000	-91.6021949173	1.0000000000	559.1121677187	1.0000000000	0.0000000000	0.0000000000
0.0900000000	114.6445267679	1.0000000000	357.1820896063	1.0000000000	0.0000000000	0.0000000000	-104.0074475175	1.0000000000	614.8255571528	1.0000000000	0.0000000000	0.0000000000
0.1000000000	91.2195604857	1.0000000000	263.0639476461	1.0000000000	0.0000000000	0.0000000000	-113.8026398539	1.0000000000	664.6667050052	1.0000000000	0.0000000000	0.0000000000
0.1100000000	66.7790442054	1.0000000000	181.1147878079	1.0000000000	0.0000000000	0.0000000000	-121.4268014844	1.0000000000	710.7317491836	1.0000000000	0.0000000000	0.0000000000
0.1200000000	44.8987999628	1.0000000000	115.2929468846	1.0000000000	0.0000000000	0.0000000000	-125.9490077010	1.0000000000	753.8297700076	1.0000000000	0.0000000000	0.0000000000
0.1300000000	27.2803986595	1.0000000000	66.2748396534	1.0000000000	0.0000000000	0.0000000000	-127.1691869133	1.0000000000	793.5466892145	1.0000000000	0.0000000000	0.0000000000
0.1400000000	14.4793782846	1.0000000000	32.9152482646	1.0000000000	0.0000000000	0.0000000000	-125.2981291225	1.0000000000	828.0838027131	1.0000000000	0.0000000000	0.0000000000
0.1500000000	6.3811880391	1.0000000000	12.4606675301	1.0000000000	0.0000000000	0.0000000000	-120.5421004935	1.0000000000	855.3988719427	1.0000000000	0.0000000000	0.0000000000
0.1600000000	1.9179120575	1.0000000000	1.6763054692	1.0000000000	0.0000000000	0.0000000000	-114.0075337777	1.0000000000	874.3314591228	1.0000000000	0.0000000000	0.0000000000
0.1700000000	0.0000000000	1.0000000000	0.0000000000	1.0000000000	0.0000000000	0.0000000000	-106.2302463666	1.0000000000	884.5706908309	1.0000000000	0.0000000000	0.0000000000
0.1800000000	0.0000000000	1.0000000000	0.0000000000	1.0000000000	0.0000000000	0.0000000000	-98.0985549452	1.0000000000	886.5814821316	1.0000000000	0.0000000000	0.0000000000
0.1900000000	0.0000000000	1.0000000000	0.0000000000	1.0000000000	0.0000000000	0.0000000000	-90.0981952270	1.0000000000	881.3990134433	1.0000000000	0.0000000000	0.0000000000
0.2000000000	0.0000000000	1.0000000000	0.0000000000	1.0000000000	0.0000000000	0.0000000000	-82.2387722533	1.0000000000	870.4980519388	1.0000000000	0.0000000000	0.0000000000
0.2100000000	0.0000000000	1.0000000000	0.0000000000	1.0000000000	0.0000000000	0.0000000000	-74.5682977893	1.0000000000	855.2865948742	1.0000000000	0.0000000000	0.0000000000
0.2200000000	0.0000000000	1.0000000000	0.0000000000	1.0000000000	0.0000000000	0.0000000000	-66.8673371152	1.0000000000	837.3324555415	1.0000000000	0.0000000000	0.0000000000
0.2300000000	0.0000000000	1.0000000000	0.0000000000	1.0000000000	0.0000000000	0.0000000000	-59.2751674087	1.0000000000	818.1463121588	1.0000000000	0.0000000000	0.0000000000
0.2400000000	0.0000000000	1.0000000000	0.0000000000	1.0000000000	0.0000000000	0.0000000000	-51.9116695817	1.0000000000	798.9977069965	1.0000000000	0.0000000000	0.0000000000
0.2500000000	0.0000000000	1.0000000000	0.0000000000	1.0000000000	0.0000000000	0.0000000000	-44.9369198262	1.0000000000	781.0285900930	1.0000000000	0.0000000000	0.0000000000
0.2600000000	0.0000000000	1.0000000000	0.0000000000	1.0000000000	0.0000000000	0.0000000000	-38.4673650090	1.0000000000	765.0559700805	1.0000000000	0.0000000000	0.0000000000
0.2700000000	0.0000000000	1.0000000000	0.0000000000	1.0000000000	0.0000000000	0.0000000000	-32.3990895535	1.0000000000	751.9787308903	1.0000000000	0.0000000000	0.0000000000
0.2800000000	0.0000000000	1.0000000000	0.0000000000	1.0000000000	0.0000000000	0.0000000000	-26.6892548964	1.0000000000	742.3732583893	1.0000000000	0.0000000000	0.0000000000
0.2900000000	0.0000000000	1.0000000000	0.0000000000	1.0000000000	0.0000000000	0.0000000000	-21.1029866378	1.0000000000	736.4928627636	1.0000000000	0.0000000000	0.0000000000
0.3000000000	0.0000000000	1.0000000000	0.0000000000	1.0000000000	0.0000000000	0.0000000000	-15.5433794835	1.0000000000	734.5263439627	1.0000000000	0.0000000000	0.0000000000
0.3100000000	0.0000000000	1.0000000000	0.0000000000	1.0000000000	0.0000000000	0.0000000000	-9.9251040334	1.0000000000	736.3451599766	1.0000000000	0.0000000000	0.0000000000
0.3200000000	0.0000000000	1.0000000000	0.0000000000	1.0000000000	0.0000000000	0.0000000000	-4.2055013521	1.0000000000	741.3132940990	1.0000000000	0.0000000000	0.0000000000
0.3300000000	0.0000000000	1.0000000000	0.0000000000	1.0000000000	0.0000000000	0.0000000000	1.6111727823	1.0000000000	748.6533498035	1.0000000000	0.0000000000	0.0000000000
0.3400000000	0.0000000000	1.0000000000	0.0000000000	1.0000000000	0.0000000000	0.0000000000	7.5305873751	1.0000000000	757.5882286834	1.0000000000	0.0000000000	0.0000000000
0.3500000000	0.0000000000	1.0000000000	0.0000000000	1.0000000000	0.0000000000	0.0000000000	13.5030125685	1.0000000000	767.3073951351	1.0000000000	0.0000000000	0.0000000000
0.3600000000	0.0000000000	1.0000000000	0.0000000000	1.0000000000	0.0000000000	0.0000000000	19.5979740048	1.0000000000	777.4027581568	1.0000000000	0.0000000000	0.0000000000
0.3700000000	0.0000000000	1.0000000000	0.0000000000	1.0000000000	0.0000000000	0.0000000000	25.8519495240	1.0000000000	787.4986693868	1.0000000000	0.0000000000	0.0000000000
0.3800000000	0.0000000000	1.0000000000	0.0000000000	1.0000000000	0.0000000000	0.0000000000	32.3180888583	1.0000000000	797.4913441832	1.0000000000	0.0000000000	0.0000000000
0.3900000000	0.0000000000	1.0000000000	0.0000000000	1.0000000000	0.0000000000	0.0000000000	39.0144503880	1.0000000000	807.3416340852	1.0000000000	0.0000000000	0.0000000000
0.4000000000	0.0000000000	1.0000000000	0.0000000000	1.0000000000	0.0000000000	0.0000000000	45.8961194914	1.0000000000	817.0331144272	1.0000000000	0.0000000000	0.0000000000
0.4100000000	0.0000000000	1.0000000000	0.0000000000	1.0000000000	0.0000000000	0.0000000000	52.9486736399	1.0000000000	826.8074224736	1.0000000000	0.0000000000	0.0000000000
0.4200000000	0.0000000000	1.0000000000	0.0000000000	1.0000000000	0.0000000000	0.0000000000	60.1287242769	1.0000000000	837.0148917850	1.0000000000	0.0000000000	0.0000000000
0.4300000000	0.0000000000	1.0000000000	0.0000000000	1.0000000000	0.0000000000	0.0000000000	67.4320817010	1.0000000000	848.0193396562	1.0000000000	0.0000000000	0.0000000000
0.4400000000	0.0000000000	1.0000000000	0.0000000000	1.0000000000	0.0000000000	0.0000000000	74.8790474052	1.0000000000	859.8207545028	1.0000000000	0.0000000000	0.0000000000
0.4500000000	0.0000000000	1.0000000000	0.0000000000	1.0000000000	0.0000000000	0.0000000000	82.4661447092	1.0000000000	872.1069297589	1.0000000000	0.0000000000	0.0000000000
0.4600000000	0.0000000000	1.0000000000	0.0000000000	1.0000000000	0.0000000000	0.0000000000	90.3178510380	1.0000000000	883.7842716482	1.0000000000	0.0000000000	0.0000000000
0.4700000000	0.0000000000	1.0000000000	0.0000000000	1.0000000000	0.0000000000	0.0000000000	98.5674644426	1.0000000000	893.1970897200	1.0000000000	0.0000000000	0.0000000000
0.4800000000	4.5237748820	1.0000000000	7.1300065835	1.0000000000	0.0000000000	0.0000000000	107.3513627797	1.0000000000	898.4185447551	1.0000000000	0.0000000000	0.0000000000
0.4900000000	7.6791297805	1.0000000000	27.0462719565	1.0000000000	0.0000000000	0.0000000000	116.7028920733	1.0000000000	897.4748649259	1.0000000000	0.0000000000	0.0000000000
0.5000000000	9.5186856721	1.0000000000	62.7238762108	1.0000000000	0.0000000000	0.0000000000	126.3318924256	1.0000000000	888.6120814151	1.0000000000	0.0000000000	0.0000000000
0.5100000000	7.0143460948	1.0000000000	115.7139284067	1.0000000000	0.0000000000	0.0000000000	135.7394577843	1.0000000000	870.2356105330	1.0000000000	0.0000000000	0.0000000000
0.5200000000	-2.3973521034	1.0000000000	183.4243243712	1.0000000000	0.0000000000	0.0000000000	144.1297274858	1.0000000000	841.0817267944	1.0000000000	0.0000000000	0.0000000000
0.5300000000	-18.5189509888	1.0000000000	260.1088629083	1.0000000000	0.0000000000	0.0000000000	150.6651556576	1.0000000000	800.1269721984	1.0000000000	0.0000000000	0.0000000000
0.5400000000	-37.9754613911	1.0000000000	338.7482125942	1.0000000000	0.0000000000	0.0000000000	154.5757899616	1.0000000000	746.8401197876	1.0000000000	0.0000000000	0.0000000000
0.5500000000	-56.7578604068	1.0000000000	413.1788771100	1.0000000000	0.0000000000	0.0000000000	155.0441140603	1.0000000000	681.2594696929	1.0000000000	0.0000000000	0.0000000000
0.5600000000	-72.4632085075	1.0000000000	479.0968480907	1.0000000000	0.0000000000	0.0000000000	151.3122994226	1.0000000000	604.2940716156	1.0000000000	0.0000000000	0.0000000000
0.5700000000	-84.7134492507	1.0000000000	535.1591748184	1.0000000000	0.0000000000	0.0000000000	142.5743147033	1.0000000000	517.9520806585	1.0000000000	0.0000000000	0.0000000000
0.5800000000	-94.1937137781	1.0000000000	583.2285525501	1.0000000000	0.0000000000	0.0000000000	128.3299489920	1.0000000000	425.7249571612	1.0000000000	0.0000000000	0.0000000000
0.5900000000	-101.7391467928	1.0000000000	626.3996519261	1.0000000000	0.0000000000	0.0000000000	108.9083409067	1.0000000000	332.8123004907	1.0000000000	0.0000000000	0.0000000000
0.6000000000	-107.7987387580	1.0000000000	667.3763480976	1.0000000000	0.0000000000	0.0000000000	85.7899684291	1.0000000000	245.3107908961	1.0000000000	0.0000000000	0.0000000000
0.6100000000	-112.1888160634	1.0000000000	707.8969715879	1.0000000000	0.0000000000	0.0000000000	61.8025834003	1.0000000000	168.9023371483	1.0000000000	0.0000000000	0.0000000000
0.6200000000	-114.7073596578	1.0000000000	748.3736096561	1.0000000000	0.0000000000	0.0000000000	40.1323077651	1.0000000000	107.3987619279	1.0000000000	0.0000000000	0.0000000000
0.6300000000	-114.9416995381	1.0000000000	787.5541823752	1.0000000000	0.0000000000	0.0000000000	23.1589253629	1.0000000000	62.0238905356	1.0000000000	0.0000000000	0.0000000000
0.6400000000	-112.6870611034	1.0000000000	822.8700883959	1.0000000000	0.0000000000	0.0000000000	11.6211812617	1.0000000000	31.5174489105	1.0000000000	0.0000000000	0.0000000000
0.6500000000	-108.2222861272	1.0000000000	851.1483225923	1.0000000000	0.0000000000	0.0000000000	4.8286671601	1.0000000000	13.0613628344	1.0000000000	0.0000000000	0.0000000000
0.6600000000	-101.9408062797	1.0000000000	870.0457653343	1.0000000000	0.0000000000	0.0000000000	1.4285365125	1.0000000000	3.3392665855	1.0000000000	0.0000000000	0.0000000000
0.6700000000	-94.5609085584	1.0000000000	878.8963482246	1.0000000000	0.0000000000	0.0000000000	0.0000000000	1.0000000000	0.0000000000	1.0000000000	0.0000000000	0.0000000000
0.6800000000	-86.5140362960	1.0000000000	878.2907075747	1.0000000000	0.0000000000	0.0000000000	0.0000000000	1.0000000000	0.0000000000	1.0000000000	0.0000000000	0.0000000000
0.6900000000	-78.1166891355	1.0000000000	869.9404817835	1.0000000000	0.0000000000	0.0000000000	0.0000000000	1.0000000000	0.0000000000	1.0000000000	0.0000000000	0.0000000000
0.7000000000	-69.5838109403	1.0000000000	856.0828821943	1.0000000000	0.0000000000	0.0000000000	0.0000000000	1.0000000000	0.0000000000	1.0000000000	0.0000000000	0.0000000000
0.7100000000	-61.0055755459	1.0000000000	838.9684155874	1.0000000000	0.0000000000	0.0000000000	0.0000000000	1.0000000000	0.0000000000	1.0000000000	0.0000000000	0.0000000000
0.7200000000	-52.7531737731	1.0000000000	820.6846432284	1.0000000000	0.0000000000	0.0000000000	0.0000000000	1.0000000000	0.0000000000	1.0000000000	0.0000000000	0.0000000000
0.7300000000	-44.9775326197	1.0000000000	802.9473813745	1.0000000000	0.0000000000	0.0000000000	0.0000000000	1.0000000000	0.0000000000	1.0000000000	0.0000000000	0.0000000000
0.7400000000	-37.9307508377	1.0000000000	787.0143891601	1.0000000000	0.0000000000	0.0000000000	0.0000000000	1.0000000000	0.0000000000	1.0000000000	0.0000000000	0.0000000000
0.7500000000	-31.7144293592	1.0000000000	773.7405509077	1.0000000000	0.0000000000	0.0000000000	0.0000000000	1.0000000000	0.0000000000	1.0000000000	0.0000000000	0.0000000000
0.7600000000	-26.1142387491	1.0000000000	763.5668066714	1.0000000000	0.0000000000	0.0000000000	0.0000000000	1.0000000000	0.0000000000	1.0000000000	0.0000000000	0.0000000000
0.7700000000	-20.9764669165	1.0000000000	756.5635092918	1.0000000000	0.0000000000	0.0000000000	0.0000000000	1.0000000000	0.0000000000	1.0000000000	0.0000000000	0.0000000000
0.7800000000	-15.9471722805	1.0000000000	752.7410792631	1.0000000000	0.0000000000	0.0000000000	0.0000000000	1.0000000000	0.0000000000	1.0000000000	0.0000000000	0.0000000000
0.7900000000	-10.8888035505	1.0000000000	751.9025803904	1.0000000000	0.0000000000	0.0000000000	0.0000000000	1.0000000000	0.0000000000	1.0000000000	0.0000000000	0.0000000000
0.8000000000	-5.7014070697	1.0000000000	753.6869130886	1.0000000000	0.0000000000	0.0000000000	0.0000000000	1.0000000000	0.0000000000	1.0000000000	0.0000000000	0.0000000000
0.8100000000	-0.2736972924	1.0000000000	757.7947385390	1.0000000000	0.0000000000	0.0000000000	0.0000000000	1.0000000000	0.0000000000	1.0000000000	0.0000000000	0.0000000000
0.8200000000	5.3217442346	1.0000000000	763.7923639315	1.0000000000	0.0000000000	0.0000000000	0.0000000000	1.0000000000	0.0000000000	1.0000000000	0.0000000000	0.0000000000
0.8300000000	11.0834153091	1.0000000000	771.1933342250	1.0000000000	0.0000000000	0.0000000000	0.0000000000	1.0000000000	0.0000000000	1.0000000000	0.0000000000	0.0000000000
0.8400000000	16.8319166670	1.0000000000	779.5813249000	1.0000000000	0.0000000000	0.0000000000	0.0000000000	1.0000000000	0.0000000000	1.0000000000	0.0000000000	0.0000000000
0.8500000000	22.4607325956	1.0000000000	788.5390961890	1.0000000000	0.0000000000	0.0000000000	0.0000000000	1.0000000000	0.0000000000	1.0000000000	0.0000000000	0.0000000000
0.8600000000	27.9555476666	1.0000000000	797.7296687897	1.0000000000	0.0000000000	0.0000000000	0.0000000000	1.0000000000	0.0000000000	1.0000000000	0.0000000000	0.0000000000
0.8700000000	33.3279405646	1.0000000000	806.9294323032	1.0000000000	0.0000000000	0.0000000000	0.0000000000	1.0000000000	0.0000000000	1.0000000000	0.0000000000	0.0000000000
0.8800000000	38.7363465855	1.0000000000	816.1306430513	1.0000000000	0.0000000000	0.0000000000	0.0153297586	1.0000000000	0.0064584033	1.0000000000	0.0000000000	0.0000000000
0.8900000000	44.2932905520	1.0000000000	825.6180104986	1.0000000000	0.0000000000	0.0000000000	0.0249090143	1.0000000000	0.0554102801	1.0000000000	0.0000000000	0.0000000000
0.9000000000	50.1177965666	1.0000000000	835.9066051048	1.0000000000	0.0000000000	0.0000000000	0.0339194072	1.0000000000	0.1447629024	1.0000000000	0.0000000000	0.0000000000
0.9100000000	56.3115385105	1.0000000000	847.4855663555	1.0000000000	0.0000000000	0.0000000000	0.0203098888	1.0000000000	0.2550018489	1.0000000000	0.0000000000	0.0000000000
0.9200000000	62.9403300846	1.0000000000	860.5745513864	1.0000000000	0.0000000000	0.0000000000	-0.0531946651	1.0000000000	0.2938247121	1.0000000000	0.0000000000	0.0000000000
0.9300000000	70.1121498310	1.0000000000	874.9514176653	1.0000000000	0.0000000000	0.0000000000	-0.2293629896	1.0000000000	0.0485833516	1.0000000000	0.0000000000	0.0000000000
0.9400000000	77.8464990861	1.0000000000	889.7717567355	1.0000000000	0.0000000000	0.0000000000	0.0000000000	1.0000000000	0.0000000000	1.0000000000	0.0000000000	0.0000000000
0.9500000000	86.1454742573	1.0000000000	903.6983063617	1.0000000000	0.0000000000	0.0000000000	0.0000000000	1.0000000000	0.0000000000	1.0000000000	0.0000000000	0.0000000000
0.9600000000	95.0287558451	1.0000000000	915.1088912723	1.0000000000	0.0000000000	0.0000000000	0.0000000000	1.0000000000	0.0000000000	1.0000000000	0.0000000000	0.0000000000
0.9700000000	104.4555852698	1.0000000000	922.2507394171	1.0000000000	0.0000000000	0.0000000000	0.0000000000	1.0000000000	0.0000000000	1.0000000000	0.0000000000	0.0000000000
0.9800000000	114.3766577276	1.0000000000	923.3803418289	1.0000000000	0.0000000000	0.0000000000	0.0000000000	1.0000000000	0.0000000000	1.0000000000	0.0000000000	0.0000000000
0.9900000000	124.6847915092	1.0000000000	916.9511387603	1.0000000000	0.0000000000	0.0000000000	9.8352964441	1.0000000000	10.8645765719	1.0000000000	0.0000000000	0.0000000000
