name p3_grf_mean_speed_1.4
datacolumns 13
datarows 100
range 0.00000000 0.99000000
endheader
time	grf_x_l_mean	grf_x_l_var	grf_y_l_mean	grf_y_l_var	grf_z_l_mean	grf_z_l_var	grf_x_r_mean	grf_x_r_var	grf_y_r_mean	grf_y_r_var	grf_z_r_mean	grf_z_r_var
0.0000000000	178.8539629447	1.0000000000	985.4595803403	1.0000000000	0.0000000000	0.0000000000	10.4956279243	1.0000000000	11.1217982216	1.0000000000	0.0000000000	0.0000000000
0.0100000000	191.8196724577	1.0000000000	960.1462077159	1.0000000000	0.0000000000	0.0000000000	15.9846024103	1.0000000000	50.1316732694	1.0000000000	0.0000000000	0.0000000000
0.0200000000	203.2552469757	1.0000000000	919.4401225667	1.0000000000	0.0000000000	0.0000000000	17.7001925690	1.0000000000	114.8521485095	1.0000000000	0.0000000000	0.0000000000
0.0300000000	211.8842876348	1.0000000000	862.0751543326	1.0000000000	0.0000000000	0.0000000000	8.0436455785	1.0000000000	200.2316701576	1.0000000000	0.0000000000	0.0000000000
0.0400000000	215.0303916127	1.0000000000	787.0298606895	1.0000000000	0.0000000000	0.0000000000	-16.7702996733	1.0000000000	296.3540218881	1.0000000000	0.0000000000	0.0000000000
0.0500000000	211.1036382827	1.0000000000	695.3008121742	1.0000000000	0.0000000000	0.0000000000	-49.7032055929	1.0000000000	396.8167140992	1.0000000000	0.0000000000	0.0000000000
0.0600000000	199.5179757380	1.0000000000	590.6325685209	1.0000000000	0.0000000000	0.0000000000	-82.1364113520	1.0000000000	495.7755483142	1.0000000000	0.0000000000	0.0000000000
0.0700000000	178.5921504114	1.0000000000	478.0854060350	1.0000000000	0.0000000000	0.0000000000	-111.1940716793	1.0000000000	586.4726792289	1.0000000000	0.0000000000	0.0000000000
0.0800000000	149.2871411770	1.0000000000	364.8954926534	1.0000000000	0.0000000000	0.0000000000	-135.4433158326	1.0000000000	665.4003941149	1.0000000000	0.0000000000	0.0000000000
0.0900000000	116.0316303313	1.0000000000	260.3150489990	1.0000000000	0.0000000000	0.0000000000	-153.6141817248	1.0000000000	733.6469156287	1.0000000000	0.0000000000	0.0000000000
0.1000000000	83.1984703838	1.0000000000	171.5512711123	1.0000000000	0.0000000000	0.0000000000	-167.2427140598	1.0000000000	793.6445091652	1.0000000000	0.0000000000	0.0000000000
0.1100000000	54.8581351245	1.0000000000	101.7585050289	1.0000000000	0.0000000000	0.0000000000	-176.5725358111	1.0000000000	846.0618385695	1.0000000000	0.0000000000	0.0000000000
0.1200000000	33.2077531777	1.0000000000	51.4414011128	1.0000000000	0.0000000000	0.0000000000	-180.3144847064	1.0000000000	890.4138511682	1.0000000000	0.0000000000	0.0000000000
0.1300000000	17.6834779996	1.0000000000	19.0595630913	1.0000000000	0.0000000000	0.0000000000	-179.1536068917	1.0000000000	925.7992542928	1.0000000000	0.0000000000	0.0000000000
0.1400000000	8.0200058655	1.0000000000	1.3809611334	1.0000000000	0.0000000000	0.0000000000	-173.0368739266	1.0000000000	951.5713015870	1.0000000000	0.0000000000	0.0000000000
0.1500000000	0.0000000000	1.0000000000	0.0000000000	1.0000000000	0.0000000000	0.0000000000	-162.1957079490	1.0000000000	968.0470643031	1.0000000000	0.0000000000	0.0000000000
0.1600000000	0.0000000000	1.0000000000	0.0000000000	1.0000000000	0.0000000000	0.0000000000	-148.3415320478	1.0000000000	975.2078528243	1.0000000000	0.0000000000	0.0000000000
0.1700000000	0.0000000000	1.0000000000	0.0000000000	1.0000000000	0.0000000000	0.0000000000	-132.6029968428	1.0000000000	971.7790009553	1.0000000000	0.0000000000	0.0000000000
0.1800000000	0.0000000000	1.0000000000	0.0000000000	1.0000000000	0.0000000000	0.0000000000	-116.0725231127	1.0000000000	957.1053769300	1.0000000000	0.0000000000	0.0000000000
0.1900000000	0.0000000000	1.0000000000	0.0000000000	1.0000000000	0.0000000000	0.0000000000	-100.5639034138	1.0000000000	931.9500092235	1.0000000000	0.0000000000	0.0000000000
0.2000000000	0.0000000000	1.0000000000	0.0000000000	1.0000000000	0.0000000000	0.0000000000	-86.4687570141	1.0000000000	898.0050489499	1.0000000000	0.0000000000	0.0000000000
0.2100000000	0.0000000000	1.0000000000	0.0000000000	1.0000000000	0.0000000000	0.0000000000	-73.7799405731	1.0000000000	858.0844334039	1.0000000000	0.0000000000	0.0000000000
0.2200000000	0.0000000000	1.0000000000	0.0000000000	1.0000000000	0.0000000000	0.0000000000	-62.9317960416	1.0000000000	815.8770749720	1.0000000000	0.0000000000	0.0000000000
0.2300000000	0.0000000000	1.0000000000	0.0000000000	1.0000000000	0.0000000000	0.0000000000	-53.3534985883	1.0000000000	774.9220607533	1.0000000000	0.0000000000	0.0000000000
0.2400000000	0.0000000000	1.0000000000	0.0000000000	1.0000000000	0.0000000000	0.0000000000	-44.6041070107	1.0000000000	737.6766165898	1.0000000000	0.0000000000	0.0000000000
0.2500000000	0.0000000000	1.0000000000	0.0000000000	1.0000000000	0.0000000000	0.0000000000	-36.7335391933	1.0000000000	705.5879369951	1.0000000000	0.0000000000	0.0000000000
0.2600000000	0.0000000000	1.0000000000	0.0000000000	1.0000000000	0.0000000000	0.0000000000	-29.4783039010	1.0000000000	679.4998162431	1.0000000000	0.0000000000	0.0000000000
0.2700000000	0.0000000000	1.0000000000	0.0000000000	1.0000000000	0.0000000000	0.0000000000	-22.7604818097	1.0000000000	659.6517665088	1.0000000000	0.0000000000	0.0000000000
0.2800000000	0.0000000000	1.0000000000	0.0000000000	1.0000000000	0.0000000000	0.0000000000	-16.7484758629	1.0000000000	645.7050153384	1.0000000000	0.0000000000	0.0000000000
0.2900000000	0.0000000000	1.0000000000	0.0000000000	1.0000000000	0.0000000000	0.0000000000	-11.2539453392	1.0000000000	637.1989043854	1.0000000000	0.0000000000	0.0000000000
0.3000000000	0.0000000000	1.0000000000	0.0000000000	1.0000000000	0.0000000000	0.0000000000	-6.2219411904	1.0000000000	633.4884069452	1.0000000000	0.0000000000	0.0000000000
0.3100000000	0.0000000000	1.0000000000	0.0000000000	1.0000000000	0.0000000000	0.0000000000	-1.5055023581	1.0000000000	633.8406219096	1.0000000000	0.0000000000	0.0000000000
0.3200000000	0.0000000000	1.0000000000	0.0000000000	1.0000000000	0.0000000000	0.0000000000	3.3005089017	1.0000000000	637.8124746006	1.0000000000	0.0000000000	0.0000000000
0.3300000000	0.0000000000	1.0000000000	0.0000000000	1.0000000000	0.0000000000	0.0000000000	8.2188282687	1.0000000000	645.0676787477	1.0000000000	0.0000000000	0.0000000000
0.3400000000	0.0000000000	1.0000000000	0.0000000000	1.0000000000	0.0000000000	0.0000000000	13.4431831492	1.0000000000	655.2261385074	1.0000000000	0.0000000000	0.0000000000
0.3500000000	0.0000000000	1.0000000000	0.0000000000	1.0000000000	0.0000000000	0.0000000000	19.1894246432	1.0000000000	668.3311747659	1.0000000000	0.0000000000	0.0000000000
0.3600000000	0.0000000000	1.0000000000	0.0000000000	1.0000000000	0.0000000000	0.0000000000	25.3649523924	1.0000000000	684.7252799925	1.0000000000	0.0000000000	0.0000000000
0.3700000000	1.6804190774	1.0000000000	0.1986056249	1.0000000000	0.0000000000	0.0000000000	32.0024103809	1.0000000000	704.2404376651	1.0000000000	0.0000000000	0.0000000000
0.3800000000	1.4529049141	1.0000000000	1.0535641138	1.0000000000	0.0000000000	0.0000000000	39.2038727259	1.0000000000	726.2665094683	1.0000000000	0.0000000000	0.0000000000
0.3900000000	1.1540778529	1.0000000000	1.7221912769	1.0000000000	0.0000000000	0.0000000000	46.8769795430	1.0000000000	750.4016826729	1.0000000000	0.0000000000	0.0000000000
0.4000000000	0.8696263501	1.0000000000	2.0800893356	1.0000000000	0.0000000000	0.0000000000	55.2539963278	1.0000000000	776.3149274578	1.0000000000	0.0000000000	0.0000000000
0.4100000000	0.6210810404	1.0000000000	2.2426653360	1.0000000000	0.0000000000	0.0000000000	64.4349480383	1.0000000000	803.3523196147	1.0000000000	0.0000000000	0.0000000000
0.4200000000	0.3699370292	1.0000000000	2.2315662166	1.0000000000	0.0000000000	0.0000000000	74.4231355423	1.0000000000	830.8291333677	1.0000000000	0.0000000000	0.0000000000
0.4300000000	0.1680783707	1.0000000000	1.8397732176	1.0000000000	0.0000000000	0.0000000000	85.3564659112	1.0000000000	857.8702570278	1.0000000000	0.0000000000	0.0000000000
0.4400000000	0.0742931651	1.0000000000	0.7362966890	1.0000000000	0.0000000000	0.0000000000	97.1612064514	1.0000000000	883.4198854574	1.0000000000	0.0000000000	0.0000000000
0.4500000000	0.0000000000	1.0000000000	0.0000000000	1.0000000000	0.0000000000	0.0000000000	109.6749153689	1.0000000000	906.6025673863	1.0000000000	0.0000000000	0.0000000000
0.4600000000	0.0000000000	1.0000000000	0.0000000000	1.0000000000	0.0000000000	0.0000000000	122.9017786523	1.0000000000	926.4849115916	1.0000000000	0.0000000000	0.0000000000
0.4700000000	0.0000000000	1.0000000000	0.0000000000	1.0000000000	0.0000000000	0.0000000000	136.6989999894	1.0000000000	941.6889281438	1.0000000000	0.0000000000	0.0000000000
0.4800000000	0.0000000000	1.0000000000	0.0000000000	1.0000000000	0.0000000000	0.0000000000	150.8983238871	1.0000000000	950.6122962347	1.0000000000	0.0000000000	0.0000000000
0.4900000000	0.0000000000	1.0000000000	0.0000000000	1.0000000000	0.0000000000	0.0000000000	165.4648078602	1.0000000000	951.4985342779	1.0000000000	0.0000000000	0.0000000000
0.5000000000	7.1891842038	1.0000000000	24.6330941064	1.0000000000	0.0000000000	0.0000000000	180.1605764446	1.0000000000	942.2723981155	1.0000000000	0.0000000000	0.0000000000
0.5100000000	7.0574154487	1.0000000000	73.6643970678	1.0000000000	0.0000000000	0.0000000000	194.4412686620	1.0000000000	920.8223969213	1.0000000000	0.0000000000	0.0000000000
0.5200000000	1.0311060716	1.0000000000	150.2199603247	1.0000000000	0.0000000000	0.0000000000	207.4370369540	1.0000000000	885.2546094349	1.0000000000	0.0000000000	0.0000000000
0.5300000000	-15.3233756089	1.0000000000	248.8658835582	1.0000000000	0.0000000000	0.0000000000	217.5021216372	1.0000000000	833.7028290430	1.0000000000	0.0000000000	0.0000000000
0.5400000000	-42.4463074771	1.0000000000	358.0806196380	1.0000000000	0.0000000000	0.0000000000	222.3891339775	1.0000000000	764.5544251963	1.0000000000	0.0000000000	0.0000000000
0.5500000000	-74.4221979030	1.0000000000	466.2530314449	1.0000000000	0.0000000000	0.0000000000	220.1133886963	1.0000000000	677.7420742185	1.0000000000	0.0000000000	0.0000000000
0.5600000000	-104.4939417844	1.0000000000	564.1550080796	1.0000000000	0.0000000000	0.0000000000	208.5806336913	1.0000000000	575.8586936713	1.0000000000	0.0000000000	0.0000000000
0.5700000000	-129.6281237223	1.0000000000	646.4025520376	1.0000000000	0.0000000000	0.0000000000	186.1922860549	1.0000000000	464.4756622625	1.0000000000	0.0000000000	0.0000000000
0.5800000000	-149.2887265427	1.0000000000	713.4086700990	1.0000000000	0.0000000000	0.0000000000	154.0552983019	1.0000000000	352.0537230664	1.0000000000	0.0000000000	0.0000000000
0.5900000000	-164.1774519644	1.0000000000	769.4220772836	1.0000000000	0.0000000000	0.0000000000	116.3951759804	1.0000000000	248.2190651744	1.0000000000	0.0000000000	0.0000000000
0.6000000000	-175.2239295684	1.0000000000	818.4870333621	1.0000000000	0.0000000000	0.0000000000	79.2349947950	1.0000000000	160.5965901811	1.0000000000	0.0000000000	0.0000000000
0.6100000000	-182.1181877293	1.0000000000	862.7445479369	1.0000000000	0.0000000000	0.0000000000	48.2584533885	1.0000000000	93.0809797222	1.0000000000	0.0000000000	0.0000000000
0.6200000000	-184.2498286190	1.0000000000	902.4404877430	1.0000000000	0.0000000000	0.0000000000	26.0444455630	1.0000000000	46.1108936458	1.0000000000	0.0000000000	0.0000000000
0.6300000000	-181.7174377837	1.0000000000	936.0575537110	1.0000000000	0.0000000000	0.0000000000	12.0517150735	1.0000000000	17.2466539594	1.0000000000	0.0000000000	0.0000000000
0.6400000000	-174.5322757197	1.0000000000	961.6258542038	1.0000000000	0.0000000000	0.0000000000	4.5483208144	1.0000000000	2.1015883125	1.0000000000	0.0000000000	0.0000000000
0.6500000000	-163.1790924062	1.0000000000	977.9933546569	1.0000000000	0.0000000000	0.0000000000	0.0000000000	1.0000000000	0.0000000000	1.0000000000	0.0000000000	0.0000000000
0.6600000000	-149.0115410200	1.0000000000	984.1433951511	1.0000000000	0.0000000000	0.0000000000	0.0000000000	1.0000000000	0.0000000000	1.0000000000	0.0000000000	0.0000000000
0.6700000000	-133.2967965004	1.0000000000	978.7775924924	1.0000000000	0.0000000000	0.0000000000	0.0000000000	1.0000000000	0.0000000000	1.0000000000	0.0000000000	0.0000000000
0.6800000000	-117.1988585376	1.0000000000	961.8254916229	1.0000000000	0.0000000000	0.0000000000	0.0000000000	1.0000000000	0.0000000000	1.0000000000	0.0000000000	0.0000000000
0.6900000000	-101.7996558436	1.0000000000	934.7066791846	1.0000000000	0.0000000000	0.0000000000	0.0000000000	1.0000000000	0.0000000000	1.0000000000	0.0000000000	0.0000000000
0.7000000000	-87.5299731824	1.0000000000	899.2471508530	1.0000000000	0.0000000000	0.0000000000	0.0000000000	1.0000000000	0.0000000000	1.0000000000	0.0000000000	0.0000000000
0.7100000000	-74.6660402253	1.0000000000	857.9672894025	1.0000000000	0.0000000000	0.0000000000	2.8281068181	1.0000000000	0.1845364072	1.0000000000	0.0000000000	0.0000000000
0.7200000000	-63.3034964207	1.0000000000	814.2681036604	1.0000000000	0.0000000000	0.0000000000	2.6492785574	1.0000000000	0.1468990034	1.0000000000	0.0000000000	0.0000000000
0.7300000000	-53.1758392128	1.0000000000	771.3088126815	1.0000000000	0.0000000000	0.0000000000	0.0000000000	1.0000000000	0.0000000000	1.0000000000	0.0000000000	0.0000000000
0.7400000000	-44.1996893914	1.0000000000	731.7603443140	1.0000000000	0.0000000000	0.0000000000	0.0000000000	1.0000000000	0.0000000000	1.0000000000	0.0000000000	0.0000000000
0.7500000000	-36.2037851476	1.0000000000	697.8487363333	1.0000000000	0.0000000000	0.0000000000	0.0000000000	1.0000000000	0.0000000000	1.0000000000	0.0000000000	0.0000000000
0.7600000000	-28.9150881191	1.0000000000	670.6416770531	1.0000000000	0.0000000000	0.0000000000	0.0000000000	1.0000000000	0.0000000000	1.0000000000	0.0000000000	0.0000000000
0.7700000000	-22.4269088618	1.0000000000	650.2014772961	1.0000000000	0.0000000000	0.0000000000	0.0000000000	1.0000000000	0.0000000000	1.0000000000	0.0000000000	0.0000000000
0.7800000000	-16.6497656400	1.0000000000	636.3524232606	1.0000000000	0.0000000000	0.0000000000	0.0000000000	1.0000000000	0.0000000000	1.0000000000	0.0000000000	0.0000000000
0.7900000000	-11.3806469518	1.0000000000	628.5524353788	1.0000000000	0.0000000000	0.0000000000	0.0000000000	1.0000000000	0.0000000000	1.0000000000	0.0000000000	0.0000000000
0.8000000000	-6.5527145863	1.0000000000	625.9482580377	1.0000000000	0.0000000000	0.0000000000	0.0000000000	1.0000000000	0.0000000000	1.0000000000	0.0000000000	0.0000000000
0.8100000000	-1.8723946349	1.0000000000	627.9737415962	1.0000000000	0.0000000000	0.0000000000	0.0000000000	1.0000000000	0.0000000000	1.0000000000	0.0000000000	0.0000000000
0.8200000000	2.9816953047	1.0000000000	634.3337848587	1.0000000000	0.0000000000	0.0000000000	0.0000000000	1.0000000000	0.0000000000	1.0000000000	0.0000000000	0.0000000000
0.8300000000	8.2177782469	1.0000000000	644.7200706821	1.0000000000	0.0000000000	0.0000000000	0.0000000000	1.0000000000	0.0000000000	1.0000000000	0.0000000000	0.0000000000
0.8400000000	14.0628759130	1.0000000000	658.9614254216	1.0000000000	0.0000000000	0.0000000000	0.0000000000	1.0000000000	0.0000000000	1.0000000000	0.0000000000	0.0000000000
0.8500000000	20.5109398297	1.0000000000	677.2231917836	1.0000000000	0.0000000000	0.0000000000	0.0000000000	1.0000000000	0.0000000000	1.0000000000	0.0000000000	0.0000000000
0.8600000000	27.4833443913	1.0000000000	699.6815858432	1.0000000000	0.0000000000	0.0000000000	0.0000000000	1.0000000000	0.0000000000	1.0000000000	0.0000000000	0.0000000000
0.8700000000	34.9497565694	1.0000000000	726.1406824172	1.0000000000	0.0000000000	0.0000000000	0.0000000000	1.0000000000	0.0000000000	1.0000000000	0.0000000000	0.0000000000
0.8800000000	42.9192627750	1.0000000000	756.0965122470	1.0000000000	0.0000000000	0.0000000000	0.0000000000	1.0000000000	0.0000000000	1.0000000000	0.0000000000	0.0000000000
0.8900000000	51.5332235833	1.0000000000	788.6924107480	1.0000000000	0.0000000000	0.0000000000	0.0000000000	1.0000000000	0.0000000000	1.0000000000	0.0000000000	0.0000000000
0.9000000000	61.1120358411	1.0000000000	822.5857243134	1.0000000000	0.0000000000	0.0000000000	0.0000000000	1.0000000000	0.0000000000	1.0000000000	0.0000000000	0.0000000000
0.9100000000	71.8801661582	1.0000000000	856.4432022384	1.0000000000	0.0000000000	0.0000000000	0.0000000000	1.0000000000	0.0000000000	1.0000000000	0.0000000000	0.0000000000
0.9200000000	83.8167176513	1.0000000000	889.2967667823	1.0000000000	0.0000000000	0.0000000000	0.0000000000	1.0000000000	0.0000000000	1.0000000000	0.0000000000	0.0000000000
0.9300000000	96.7149572331	1.0000000000	920.1414554467	1.0000000000	0.0000000000	0.0000000000	0.0000000000	1.0000000000	0.0000000000	1.0000000000	0.0000000000	0.0000000000
0.9400000000	110.1939293861	1.0000000000	947.8475973619	1.0000000000	0.0000000000	0.0000000000	0.0000000000	1.0000000000	0.0000000000	1.0000000000	0.0000000000	0.0000000000
0.9500000000	123.9009513206	1.0000000000	971.2683120985	1.0000000000	0.0000000000	0.0000000000	0.0000000000	1.0000000000	0.0000000000	1.0000000000	0.0000000000	0.0000000000
0.9600000000	137.7235247140	1.0000000000	988.9068369100	1.0000000000	0.0000000000	0.0000000000	0.0000000000	1.0000000000	0.0000000000	1.0000000000	0.0000000000	0.0000000000
0.9700000000	151.5656654737	1.0000000000	998.8591887742	1.0000000000	0.0000000000	0.0000000000	0.0000000000	1.0000000000	0.0000000000	1.0000000000	0.0000000000	0.0000000000
0.9800000000	165.3667011793	1.0000000000	999.0625586167	1.0000000000	0.0000000000	0.0000000000	0.0000000000	1.0000000000	0.0000000000	1.0000000000	0.0000000000	0.0000000000
0.9900000000	178.9737169619	1.0000000000	987.3756834383	1.0000000000	0.0000000000	0.0000000000	10.5971366233	1.0000000000	11.1400991713	1.0000000000	0.0000000000	0.0000000000
