name p3_grf_mean_speed_1.6
datacolumns 13
datarows 100
range 0.00000000 0.99000000
endheader
time	grf_x_l_mean	grf_x_l_var	grf_y_l_mean	grf_y_l_var	grf_z_l_mean	grf_z_l_var	grf_x_r_mean	grf_x_r_var	grf_y_r_mean	grf_y_r_var	grf_z_r_mean	grf_z_r_var
0.0000000000	222.9771354562	1.0000000000	987.1371426091	1.0000000000	0.0000000000	0.0000000000	12.6209527859	1.0000000000	11.4606209921	1.0000000000	0.0000000000	0.0000000000
0.0100000000	234.7691181704	1.0000000000	943.5330958081	1.0000000000	0.0000000000	0.0000000000	15.2166701593	1.0000000000	59.1559456213	1.0000000000	0.0000000000	0.0000000000
0.0200000000	242.1301579941	1.0000000000	881.0642657551	1.0000000000	0.0000000000	0.0000000000	12.1531468904	1.0000000000	137.1563379974	1.0000000000	0.0000000000	0.0000000000
0.0300000000	243.1504974900	1.0000000000	799.9216526082	1.0000000000	0.0000000000	0.0000000000	-3.1143850504	1.0000000000	241.0575018634	1.0000000000	0.0000000000	0.0000000000
0.0400000000	235.0223310755	1.0000000000	701.3958900217	1.0000000000	0.0000000000	0.0000000000	-34.0017477321	1.0000000000	359.7920065221	1.0000000000	0.0000000000	0.0000000000
0.0500000000	216.1807174115	1.0000000000	589.4123318932	1.0000000000	0.0000000000	0.0000000000	-73.6852335657	1.0000000000	483.5145824273	1.0000000000	0.0000000000	0.0000000000
0.0600000000	188.5539425836	1.0000000000	471.5153965005	1.0000000000	0.0000000000	0.0000000000	-112.3387722102	1.0000000000	603.1997871625	1.0000000000	0.0000000000	0.0000000000
0.0700000000	154.4116035814	1.0000000000	356.1272788156	1.0000000000	0.0000000000	0.0000000000	-145.7087182694	1.0000000000	709.5388084700	1.0000000000	0.0000000000	0.0000000000
0.0800000000	117.4979686654	1.0000000000	250.6523530234	1.0000000000	0.0000000000	0.0000000000	-172.3287898914	1.0000000000	797.5705851504	1.0000000000	0.0000000000	0.0000000000
0.0900000000	83.4074891166	1.0000000000	161.6033307508	1.0000000000	0.0000000000	0.0000000000	-190.0855859473	1.0000000000	868.2939107369	1.0000000000	0.0000000000	0.0000000000
0.1000000000	55.0228066435	1.0000000000	93.0409025084	1.0000000000	0.0000000000	0.0000000000	-199.6897125707	1.0000000000	925.4137635105	1.0000000000	0.0000000000	0.0000000000
0.1100000000	32.2738505595	1.0000000000	44.8412614662	1.0000000000	0.0000000000	0.0000000000	-203.2867799217	1.0000000000	971.0471901345	1.0000000000	0.0000000000	0.0000000000
0.1200000000	16.2501693620	1.0000000000	14.3982561135	1.0000000000	0.0000000000	0.0000000000	-200.6580280209	1.0000000000	1005.4265428571	1.0000000000	0.0000000000	0.0000000000
0.1300000000	0.0000000000	1.0000000000	0.0000000000	1.0000000000	0.0000000000	0.0000000000	-192.3747731426	1.0000000000	1028.8486599005	1.0000000000	0.0000000000	0.0000000000
0.1400000000	0.0000000000	1.0000000000	0.0000000000	1.0000000000	0.0000000000	0.0000000000	-180.7725282517	1.0000000000	1041.3864200009	1.0000000000	0.0000000000	0.0000000000
0.1500000000	0.0000000000	1.0000000000	0.0000000000	1.0000000000	0.0000000000	0.0000000000	-166.0311670360	1.0000000000	1042.6547829561	1.0000000000	0.0000000000	0.0000000000
0.1600000000	0.0000000000	1.0000000000	0.0000000000	1.0000000000	0.0000000000	0.0000000000	-148.8886534962	1.0000000000	1032.7995809921	1.0000000000	0.0000000000	0.0000000000
0.1700000000	0.0000000000	1.0000000000	0.0000000000	1.0000000000	0.0000000000	0.0000000000	-131.4051469004	1.0000000000	1012.2784223206	1.0000000000	0.0000000000	0.0000000000
0.1800000000	0.0000000000	1.0000000000	0.0000000000	1.0000000000	0.0000000000	0.0000000000	-114.1802948110	1.0000000000	981.4728555177	1.0000000000	0.0000000000	0.0000000000
0.1900000000	0.0000000000	1.0000000000	0.0000000000	1.0000000000	0.0000000000	0.0000000000	-97.4576910390	1.0000000000	941.7506159857	1.0000000000	0.0000000000	0.0000000000
0.2000000000	0.0000000000	1.0000000000	0.0000000000	1.0000000000	0.0000000000	0.0000000000	-82.6795876442	1.0000000000	895.5545465335	1.0000000000	0.0000000000	0.0000000000
0.2100000000	0.0000000000	1.0000000000	0.0000000000	1.0000000000	0.0000000000	0.0000000000	-69.9146709158	1.0000000000	845.6716336876	1.0000000000	0.0000000000	0.0000000000
0.2200000000	0.0000000000	1.0000000000	0.0000000000	1.0000000000	0.0000000000	0.0000000000	-58.4728680986	1.0000000000	795.1835717099	1.0000000000	0.0000000000	0.0000000000
0.2300000000	0.0000000000	1.0000000000	0.0000000000	1.0000000000	0.0000000000	0.0000000000	-48.9802151941	1.0000000000	747.1287604356	1.0000000000	0.0000000000	0.0000000000
0.2400000000	0.0000000000	1.0000000000	0.0000000000	1.0000000000	0.0000000000	0.0000000000	-41.2034157730	1.0000000000	703.8691462996	1.0000000000	0.0000000000	0.0000000000
0.2500000000	0.0000000000	1.0000000000	0.0000000000	1.0000000000	0.0000000000	0.0000000000	-34.2262292647	1.0000000000	666.7168593077	1.0000000000	0.0000000000	0.0000000000
0.2600000000	0.0000000000	1.0000000000	0.0000000000	1.0000000000	0.0000000000	0.0000000000	-28.2201409898	1.0000000000	636.3338450393	1.0000000000	0.0000000000	0.0000000000
0.2700000000	0.0000000000	1.0000000000	0.0000000000	1.0000000000	0.0000000000	0.0000000000	-23.1181076428	1.0000000000	613.2775421775	1.0000000000	0.0000000000	0.0000000000
0.2800000000	0.0000000000	1.0000000000	0.0000000000	1.0000000000	0.0000000000	0.0000000000	-18.2751789914	1.0000000000	597.6189672007	1.0000000000	0.0000000000	0.0000000000
0.2900000000	0.0000000000	1.0000000000	0.0000000000	1.0000000000	0.0000000000	0.0000000000	-13.8052005791	1.0000000000	588.4881296863	1.0000000000	0.0000000000	0.0000000000
0.3000000000	0.0000000000	1.0000000000	0.0000000000	1.0000000000	0.0000000000	0.0000000000	-9.7201079055	1.0000000000	584.8966633030	1.0000000000	0.0000000000	0.0000000000
0.3100000000	0.0000000000	1.0000000000	0.0000000000	1.0000000000	0.0000000000	0.0000000000	-5.4470671182	1.0000000000	586.4495641874	1.0000000000	0.0000000000	0.0000000000
0.3200000000	0.0000000000	1.0000000000	0.0000000000	1.0000000000	0.0000000000	0.0000000000	-1.0028505001	1.0000000000	592.6907706108	1.0000000000	0.0000000000	0.0000000000
0.3300000000	0.0000000000	1.0000000000	0.0000000000	1.0000000000	0.0000000000	0.0000000000	3.6885619795	1.0000000000	602.8831524564	1.0000000000	0.0000000000	0.0000000000
0.3400000000	0.0000000000	1.0000000000	0.0000000000	1.0000000000	0.0000000000	0.0000000000	9.2331325372	1.0000000000	616.5716193184	1.0000000000	0.0000000000	0.0000000000
0.3500000000	0.0000000000	1.0000000000	0.0000000000	1.0000000000	0.0000000000	0.0000000000	15.6887706559	1.0000000000	633.6859925867	1.0000000000	0.0000000000	0.0000000000
0.3600000000	0.0000000000	1.0000000000	0.0000000000	1.0000000000	0.0000000000	0.0000000000	23.0926827092	1.0000000000	654.1721848730	1.0000000000	0.0000000000	0.0000000000
0.3700000000	0.0000000000	1.0000000000	0.0000000000	1.0000000000	0.0000000000	0.0000000000	31.8495336058	1.0000000000	677.9426617829	1.0000000000	0.0000000000	0.0000000000
0.3800000000	0.0000000000	1.0000000000	0.0000000000	1.0000000000	0.0000000000	0.0000000000	41.9522696194	1.0000000000	704.8367965357	1.0000000000	0.0000000000	0.0000000000
0.3900000000	0.0000000000	1.0000000000	0.0000000000	1.0000000000	0.0000000000	0.0000000000	53.2750406861	1.0000000000	734.3153043536	1.0000000000	0.0000000000	0.0000000000
0.4000000000	0.0000000000	1.0000000000	0.0000000000	1.0000000000	0.0000000000	0.0000000000	66.0610825079	1.0000000000	765.7319637780	1.0000000000	0.0000000000	0.0000000000
0.4100000000	0.0000000000	1.0000000000	0.0000000000	1.0000000000	0.0000000000	0.0000000000	80.1019071770	1.0000000000	798.7143652377	1.0000000000	0.0000000000	0.0000000000
0.4200000000	0.0000000000	1.0000000000	0.0000000000	1.0000000000	0.0000000000	0.0000000000	95.0156544181	1.0000000000	832.4861924650	1.0000000000	0.0000000000	0.0000000000
0.4300000000	0.0000000000	1.0000000000	0.0000000000	1.0000000000	0.0000000000	0.0000000000	110.8014473169	1.0000000000	865.4416798237	1.0000000000	0.0000000000	0.0000000000
0.4400000000	0.0000000000	1.0000000000	0.0000000000	1.0000000000	0.0000000000	0.0000000000	127.2260407144	1.0000000000	896.1109691685	1.0000000000	0.0000000000	0.0000000000
0.4500000000	0.0000000000	1.0000000000	0.0000000000	1.0000000000	0.0000000000	0.0000000000	143.9441581592	1.0000000000	923.4302298593	1.0000000000	0.0000000000	0.0000000000
0.4600000000	0.0000000000	1.0000000000	0.0000000000	1.0000000000	0.0000000000	0.0000000000	161.0087804535	1.0000000000	945.7372918816	1.0000000000	0.0000000000	0.0000000000
0.4700000000	0.0000000000	1.0000000000	0.0000000000	1.0000000000	0.0000000000	0.0000000000	178.3865697284	1.0000000000	960.6755050139	1.0000000000	0.0000000000	0.0000000000
0.4800000000	0.0000000000	1.0000000000	0.0000000000	1.0000000000	0.0000000000	0.0000000000	195.8573399584	1.0000000000	965.8953725353	1.0000000000	0.0000000000	0.0000000000
0.4900000000	0.0000000000	1.0000000000	0.0000000000	1.0000000000	0.0000000000	0.0000000000	213.1970643910	1.0000000000	959.1356304130	1.0000000000	0.0000000000	0.0000000000
0.5000000000	7.6833620708	1.0000000000	26.7763414597	1.0000000000	0.0000000000	0.0000000000	229.6005040279	1.0000000000	938.1158988954	1.0000000000	0.0000000000	0.0000000000
0.5100000000	4.4061092537	1.0000000000	87.6836419225	1.0000000000	0.0000000000	0.0000000000	243.5497184442	1.0000000000	900.6798895843	1.0000000000	0.0000000000	0.0000000000
0.5200000000	-6.1746399333	1.0000000000	182.8296345678	1.0000000000	0.0000000000	0.0000000000	253.1878063971	1.0000000000	845.0717882045	1.0000000000	0.0000000000	0.0000000000
0.5300000000	-28.5837895616	1.0000000000	306.2903813599	1.0000000000	0.0000000000	0.0000000000	255.8891624957	1.0000000000	770.4607282702	1.0000000000	0.0000000000	0.0000000000
0.5400000000	-63.7469543862	1.0000000000	443.1500390889	1.0000000000	0.0000000000	0.0000000000	248.4320127841	1.0000000000	677.5908219351	1.0000000000	0.0000000000	0.0000000000
0.5500000000	-104.6513901548	1.0000000000	577.4136566520	1.0000000000	0.0000000000	0.0000000000	229.1259150168	1.0000000000	569.6828354152	1.0000000000	0.0000000000	0.0000000000
0.5600000000	-142.3971626963	1.0000000000	696.7348649777	1.0000000000	0.0000000000	0.0000000000	198.6098588193	1.0000000000	453.2487181767	1.0000000000	0.0000000000	0.0000000000
0.5700000000	-173.2779351240	1.0000000000	793.9634630763	1.0000000000	0.0000000000	0.0000000000	159.3734036762	1.0000000000	337.3705920164	1.0000000000	0.0000000000	0.0000000000
0.5800000000	-196.6897602309	1.0000000000	869.2120808745	1.0000000000	0.0000000000	0.0000000000	117.0844529181	1.0000000000	231.8488012763	1.0000000000	0.0000000000	0.0000000000
0.5900000000	-212.0900967308	1.0000000000	928.0584126283	1.0000000000	0.0000000000	0.0000000000	78.5927521434	1.0000000000	144.8072859668	1.0000000000	0.0000000000	0.0000000000
0.6000000000	-220.2638050403	1.0000000000	975.9567575155	1.0000000000	0.0000000000	0.0000000000	47.7059796443	1.0000000000	79.9481729147	1.0000000000	0.0000000000	0.0000000000
0.6100000000	-222.1827911142	1.0000000000	1015.0696101281	1.0000000000	0.0000000000	0.0000000000	25.3590538259	1.0000000000	35.8254375539	1.0000000000	0.0000000000	0.0000000000
0.6200000000	-217.5379794138	1.0000000000	1045.4446365375	1.0000000000	0.0000000000	0.0000000000	11.3150878224	1.0000000000	8.8236877341	1.0000000000	0.0000000000	0.0000000000
0.6300000000	-207.2449644870	1.0000000000	1066.4675423232	1.0000000000	0.0000000000	0.0000000000	0.0000000000	1.0000000000	0.0000000000	1.0000000000	0.0000000000	0.0000000000
0.6400000000	-193.0585497576	1.0000000000	1076.6309604126	1.0000000000	0.0000000000	0.0000000000	0.0000000000	1.0000000000	0.0000000000	1.0000000000	0.0000000000	0.0000000000
0.6500000000	-175.6738035007	1.0000000000	1074.3195680882	1.0000000000	0.0000000000	0.0000000000	0.0000000000	1.0000000000	0.0000000000	1.0000000000	0.0000000000	0.0000000000
0.6600000000	-156.2921196398	1.0000000000	1059.2226252971	1.0000000000	0.0000000000	0.0000000000	0.0000000000	1.0000000000	0.0000000000	1.0000000000	0.0000000000	0.0000000000
0.6700000000	-136.6417321069	1.0000000000	1032.0928966605	1.0000000000	0.0000000000	0.0000000000	0.0000000000	1.0000000000	0.0000000000	1.0000000000	0.0000000000	0.0000000000
0.6800000000	-117.2112026665	1.0000000000	994.0140147641	1.0000000000	0.0000000000	0.0000000000	0.0000000000	1.0000000000	0.0000000000	1.0000000000	0.0000000000	0.0000000000
0.6900000000	-98.7121226741	1.0000000000	946.9667347676	1.0000000000	0.0000000000	0.0000000000	0.0000000000	1.0000000000	0.0000000000	1.0000000000	0.0000000000	0.0000000000
0.7000000000	-82.2791997568	1.0000000000	893.8291132637	1.0000000000	0.0000000000	0.0000000000	0.0000000000	1.0000000000	0.0000000000	1.0000000000	0.0000000000	0.0000000000
0.7100000000	-67.8279804242	1.0000000000	837.4112367441	1.0000000000	0.0000000000	0.0000000000	0.0000000000	1.0000000000	0.0000000000	1.0000000000	0.0000000000	0.0000000000
0.7200000000	-55.2177390978	1.0000000000	780.7009999632	1.0000000000	0.0000000000	0.0000000000	0.0000000000	1.0000000000	0.0000000000	1.0000000000	0.0000000000	0.0000000000
0.7300000000	-44.8885333440	1.0000000000	726.9983025480	1.0000000000	0.0000000000	0.0000000000	0.0000000000	1.0000000000	0.0000000000	1.0000000000	0.0000000000	0.0000000000
0.7400000000	-36.3887589908	1.0000000000	678.8635351798	1.0000000000	0.0000000000	0.0000000000	0.0000000000	1.0000000000	0.0000000000	1.0000000000	0.0000000000	0.0000000000
0.7500000000	-29.1697376091	1.0000000000	637.8516001440	1.0000000000	0.0000000000	0.0000000000	0.0000000000	1.0000000000	0.0000000000	1.0000000000	0.0000000000	0.0000000000
0.7600000000	-23.4439255258	1.0000000000	605.3486109206	1.0000000000	0.0000000000	0.0000000000	0.0000000000	1.0000000000	0.0000000000	1.0000000000	0.0000000000	0.0000000000
0.7700000000	-18.7141184512	1.0000000000	582.2841148731	1.0000000000	0.0000000000	0.0000000000	0.0000000000	1.0000000000	0.0000000000	1.0000000000	0.0000000000	0.0000000000
0.7800000000	-14.3959312235	1.0000000000	568.1201266441	1.0000000000	0.0000000000	0.0000000000	0.0000000000	1.0000000000	0.0000000000	1.0000000000	0.0000000000	0.0000000000
0.7900000000	-10.7747598597	1.0000000000	561.4555606127	1.0000000000	0.0000000000	0.0000000000	0.0000000000	1.0000000000	0.0000000000	1.0000000000	0.0000000000	0.0000000000
0.8000000000	-7.5172848626	1.0000000000	561.4203989929	1.0000000000	0.0000000000	0.0000000000	0.0000000000	1.0000000000	0.0000000000	1.0000000000	0.0000000000	0.0000000000
0.8100000000	-3.8435190232	1.0000000000	567.5491289783	1.0000000000	0.0000000000	0.0000000000	0.0000000000	1.0000000000	0.0000000000	1.0000000000	0.0000000000	0.0000000000
0.8200000000	0.3042681132	1.0000000000	579.0140749626	1.0000000000	0.0000000000	0.0000000000	0.0000000000	1.0000000000	0.0000000000	1.0000000000	0.0000000000	0.0000000000
0.8300000000	5.1328731009	1.0000000000	595.0647655890	1.0000000000	0.0000000000	0.0000000000	0.0000000000	1.0000000000	0.0000000000	1.0000000000	0.0000000000	0.0000000000
0.8400000000	11.2195966517	1.0000000000	615.5283614115	1.0000000000	0.0000000000	0.0000000000	0.0000000000	1.0000000000	0.0000000000	1.0000000000	0.0000000000	0.0000000000
0.8500000000	18.5855415088	1.0000000000	640.3332641083	1.0000000000	0.0000000000	0.0000000000	0.0000000000	1.0000000000	0.0000000000	1.0000000000	0.0000000000	0.0000000000
0.8600000000	27.1965133221	1.0000000000	669.3295905409	1.0000000000	0.0000000000	0.0000000000	0.0000000000	1.0000000000	0.0000000000	1.0000000000	0.0000000000	0.0000000000
0.8700000000	37.2811347425	1.0000000000	702.5331514882	1.0000000000	0.0000000000	0.0000000000	0.0000000000	1.0000000000	0.0000000000	1.0000000000	0.0000000000	0.0000000000
0.8800000000	48.5826643545	1.0000000000	739.6543012339	1.0000000000	0.0000000000	0.0000000000	0.0000000000	1.0000000000	0.0000000000	1.0000000000	0.0000000000	0.0000000000
0.8900000000	60.9496370136	1.0000000000	779.6980652858	1.0000000000	0.0000000000	0.0000000000	0.0000000000	1.0000000000	0.0000000000	1.0000000000	0.0000000000	0.0000000000
0.9000000000	74.6638196020	1.0000000000	821.4975840601	1.0000000000	0.0000000000	0.0000000000	0.0000000000	1.0000000000	0.0000000000	1.0000000000	0.0000000000	0.0000000000
0.9100000000	89.6336717043	1.0000000000	863.9022065465	1.0000000000	0.0000000000	0.0000000000	0.0000000000	1.0000000000	0.0000000000	1.0000000000	0.0000000000	0.0000000000
0.9200000000	105.5766134944	1.0000000000	905.1888079137	1.0000000000	0.0000000000	0.0000000000	0.0000000000	1.0000000000	0.0000000000	1.0000000000	0.0000000000	0.0000000000
0.9300000000	122.4097930090	1.0000000000	943.1283824703	1.0000000000	0.0000000000	0.0000000000	0.0000000000	1.0000000000	0.0000000000	1.0000000000	0.0000000000	0.0000000000
0.9400000000	139.8318784745	1.0000000000	975.7762247622	1.0000000000	0.0000000000	0.0000000000	0.0000000000	1.0000000000	0.0000000000	1.0000000000	0.0000000000	0.0000000000
0.9500000000	157.4768562731	1.0000000000	1001.4291013367	1.0000000000	0.0000000000	0.0000000000	0.0000000000	1.0000000000	0.0000000000	1.0000000000	0.0000000000	0.0000000000
0.9600000000	175.1465438330	1.0000000000	1017.8919492816	1.0000000000	0.0000000000	0.0000000000	0.0000000000	1.0000000000	0.0000000000	1.0000000000	0.0000000000	0.0000000000
0.9700000000	192.3645943732	1.0000000000	1022.5695904923	1.0000000000	0.0000000000	0.0000000000	0.0000000000	1.0000000000	0.0000000000	1.0000000000	0.0000000000	0.0000000000
0.9800000000	208.5147895864	1.0000000000	1013.0876629991	1.0000000000	0.0000000000	0.0000000000	0.0000000000	1.0000000000	0.0000000000	1.0000000000	0.0000000000	0.0000000000
0.9900000000	223.0528830964	1.0000000000	987.4017633227	1.0000000000	0.0000000000	0.0000000000	12.6522931982	1.0000000000	11.4783853543	1.0000000000	0.0000000000	0.0000000000
