name p4_grf_mean_speed_1.6
datacolumns 13
datarows 100
range 0.00000000 0.99000000
endheader
time	grf_x_l_mean	grf_x_l_var	grf_y_l_mean	grf_y_l_var	grf_z_l_mean	grf_z_l_var	grf_x_r_mean	grf_x_r_var	grf_y_r_mean	grf_y_r_var	grf_z_r_mean	grf_z_r_var
0.0000000000	161.6828581459	1.0000000000	887.9649210168	1.0000000000	0.0000000000	0.0000000000	18.2332560858	1.0000000000	11.6200065481	1.0000000000	0.0000000000	0.0000000000
0.0100000000	178.1384800436	1.0000000000	871.2487397139	1.0000000000	0.0000000000	0.0000000000	26.2009876384	1.0000000000	51.6431191497	1.0000000000	0.0000000000	0.0000000000
0.0200000000	193.0624479480	1.0000000000	839.9270707552	1.0000000000	0.0000000000	0.0000000000	30.7361953948	1.0000000000	117.1238492738	1.0000000000	0.0000000000	0.0000000000
0.0300000000	204.6815792759	1.0000000000	792.8434086036	1.0000000000	0.0000000000	0.0000000000	25.3426365978	1.0000000000	208.3388539365	1.0000000000	0.0000000000	0.0000000000
0.0400000000	210.8019735381	1.0000000000	728.3487866676	1.0000000000	0.0000000000	0.0000000000	3.6557588217	1.0000000000	319.0647442511	1.0000000000	0.0000000000	0.0000000000
0.0500000000	208.0406729396	1.0000000000	646.1591840167	1.0000000000	0.0000000000	0.0000000000	-33.2619538776	1.0000000000	441.0896367894	1.0000000000	0.0000000000	0.0000000000
0.0600000000	194.8866260199	1.0000000000	549.8368805779	1.0000000000	0.0000000000	0.0000000000	-76.3047894075	1.0000000000	566.3684885883	1.0000000000	0.0000000000	0.0000000000
0.0700000000	172.2986556205	1.0000000000	446.2899666727	1.0000000000	0.0000000000	0.0000000000	-117.1933982601	1.0000000000	683.9989192681	1.0000000000	0.0000000000	0.0000000000
0.0800000000	141.2542584537	1.0000000000	342.8157628461	1.0000000000	0.0000000000	0.0000000000	-152.3025359506	1.0000000000	781.7803265028	1.0000000000	0.0000000000	0.0000000000
0.0900000000	104.9644813919	1.0000000000	246.2298026055	1.0000000000	0.0000000000	0.0000000000	-178.8770001513	1.0000000000	853.4039656278	1.0000000000	0.0000000000	0.0000000000
0.1000000000	70.0903355413	1.0000000000	163.4614833916	1.0000000000	0.0000000000	0.0000000000	-194.2132245208	1.0000000000	901.0820023328	1.0000000000	0.0000000000	0.0000000000
0.1100000000	41.9637927269	1.0000000000	99.3138352516	1.0000000000	0.0000000000	0.0000000000	-199.0598888961	1.0000000000	931.5522905076	1.0000000000	0.0000000000	0.0000000000
0.1200000000	21.2098830925	1.0000000000	53.6468108087	1.0000000000	0.0000000000	0.0000000000	-196.7357412345	1.0000000000	951.0691731129	1.0000000000	0.0000000000	0.0000000000
0.1300000000	6.9686391886	1.0000000000	23.2199821822	1.0000000000	0.0000000000	0.0000000000	-189.1893857243	1.0000000000	963.6636794929	1.0000000000	0.0000000000	0.0000000000
0.1400000000	-1.1344285596	1.0000000000	5.3363981149	1.0000000000	0.0000000000	0.0000000000	-176.6032725316	1.0000000000	971.3879401516	1.0000000000	0.0000000000	0.0000000000
0.1500000000	0.0000000000	1.0000000000	0.0000000000	1.0000000000	0.0000000000	0.0000000000	-161.0988441268	1.0000000000	973.8143860896	1.0000000000	0.0000000000	0.0000000000
0.1600000000	0.0000000000	1.0000000000	0.0000000000	1.0000000000	0.0000000000	0.0000000000	-145.3923849754	1.0000000000	967.8569130042	1.0000000000	0.0000000000	0.0000000000
0.1700000000	0.0000000000	1.0000000000	0.0000000000	1.0000000000	0.0000000000	0.0000000000	-128.8710860149	1.0000000000	949.7920811715	1.0000000000	0.0000000000	0.0000000000
0.1800000000	0.0000000000	1.0000000000	0.0000000000	1.0000000000	0.0000000000	0.0000000000	-110.8359182628	1.0000000000	918.0232783721	1.0000000000	0.0000000000	0.0000000000
0.1900000000	0.0000000000	1.0000000000	0.0000000000	1.0000000000	0.0000000000	0.0000000000	-93.3992241445	1.0000000000	873.5942701476	1.0000000000	0.0000000000	0.0000000000
0.2000000000	-2.0669348676	1.0000000000	0.8758382350	1.0000000000	0.0000000000	0.0000000000	-78.1156440206	1.0000000000	818.8212497669	1.0000000000	0.0000000000	0.0000000000
0.2100000000	-1.3895120404	1.0000000000	1.5439212337	1.0000000000	0.0000000000	0.0000000000	-64.0297942887	1.0000000000	756.8563400263	1.0000000000	0.0000000000	0.0000000000
0.2200000000	-0.7311960849	1.0000000000	1.3856575119	1.0000000000	0.0000000000	0.0000000000	-50.9347073048	1.0000000000	692.5229202978	1.0000000000	0.0000000000	0.0000000000
0.2300000000	-0.6210917071	1.0000000000	1.1019555058	1.0000000000	0.0000000000	0.0000000000	-40.5810586195	1.0000000000	631.3223358590	1.0000000000	0.0000000000	0.0000000000
0.2400000000	-0.6991039050	1.0000000000	0.8996654400	1.0000000000	0.0000000000	0.0000000000	-32.8276910706	1.0000000000	577.1215156216	1.0000000000	0.0000000000	0.0000000000
0.2500000000	-0.4631702783	1.0000000000	0.5043230377	1.0000000000	0.0000000000	0.0000000000	-25.8023219960	1.0000000000	531.7592879612	1.0000000000	0.0000000000	0.0000000000
0.2600000000	0.0000000000	1.0000000000	0.0000000000	1.0000000000	0.0000000000	0.0000000000	-19.7375817607	1.0000000000	496.2024740982	1.0000000000	0.0000000000	0.0000000000
0.2700000000	0.0000000000	1.0000000000	0.0000000000	1.0000000000	0.0000000000	0.0000000000	-15.8211209977	1.0000000000	470.9711099377	1.0000000000	0.0000000000	0.0000000000
0.2800000000	-0.6599629586	1.0000000000	0.2386847490	1.0000000000	0.0000000000	0.0000000000	-13.0410372766	1.0000000000	455.6246863399	1.0000000000	0.0000000000	0.0000000000
0.2900000000	-0.3167881636	1.0000000000	0.4326310794	1.0000000000	0.0000000000	0.0000000000	-10.0830882066	1.0000000000	448.6654749706	1.0000000000	0.0000000000	0.0000000000
0.3000000000	-0.5482523049	1.0000000000	0.1870261235	1.0000000000	0.0000000000	0.0000000000	-7.7236667426	1.0000000000	448.4761833974	1.0000000000	0.0000000000	0.0000000000
0.3100000000	-0.8972596570	1.0000000000	0.0255900987	1.0000000000	0.0000000000	0.0000000000	-6.4110637060	1.0000000000	454.1213960757	1.0000000000	0.0000000000	0.0000000000
0.3200000000	-0.4828458852	1.0000000000	0.2222214168	1.0000000000	0.0000000000	0.0000000000	-5.0234989800	1.0000000000	464.9976407218	1.0000000000	0.0000000000	0.0000000000
0.3300000000	-0.0892559927	1.0000000000	0.3235560077	1.0000000000	0.0000000000	0.0000000000	-3.0020966029	1.0000000000	480.0526075154	1.0000000000	0.0000000000	0.0000000000
0.3400000000	-0.5536245517	1.0000000000	0.1088934392	1.0000000000	0.0000000000	0.0000000000	-0.9985199594	1.0000000000	498.0644840741	1.0000000000	0.0000000000	0.0000000000
0.3500000000	-0.8769728468	1.0000000000	0.0693285128	1.0000000000	0.0000000000	0.0000000000	0.9658730232	1.0000000000	518.7467060956	1.0000000000	0.0000000000	0.0000000000
0.3600000000	-0.5010600084	1.0000000000	0.4191005243	1.0000000000	0.0000000000	0.0000000000	3.7958080688	1.0000000000	542.4799191941	1.0000000000	0.0000000000	0.0000000000
0.3700000000	-0.4452164396	1.0000000000	0.6709798969	1.0000000000	0.0000000000	0.0000000000	7.5627444252	1.0000000000	568.9604273110	1.0000000000	0.0000000000	0.0000000000
0.3800000000	-0.9864163185	1.0000000000	0.5732314199	1.0000000000	0.0000000000	0.0000000000	12.0514907230	1.0000000000	597.3332177378	1.0000000000	0.0000000000	0.0000000000
0.3900000000	-1.1604923163	1.0000000000	0.4871831391	1.0000000000	0.0000000000	0.0000000000	18.0016173361	1.0000000000	627.3326113309	1.0000000000	0.0000000000	0.0000000000
0.4000000000	-0.9764222529	1.0000000000	0.5422077772	1.0000000000	0.0000000000	0.0000000000	25.8646427919	1.0000000000	659.0400040788	1.0000000000	0.0000000000	0.0000000000
0.4100000000	-1.4045583649	1.0000000000	0.2039248491	1.0000000000	0.0000000000	0.0000000000	35.2664618997	1.0000000000	691.9308197086	1.0000000000	0.0000000000	0.0000000000
0.4200000000	0.0000000000	1.0000000000	0.0000000000	1.0000000000	0.0000000000	0.0000000000	46.0641043554	1.0000000000	725.1962165352	1.0000000000	0.0000000000	0.0000000000
0.4300000000	0.0000000000	1.0000000000	0.0000000000	1.0000000000	0.0000000000	0.0000000000	58.3937570839	1.0000000000	758.4518208361	1.0000000000	0.0000000000	0.0000000000
0.4400000000	0.0000000000	1.0000000000	0.0000000000	1.0000000000	0.0000000000	0.0000000000	71.8495600857	1.0000000000	791.0395614931	1.0000000000	0.0000000000	0.0000000000
0.4500000000	0.0000000000	1.0000000000	0.0000000000	1.0000000000	0.0000000000	0.0000000000	85.8728944815	1.0000000000	821.1770098595	1.0000000000	0.0000000000	0.0000000000
0.4600000000	0.0000000000	1.0000000000	0.0000000000	1.0000000000	0.0000000000	0.0000000000	100.5541275237	1.0000000000	846.8075791798	1.0000000000	0.0000000000	0.0000000000
0.4700000000	0.0000000000	1.0000000000	0.0000000000	1.0000000000	0.0000000000	0.0000000000	116.0289091901	1.0000000000	866.6803724760	1.0000000000	0.0000000000	0.0000000000
0.4800000000	0.0000000000	1.0000000000	0.0000000000	1.0000000000	0.0000000000	0.0000000000	131.9605812620	1.0000000000	879.6636991625	1.0000000000	0.0000000000	0.0000000000
0.4900000000	14.1925947057	1.0000000000	8.9033647715	1.0000000000	0.0000000000	0.0000000000	148.1647901963	1.0000000000	883.6591225325	1.0000000000	0.0000000000	0.0000000000
0.5000000000	22.6108802034	1.0000000000	41.0050865829	1.0000000000	0.0000000000	0.0000000000	164.6928864247	1.0000000000	876.1787163927	1.0000000000	0.0000000000	0.0000000000
0.5100000000	29.4748871954	1.0000000000	93.9641481373	1.0000000000	0.0000000000	0.0000000000	180.8095205609	1.0000000000	855.4600679925	1.0000000000	0.0000000000	0.0000000000
0.5200000000	28.7806891277	1.0000000000	169.6564046122	1.0000000000	0.0000000000	0.0000000000	194.8795724771	1.0000000000	820.0206333095	1.0000000000	0.0000000000	0.0000000000
0.5300000000	14.0455269796	1.0000000000	264.9311187130	1.0000000000	0.0000000000	0.0000000000	204.8001129041	1.0000000000	767.7220823687	1.0000000000	0.0000000000	0.0000000000
0.5400000000	-17.0046486810	1.0000000000	374.0960014568	1.0000000000	0.0000000000	0.0000000000	207.7412006964	1.0000000000	696.8961357885	1.0000000000	0.0000000000	0.0000000000
0.5500000000	-59.2229342845	1.0000000000	491.3984652430	1.0000000000	0.0000000000	0.0000000000	201.3715877937	1.0000000000	608.8562157817	1.0000000000	0.0000000000	0.0000000000
0.5600000000	-103.1300765119	1.0000000000	609.0142831036	1.0000000000	0.0000000000	0.0000000000	184.9717791515	1.0000000000	508.7608144492	1.0000000000	0.0000000000	0.0000000000
0.5700000000	-141.4585329734	1.0000000000	715.7203586974	1.0000000000	0.0000000000	0.0000000000	158.9120547253	1.0000000000	403.9503243876	1.0000000000	0.0000000000	0.0000000000
0.5800000000	-171.1588753868	1.0000000000	801.5469679489	1.0000000000	0.0000000000	0.0000000000	125.6704399668	1.0000000000	302.2241272356	1.0000000000	0.0000000000	0.0000000000
0.5900000000	-190.4422635663	1.0000000000	863.3474045057	1.0000000000	0.0000000000	0.0000000000	90.7267794463	1.0000000000	211.1404669336	1.0000000000	0.0000000000	0.0000000000
0.6000000000	-198.5483883462	1.0000000000	904.3112636168	1.0000000000	0.0000000000	0.0000000000	59.7274060268	1.0000000000	136.6041726593	1.0000000000	0.0000000000	0.0000000000
0.6100000000	-197.4989606435	1.0000000000	929.2738718901	1.0000000000	0.0000000000	0.0000000000	34.9930284712	1.0000000000	80.5500627993	1.0000000000	0.0000000000	0.0000000000
0.6200000000	-190.6050725771	1.0000000000	942.2079101176	1.0000000000	0.0000000000	0.0000000000	16.8446989803	1.0000000000	40.9096093111	1.0000000000	0.0000000000	0.0000000000
0.6300000000	-179.5698694659	1.0000000000	946.8272739548	1.0000000000	0.0000000000	0.0000000000	5.5560775347	1.0000000000	14.8756712787	1.0000000000	0.0000000000	0.0000000000
0.6400000000	-165.1477654590	1.0000000000	945.9630471736	1.0000000000	0.0000000000	0.0000000000	-0.0942098449	1.0000000000	0.6497463962	1.0000000000	0.0000000000	0.0000000000
0.6500000000	-149.0554385291	1.0000000000	939.5699689307	1.0000000000	0.0000000000	0.0000000000	0.0000000000	1.0000000000	0.0000000000	1.0000000000	0.0000000000	0.0000000000
0.6600000000	-132.4380540504	1.0000000000	925.2822829655	1.0000000000	0.0000000000	0.0000000000	0.0000000000	1.0000000000	0.0000000000	1.0000000000	0.0000000000	0.0000000000
0.6700000000	-115.2316934086	1.0000000000	901.3380206444	1.0000000000	0.0000000000	0.0000000000	0.0000000000	1.0000000000	0.0000000000	1.0000000000	0.0000000000	0.0000000000
0.6800000000	-97.9856550802	1.0000000000	868.1465423768	1.0000000000	0.0000000000	0.0000000000	0.0000000000	1.0000000000	0.0000000000	1.0000000000	0.0000000000	0.0000000000
0.6900000000	-81.8823857804	1.0000000000	827.0258965652	1.0000000000	0.0000000000	0.0000000000	0.0000000000	1.0000000000	0.0000000000	1.0000000000	0.0000000000	0.0000000000
0.7000000000	-67.1194025307	1.0000000000	779.0979867855	1.0000000000	0.0000000000	0.0000000000	0.0000000000	1.0000000000	0.0000000000	1.0000000000	0.0000000000	0.0000000000
0.7100000000	-53.4200501591	1.0000000000	726.4944283901	1.0000000000	0.0000000000	0.0000000000	0.1261077726	1.0000000000	0.7773409273	1.0000000000	0.0000000000	0.0000000000
0.7200000000	-41.4772926701	1.0000000000	673.1001034622	1.0000000000	0.0000000000	0.0000000000	0.4621987063	1.0000000000	0.6410433452	1.0000000000	0.0000000000	0.0000000000
0.7300000000	-31.5479703494	1.0000000000	622.5708468725	1.0000000000	0.0000000000	0.0000000000	0.1827913242	1.0000000000	0.4303174420	1.0000000000	0.0000000000	0.0000000000
0.7400000000	-22.8379106544	1.0000000000	576.6482654923	1.0000000000	0.0000000000	0.0000000000	0.0562698832	1.0000000000	0.4858342929	1.0000000000	0.0000000000	0.0000000000
0.7500000000	-15.2163734674	1.0000000000	536.3964722664	1.0000000000	0.0000000000	0.0000000000	0.4185581413	1.0000000000	0.4903722278	1.0000000000	0.0000000000	0.0000000000
0.7600000000	-9.1621612221	1.0000000000	503.5605526708	1.0000000000	0.0000000000	0.0000000000	0.3879080079	1.0000000000	0.2770688825	1.0000000000	0.0000000000	0.0000000000
0.7700000000	-4.2909531369	1.0000000000	479.3354216502	1.0000000000	0.0000000000	0.0000000000	0.0127195541	1.0000000000	0.0468942032	1.0000000000	0.0000000000	0.0000000000
0.7800000000	0.1457217988	1.0000000000	463.2433652457	1.0000000000	0.0000000000	0.0000000000	0.0000000000	1.0000000000	0.0000000000	1.0000000000	0.0000000000	0.0000000000
0.7900000000	3.6393092613	1.0000000000	454.5247147311	1.0000000000	0.0000000000	0.0000000000	0.0000000000	1.0000000000	0.0000000000	1.0000000000	0.0000000000	0.0000000000
0.8000000000	5.8277485499	1.0000000000	453.3105106254	1.0000000000	0.0000000000	0.0000000000	0.0000000000	1.0000000000	0.0000000000	1.0000000000	0.0000000000	0.0000000000
0.8100000000	7.7145532655	1.0000000000	459.4007056161	1.0000000000	0.0000000000	0.0000000000	0.0000000000	1.0000000000	0.0000000000	1.0000000000	0.0000000000	0.0000000000
0.8200000000	9.5481095608	1.0000000000	471.2406309716	1.0000000000	0.0000000000	0.0000000000	0.0832781584	1.0000000000	0.3599744562	1.0000000000	0.0000000000	0.0000000000
0.8300000000	10.5144902906	1.0000000000	487.1292119586	1.0000000000	0.0000000000	0.0000000000	0.2431794547	1.0000000000	0.4486664242	1.0000000000	0.0000000000	0.0000000000
0.8400000000	10.9188446150	1.0000000000	506.5440114851	1.0000000000	0.0000000000	0.0000000000	0.1823577792	1.0000000000	0.2970512975	1.0000000000	0.0000000000	0.0000000000
0.8500000000	12.0958269883	1.0000000000	529.4438958975	1.0000000000	0.0000000000	0.0000000000	0.1637596621	1.0000000000	0.3567274723	1.0000000000	0.0000000000	0.0000000000
0.8600000000	14.2453155470	1.0000000000	555.0143326858	1.0000000000	0.0000000000	0.0000000000	0.1991900836	1.0000000000	0.7205476552	1.0000000000	0.0000000000	0.0000000000
0.8700000000	16.9255088363	1.0000000000	582.1578153190	1.0000000000	0.0000000000	0.0000000000	0.1330267137	1.0000000000	1.0246430382	1.0000000000	0.0000000000	0.0000000000
0.8800000000	21.0165257212	1.0000000000	610.7881156544	1.0000000000	0.0000000000	0.0000000000	0.1112241190	1.0000000000	1.0227722493	1.0000000000	0.0000000000	0.0000000000
0.8900000000	27.5068855997	1.0000000000	641.5429917258	1.0000000000	0.0000000000	0.0000000000	0.2105314576	1.0000000000	0.8323327955	1.0000000000	0.0000000000	0.0000000000
0.9000000000	35.9755166565	1.0000000000	674.3430751760	1.0000000000	0.0000000000	0.0000000000	0.0130857074	1.0000000000	0.5706251854	1.0000000000	0.0000000000	0.0000000000
0.9100000000	45.8840586451	1.0000000000	708.2835590708	1.0000000000	0.0000000000	0.0000000000	-0.5858879544	1.0000000000	0.0235150498	1.0000000000	0.0000000000	0.0000000000
0.9200000000	57.5185126478	1.0000000000	742.8251162054	1.0000000000	0.0000000000	0.0000000000	0.0000000000	1.0000000000	0.0000000000	1.0000000000	0.0000000000	0.0000000000
0.9300000000	70.6703986368	1.0000000000	777.6451853020	1.0000000000	0.0000000000	0.0000000000	0.0000000000	1.0000000000	0.0000000000	1.0000000000	0.0000000000	0.0000000000
0.9400000000	84.3566387112	1.0000000000	811.2391164588	1.0000000000	0.0000000000	0.0000000000	0.0000000000	1.0000000000	0.0000000000	1.0000000000	0.0000000000	0.0000000000
0.9500000000	98.4710796137	1.0000000000	841.1236515950	1.0000000000	0.0000000000	0.0000000000	0.0000000000	1.0000000000	0.0000000000	1.0000000000	0.0000000000	0.0000000000
0.9600000000	113.5161451000	1.0000000000	865.3944321018	1.0000000000	0.0000000000	0.0000000000	0.0000000000	1.0000000000	0.0000000000	1.0000000000	0.0000000000	0.0000000000
0.9700000000	129.2487464220	1.0000000000	882.7635541765	1.0000000000	0.0000000000	0.0000000000	0.0000000000	1.0000000000	0.0000000000	1.0000000000	0.0000000000	0.0000000000
0.9800000000	145.2534381457	1.0000000000	891.2353148327	1.0000000000	0.0000000000	0.0000000000	0.0000000000	1.0000000000	0.0000000000	1.0000000000	0.0000000000	0.0000000000
0.9900000000	161.6586457738	1.0000000000	888.1059382247	1.0000000000	0.0000000000	0.0000000000	18.2139720607	1.0000000000	11.6220953175	1.0000000000	0.0000000000	0.0000000000
