name p4_grf_mean_speed_1.0
datacolumns 13
datarows 100
range 0.00000000 0.99000000
endheader
time	grf_x_l_mean	grf_x_l_var	grf_y_l_mean	grf_y_l_var	grf_z_l_mean	grf_z_l_var	grf_x_r_mean	grf_x_r_var	grf_y_r_mean	grf_y_r_var	grf_z_r_mean	grf_z_r_var
0.0000000000	88.6345846370	1.0000000000	808.6464755456	1.0000000000	0.0000000000	0.0000000000	15.5920310152	1.0000000000	10.8047716281	1.0000000000	0.0000000000	0.0000000000
0.0100000000	96.5240972549	1.0000000000	803.0078950531	1.0000000000	0.0000000000	0.0000000000	27.0623274311	1.0000000000	35.2892319019	1.0000000000	0.0000000000	0.0000000000
0.0200000000	105.0252323248	1.0000000000	789.7801356852	1.0000000000	0.0000000000	0.0000000000	35.0019653613	1.0000000000	73.1624684869	1.0000000000	0.0000000000	0.0000000000
0.0300000000	113.3299269895	1.0000000000	767.3353871911	1.0000000000	0.0000000000	0.0000000000	30.5145025998	1.0000000000	123.0483992000	1.0000000000	0.0000000000	0.0000000000
0.0400000000	120.7485448858	1.0000000000	734.4160123125	1.0000000000	0.0000000000	0.0000000000	12.2011066069	1.0000000000	186.1852347392	1.0000000000	0.0000000000	0.0000000000
0.0500000000	127.6338733021	1.0000000000	690.5458335348	1.0000000000	0.0000000000	0.0000000000	-13.7704768683	1.0000000000	265.1923952910	1.0000000000	0.0000000000	0.0000000000
0.0600000000	132.5750144974	1.0000000000	634.5862542509	1.0000000000	0.0000000000	0.0000000000	-43.0707570482	1.0000000000	356.5106732629	1.0000000000	0.0000000000	0.0000000000
0.0700000000	133.5571981382	1.0000000000	564.8242709783	1.0000000000	0.0000000000	0.0000000000	-71.7303321223	1.0000000000	449.3033463834	1.0000000000	0.0000000000	0.0000000000
0.0800000000	128.7500332626	1.0000000000	482.0035886413	1.0000000000	0.0000000000	0.0000000000	-93.6786425261	1.0000000000	531.9756524785	1.0000000000	0.0000000000	0.0000000000
0.0900000000	116.1977857482	1.0000000000	389.7132201229	1.0000000000	0.0000000000	0.0000000000	-106.8831288687	1.0000000000	596.5983052309	1.0000000000	0.0000000000	0.0000000000
0.1000000000	95.3923086257	1.0000000000	294.1549694119	1.0000000000	0.0000000000	0.0000000000	-112.6203294693	1.0000000000	641.1518663450	1.0000000000	0.0000000000	0.0000000000
0.1100000000	69.2856335683	1.0000000000	204.7962149406	1.0000000000	0.0000000000	0.0000000000	-112.1251293489	1.0000000000	670.7767211005	1.0000000000	0.0000000000	0.0000000000
0.1200000000	42.6950877116	1.0000000000	130.6144698725	1.0000000000	0.0000000000	0.0000000000	-108.7769972630	1.0000000000	693.5060917722	1.0000000000	0.0000000000	0.0000000000
0.1300000000	20.9743859883	1.0000000000	75.0809830932	1.0000000000	0.0000000000	0.0000000000	-105.0920673682	1.0000000000	713.8948976657	1.0000000000	0.0000000000	0.0000000000
0.1400000000	6.7848566370	1.0000000000	37.0623212037	1.0000000000	0.0000000000	0.0000000000	-100.7677685611	1.0000000000	733.1207305055	1.0000000000	0.0000000000	0.0000000000
0.1500000000	-0.8623847071	1.0000000000	14.0086147634	1.0000000000	0.0000000000	0.0000000000	-96.1998594485	1.0000000000	751.2146023462	1.0000000000	0.0000000000	0.0000000000
0.1600000000	-3.6141273041	1.0000000000	2.1920340352	1.0000000000	0.0000000000	0.0000000000	-91.1440384773	1.0000000000	766.4478435275	1.0000000000	0.0000000000	0.0000000000
0.1700000000	0.0000000000	1.0000000000	0.0000000000	1.0000000000	0.0000000000	0.0000000000	-84.5613745665	1.0000000000	775.5270253712	1.0000000000	0.0000000000	0.0000000000
0.1800000000	0.0000000000	1.0000000000	0.0000000000	1.0000000000	0.0000000000	0.0000000000	-76.9504971094	1.0000000000	775.7759229412	1.0000000000	0.0000000000	0.0000000000
0.1900000000	0.0000000000	1.0000000000	0.0000000000	1.0000000000	0.0000000000	0.0000000000	-68.6885733244	1.0000000000	767.1535550209	1.0000000000	0.0000000000	0.0000000000
0.2000000000	0.0000000000	1.0000000000	0.0000000000	1.0000000000	0.0000000000	0.0000000000	-59.8831480177	1.0000000000	752.0613897961	1.0000000000	0.0000000000	0.0000000000
0.2100000000	0.0000000000	1.0000000000	0.0000000000	1.0000000000	0.0000000000	0.0000000000	-51.6299182757	1.0000000000	733.7475865724	1.0000000000	0.0000000000	0.0000000000
0.2200000000	-0.1528057331	1.0000000000	0.1604610191	1.0000000000	0.0000000000	0.0000000000	-44.2311676069	1.0000000000	715.4134340890	1.0000000000	0.0000000000	0.0000000000
0.2300000000	-0.2351173642	1.0000000000	0.3069985442	1.0000000000	0.0000000000	0.0000000000	-37.5883642265	1.0000000000	699.6144448180	1.0000000000	0.0000000000	0.0000000000
0.2400000000	-0.4313488046	1.0000000000	0.2327849313	1.0000000000	0.0000000000	0.0000000000	-32.2109326970	1.0000000000	687.7562429960	1.0000000000	0.0000000000	0.0000000000
0.2500000000	-0.4462967580	1.0000000000	0.1659483442	1.0000000000	0.0000000000	0.0000000000	-28.0589273988	1.0000000000	680.2994673775	1.0000000000	0.0000000000	0.0000000000
0.2600000000	-0.4337368743	1.0000000000	0.1147480382	1.0000000000	0.0000000000	0.0000000000	-24.5994858576	1.0000000000	676.5475526280	1.0000000000	0.0000000000	0.0000000000
0.2700000000	-0.4719432834	1.0000000000	0.0176167211	1.0000000000	0.0000000000	0.0000000000	-21.6643907772	1.0000000000	675.0595903581	1.0000000000	0.0000000000	0.0000000000
0.2800000000	0.0000000000	1.0000000000	0.0000000000	1.0000000000	0.0000000000	0.0000000000	-19.0477947809	1.0000000000	675.1622132240	1.0000000000	0.0000000000	0.0000000000
0.2900000000	-0.3012030894	1.0000000000	0.0059452459	1.0000000000	0.0000000000	0.0000000000	-16.5028660070	1.0000000000	676.5941960717	1.0000000000	0.0000000000	0.0000000000
0.3000000000	-0.2460197824	1.0000000000	0.0489478278	1.0000000000	0.0000000000	0.0000000000	-13.8460095061	1.0000000000	678.5282193013	1.0000000000	0.0000000000	0.0000000000
0.3100000000	-0.1980092292	1.0000000000	0.0664319286	1.0000000000	0.0000000000	0.0000000000	-11.0548417714	1.0000000000	680.5427583456	1.0000000000	0.0000000000	0.0000000000
0.3200000000	-0.1887208910	1.0000000000	0.0987659598	1.0000000000	0.0000000000	0.0000000000	-8.1913456151	1.0000000000	683.1394716206	1.0000000000	0.0000000000	0.0000000000
0.3300000000	-0.1886998275	1.0000000000	0.1042402677	1.0000000000	0.0000000000	0.0000000000	-5.1681313730	1.0000000000	686.8913599104	1.0000000000	0.0000000000	0.0000000000
0.3400000000	-0.1914773163	1.0000000000	0.1136732889	1.0000000000	0.0000000000	0.0000000000	-1.9402181142	1.0000000000	691.9832031079	1.0000000000	0.0000000000	0.0000000000
0.3500000000	-0.2190830520	1.0000000000	0.1557349373	1.0000000000	0.0000000000	0.0000000000	1.5536272210	1.0000000000	698.1819732087	1.0000000000	0.0000000000	0.0000000000
0.3600000000	-0.1997287149	1.0000000000	0.1523499844	1.0000000000	0.0000000000	0.0000000000	5.3166324490	1.0000000000	705.2273990520	1.0000000000	0.0000000000	0.0000000000
0.3700000000	-0.1438799215	1.0000000000	0.1467578671	1.0000000000	0.0000000000	0.0000000000	9.2727329852	1.0000000000	713.2194198008	1.0000000000	0.0000000000	0.0000000000
0.3800000000	-0.1206073653	1.0000000000	0.2220145596	1.0000000000	0.0000000000	0.0000000000	13.4850363697	1.0000000000	721.7995505292	1.0000000000	0.0000000000	0.0000000000
0.3900000000	-0.1007786906	1.0000000000	0.2887343086	1.0000000000	0.0000000000	0.0000000000	18.0671284793	1.0000000000	729.8872482640	1.0000000000	0.0000000000	0.0000000000
0.4000000000	-0.0708708110	1.0000000000	0.2639779153	1.0000000000	0.0000000000	0.0000000000	22.9629302224	1.0000000000	737.1192983953	1.0000000000	0.0000000000	0.0000000000
0.4100000000	-0.1311199939	1.0000000000	0.1970854656	1.0000000000	0.0000000000	0.0000000000	28.2591706502	1.0000000000	743.8855045711	1.0000000000	0.0000000000	0.0000000000
0.4200000000	0.0000000000	1.0000000000	0.0000000000	1.0000000000	0.0000000000	0.0000000000	33.9818258259	1.0000000000	750.0891128053	1.0000000000	0.0000000000	0.0000000000
0.4300000000	0.0000000000	1.0000000000	0.0000000000	1.0000000000	0.0000000000	0.0000000000	40.0311892686	1.0000000000	755.6727264686	1.0000000000	0.0000000000	0.0000000000
0.4400000000	0.0000000000	1.0000000000	0.0000000000	1.0000000000	0.0000000000	0.0000000000	46.4438305190	1.0000000000	761.2417174089	1.0000000000	0.0000000000	0.0000000000
0.4500000000	0.0000000000	1.0000000000	0.0000000000	1.0000000000	0.0000000000	0.0000000000	53.1770749693	1.0000000000	767.2095419398	1.0000000000	0.0000000000	0.0000000000
0.4600000000	0.0000000000	1.0000000000	0.0000000000	1.0000000000	0.0000000000	0.0000000000	60.1123739473	1.0000000000	773.3257276390	1.0000000000	0.0000000000	0.0000000000
0.4700000000	0.0000000000	1.0000000000	0.0000000000	1.0000000000	0.0000000000	0.0000000000	67.3224617120	1.0000000000	778.8057686531	1.0000000000	0.0000000000	0.0000000000
0.4800000000	5.0404854585	1.0000000000	1.1472555744	1.0000000000	0.0000000000	0.0000000000	74.8899834082	1.0000000000	782.5529446102	1.0000000000	0.0000000000	0.0000000000
0.4900000000	11.7953521586	1.0000000000	13.6269363271	1.0000000000	0.0000000000	0.0000000000	82.8441285554	1.0000000000	783.3858756638	1.0000000000	0.0000000000	0.0000000000
0.5000000000	20.1157573089	1.0000000000	37.2794251693	1.0000000000	0.0000000000	0.0000000000	91.2756758409	1.0000000000	779.7874020698	1.0000000000	0.0000000000	0.0000000000
0.5100000000	26.0535293907	1.0000000000	74.1697732554	1.0000000000	0.0000000000	0.0000000000	100.0616401839	1.0000000000	769.8311771829	1.0000000000	0.0000000000	0.0000000000
0.5200000000	23.8825660776	1.0000000000	124.8600576181	1.0000000000	0.0000000000	0.0000000000	108.7828740721	1.0000000000	751.6952420221	1.0000000000	0.0000000000	0.0000000000
0.5300000000	10.4475373941	1.0000000000	189.4412679694	1.0000000000	0.0000000000	0.0000000000	116.9436800994	1.0000000000	723.9159951157	1.0000000000	0.0000000000	0.0000000000
0.5400000000	-12.4650040166	1.0000000000	267.0930592863	1.0000000000	0.0000000000	0.0000000000	123.8587608731	1.0000000000	685.0776529898	1.0000000000	0.0000000000	0.0000000000
0.5500000000	-40.2022799608	1.0000000000	353.4902876753	1.0000000000	0.0000000000	0.0000000000	128.4272625520	1.0000000000	633.6285476075	1.0000000000	0.0000000000	0.0000000000
0.5600000000	-67.4685739190	1.0000000000	439.9750976507	1.0000000000	0.0000000000	0.0000000000	129.2376103973	1.0000000000	568.6553554241	1.0000000000	0.0000000000	0.0000000000
0.5700000000	-89.5574027057	1.0000000000	516.8443209725	1.0000000000	0.0000000000	0.0000000000	124.7519286048	1.0000000000	491.2047673996	1.0000000000	0.0000000000	0.0000000000
0.5800000000	-103.9229677425	1.0000000000	577.5266516585	1.0000000000	0.0000000000	0.0000000000	113.6972344655	1.0000000000	404.9102907033	1.0000000000	0.0000000000	0.0000000000
0.5900000000	-110.6851982913	1.0000000000	620.6487028415	1.0000000000	0.0000000000	0.0000000000	96.1073410894	1.0000000000	315.7087870012	1.0000000000	0.0000000000	0.0000000000
0.6000000000	-111.6944203373	1.0000000000	649.8072000096	1.0000000000	0.0000000000	0.0000000000	73.9780089703	1.0000000000	231.0245621617	1.0000000000	0.0000000000	0.0000000000
0.6100000000	-109.4681449192	1.0000000000	671.1963193336	1.0000000000	0.0000000000	0.0000000000	50.7259655277	1.0000000000	157.8856886701	1.0000000000	0.0000000000	0.0000000000
0.6200000000	-106.1009593934	1.0000000000	690.3042049800	1.0000000000	0.0000000000	0.0000000000	30.0811462004	1.0000000000	100.2714094268	1.0000000000	0.0000000000	0.0000000000
0.6300000000	-102.6249648105	1.0000000000	710.0094893805	1.0000000000	0.0000000000	0.0000000000	14.6389577513	1.0000000000	58.3335292730	1.0000000000	0.0000000000	0.0000000000
0.6400000000	-99.1545458458	1.0000000000	730.5544493252	1.0000000000	0.0000000000	0.0000000000	4.9469014831	1.0000000000	30.0378362574	1.0000000000	0.0000000000	0.0000000000
0.6500000000	-95.1027069839	1.0000000000	750.3010958385	1.0000000000	0.0000000000	0.0000000000	0.0138496848	1.0000000000	12.6516034139	1.0000000000	0.0000000000	0.0000000000
0.6600000000	-89.8603111294	1.0000000000	766.5877956719	1.0000000000	0.0000000000	0.0000000000	-1.7100325935	1.0000000000	3.2594548031	1.0000000000	0.0000000000	0.0000000000
0.6700000000	-83.2588873585	1.0000000000	776.8220328651	1.0000000000	0.0000000000	0.0000000000	0.0000000000	1.0000000000	0.0000000000	1.0000000000	0.0000000000	0.0000000000
0.6800000000	-75.4733335037	1.0000000000	779.5217150730	1.0000000000	0.0000000000	0.0000000000	0.0000000000	1.0000000000	0.0000000000	1.0000000000	0.0000000000	0.0000000000
0.6900000000	-66.9652845624	1.0000000000	774.7199013082	1.0000000000	0.0000000000	0.0000000000	0.0000000000	1.0000000000	0.0000000000	1.0000000000	0.0000000000	0.0000000000
0.7000000000	-58.3384496270	1.0000000000	763.8936472416	1.0000000000	0.0000000000	0.0000000000	0.0000000000	1.0000000000	0.0000000000	1.0000000000	0.0000000000	0.0000000000
0.7100000000	-50.0509278305	1.0000000000	749.4115523864	1.0000000000	0.0000000000	0.0000000000	0.0000000000	1.0000000000	0.0000000000	1.0000000000	0.0000000000	0.0000000000
0.7200000000	-42.5508596811	1.0000000000	733.8076704076	1.0000000000	0.0000000000	0.0000000000	0.0000000000	1.0000000000	0.0000000000	1.0000000000	0.0000000000	0.0000000000
0.7300000000	-36.0464213067	1.0000000000	719.3067366329	1.0000000000	0.0000000000	0.0000000000	0.1290802838	1.0000000000	0.1214077370	1.0000000000	0.0000000000	0.0000000000
0.7400000000	-30.4703341602	1.0000000000	707.4037712980	1.0000000000	0.0000000000	0.0000000000	0.0844050712	1.0000000000	0.1548167352	1.0000000000	0.0000000000	0.0000000000
0.7500000000	-25.7456401446	1.0000000000	698.6332748267	1.0000000000	0.0000000000	0.0000000000	0.0473639097	1.0000000000	0.1343143127	1.0000000000	0.0000000000	0.0000000000
0.7600000000	-21.6196025462	1.0000000000	692.6771187310	1.0000000000	0.0000000000	0.0000000000	0.0211566950	1.0000000000	0.0967907493	1.0000000000	0.0000000000	0.0000000000
0.7700000000	-17.8252654246	1.0000000000	688.7657069146	1.0000000000	0.0000000000	0.0000000000	0.0005257487	1.0000000000	0.0579633694	1.0000000000	0.0000000000	0.0000000000
0.7800000000	-14.2474199649	1.0000000000	686.1614931267	1.0000000000	0.0000000000	0.0000000000	-0.0144498530	1.0000000000	0.0305770894	1.0000000000	0.0000000000	0.0000000000
0.7900000000	-10.7709710769	1.0000000000	684.2393364322	1.0000000000	0.0000000000	0.0000000000	-0.0152464776	1.0000000000	0.0156109162	1.0000000000	0.0000000000	0.0000000000
0.8000000000	-7.3395673859	1.0000000000	682.6675007721	1.0000000000	0.0000000000	0.0000000000	-0.0095266167	1.0000000000	0.0074573658	1.0000000000	0.0000000000	0.0000000000
0.8100000000	-3.9793551815	1.0000000000	681.5144114078	1.0000000000	0.0000000000	0.0000000000	-0.0112835713	1.0000000000	0.0095158369	1.0000000000	0.0000000000	0.0000000000
0.8200000000	-0.5819943548	1.0000000000	681.0538235825	1.0000000000	0.0000000000	0.0000000000	-0.0217015639	1.0000000000	0.0222224067	1.0000000000	0.0000000000	0.0000000000
0.8300000000	2.8527756641	1.0000000000	681.7083141850	1.0000000000	0.0000000000	0.0000000000	-0.0327942470	1.0000000000	0.0362999483	1.0000000000	0.0000000000	0.0000000000
0.8400000000	6.3512409455	1.0000000000	683.8648835128	1.0000000000	0.0000000000	0.0000000000	-0.0317799135	1.0000000000	0.0385530805	1.0000000000	0.0000000000	0.0000000000
0.8500000000	10.0707098316	1.0000000000	687.7806886421	1.0000000000	0.0000000000	0.0000000000	-0.0151230354	1.0000000000	0.0277939036	1.0000000000	0.0000000000	0.0000000000
0.8600000000	14.0247308591	1.0000000000	693.6044719215	1.0000000000	0.0000000000	0.0000000000	0.0090077115	1.0000000000	0.0191115447	1.0000000000	0.0000000000	0.0000000000
0.8700000000	18.2887390489	1.0000000000	701.1262143130	1.0000000000	0.0000000000	0.0000000000	0.0340518030	1.0000000000	0.0341377643	1.0000000000	0.0000000000	0.0000000000
0.8800000000	22.9318216136	1.0000000000	709.9470521190	1.0000000000	0.0000000000	0.0000000000	0.0586533056	1.0000000000	0.0814338077	1.0000000000	0.0000000000	0.0000000000
0.8900000000	27.8974562471	1.0000000000	719.6964145150	1.0000000000	0.0000000000	0.0000000000	0.0741589776	1.0000000000	0.1547802872	1.0000000000	0.0000000000	0.0000000000
0.9000000000	33.1804079454	1.0000000000	730.0332827903	1.0000000000	0.0000000000	0.0000000000	0.0541666966	1.0000000000	0.2259378127	1.0000000000	0.0000000000	0.0000000000
0.9100000000	38.7582294656	1.0000000000	740.8602914339	1.0000000000	0.0000000000	0.0000000000	-0.0485400892	1.0000000000	0.2301841996	1.0000000000	0.0000000000	0.0000000000
0.9200000000	44.5575051982	1.0000000000	752.0940559559	1.0000000000	0.0000000000	0.0000000000	-0.2888127047	1.0000000000	0.0464348342	1.0000000000	0.0000000000	0.0000000000
0.9300000000	50.5467958372	1.0000000000	763.5470886146	1.0000000000	0.0000000000	0.0000000000	0.0000000000	1.0000000000	0.0000000000	1.0000000000	0.0000000000	0.0000000000
0.9400000000	56.6125960642	1.0000000000	775.0205616801	1.0000000000	0.0000000000	0.0000000000	0.0000000000	1.0000000000	0.0000000000	1.0000000000	0.0000000000	0.0000000000
0.9500000000	62.6555444283	1.0000000000	786.0180640645	1.0000000000	0.0000000000	0.0000000000	0.0000000000	1.0000000000	0.0000000000	1.0000000000	0.0000000000	0.0000000000
0.9600000000	68.7101941062	1.0000000000	795.8468344262	1.0000000000	0.0000000000	0.0000000000	0.0000000000	1.0000000000	0.0000000000	1.0000000000	0.0000000000	0.0000000000
0.9700000000	74.8962995435	1.0000000000	803.6895968792	1.0000000000	0.0000000000	0.0000000000	0.0000000000	1.0000000000	0.0000000000	1.0000000000	0.0000000000	0.0000000000
0.9800000000	81.4912106183	1.0000000000	808.4487481846	1.0000000000	0.0000000000	0.0000000000	0.0000000000	1.0000000000	0.0000000000	1.0000000000	0.0000000000	0.0000000000
0.9900000000	88.7091074502	1.0000000000	808.8107729282	1.0000000000	0.0000000000	0.0000000000	15.6556743376	1.0000000000	10.7986269045	1.0000000000	0.0000000000	0.0000000000
