name p5_grf_mean_speed_1.6
datacolumns 13
datarows 100
range 0.00000000 0.99000000
endheader
time	grf_x_l_mean	grf_x_l_var	grf_y_l_mean	grf_y_l_var	grf_z_l_mean	grf_z_l_var	grf_x_r_mean	grf_x_r_var	grf_y_r_mean	grf_y_r_var	grf_z_r_mean	grf_z_r_var
0.0000000000	203.2727861766	1.0000000000	747.9943696506	1.0000000000	0.0000000000	0.0000000000	8.9426512264	1.0000000000	11.6926090370	1.0000000000	0.0000000000	0.0000000000
0.0100000000	210.4318453477	1.0000000000	711.3153639925	1.0000000000	0.0000000000	0.0000000000	9.3352006954	1.0000000000	56.6893066984	1.0000000000	0.0000000000	0.0000000000
0.0200000000	211.1462010165	1.0000000000	657.1900482977	1.0000000000	0.0000000000	0.0000000000	6.0016148801	1.0000000000	130.4827114740	1.0000000000	0.0000000000	0.0000000000
0.0300000000	203.4444744550	1.0000000000	586.4361950014	1.0000000000	0.0000000000	0.0000000000	-5.1637983598	1.0000000000	234.8982406927	1.0000000000	0.0000000000	0.0000000000
0.0400000000	185.7857078656	1.0000000000	502.0757958039	1.0000000000	0.0000000000	0.0000000000	-28.6918922591	1.0000000000	363.2859664518	1.0000000000	0.0000000000	0.0000000000
0.0500000000	158.1140996889	1.0000000000	409.6076229896	1.0000000000	0.0000000000	0.0000000000	-63.4163193652	1.0000000000	499.5518216132	1.0000000000	0.0000000000	0.0000000000
0.0600000000	123.7897367306	1.0000000000	316.4391992728	1.0000000000	0.0000000000	0.0000000000	-101.3405530729	1.0000000000	622.9180852327	1.0000000000	0.0000000000	0.0000000000
0.0700000000	88.2683791711	1.0000000000	230.1238121445	1.0000000000	0.0000000000	0.0000000000	-134.1537299876	1.0000000000	717.5318296652	1.0000000000	0.0000000000	0.0000000000
0.0800000000	55.9094667979	1.0000000000	156.4355269514	1.0000000000	0.0000000000	0.0000000000	-157.2820713430	1.0000000000	780.3833058029	1.0000000000	0.0000000000	0.0000000000
0.0900000000	30.5277891007	1.0000000000	98.6116882762	1.0000000000	0.0000000000	0.0000000000	-170.9191773329	1.0000000000	820.2601102372	1.0000000000	0.0000000000	0.0000000000
0.1000000000	13.6974241222	1.0000000000	57.0046545034	1.0000000000	0.0000000000	0.0000000000	-176.1079008805	1.0000000000	848.5293395141	1.0000000000	0.0000000000	0.0000000000
0.1100000000	4.0456960589	1.0000000000	29.3385447411	1.0000000000	0.0000000000	0.0000000000	-172.9953266852	1.0000000000	870.4682274330	1.0000000000	0.0000000000	0.0000000000
0.1200000000	-0.2518298602	1.0000000000	11.9292128208	1.0000000000	0.0000000000	0.0000000000	-163.6327708917	1.0000000000	885.2722162393	1.0000000000	0.0000000000	0.0000000000
0.1300000000	-2.0440350410	1.0000000000	1.7680000781	1.0000000000	0.0000000000	0.0000000000	-150.2610256346	1.0000000000	891.1688837645	1.0000000000	0.0000000000	0.0000000000
0.1400000000	0.0000000000	1.0000000000	0.0000000000	1.0000000000	0.0000000000	0.0000000000	-135.2451841161	1.0000000000	887.9631048885	1.0000000000	0.0000000000	0.0000000000
0.1500000000	0.0000000000	1.0000000000	0.0000000000	1.0000000000	0.0000000000	0.0000000000	-120.5442763474	1.0000000000	875.9304254746	1.0000000000	0.0000000000	0.0000000000
0.1600000000	0.0000000000	1.0000000000	0.0000000000	1.0000000000	0.0000000000	0.0000000000	-107.0983214462	1.0000000000	855.0927900170	1.0000000000	0.0000000000	0.0000000000
0.1700000000	0.0000000000	1.0000000000	0.0000000000	1.0000000000	0.0000000000	0.0000000000	-95.4504397901	1.0000000000	826.5350521237	1.0000000000	0.0000000000	0.0000000000
0.1800000000	0.0000000000	1.0000000000	0.0000000000	1.0000000000	0.0000000000	0.0000000000	-84.8921035210	1.0000000000	792.5552954324	1.0000000000	0.0000000000	0.0000000000
0.1900000000	0.0000000000	1.0000000000	0.0000000000	1.0000000000	0.0000000000	0.0000000000	-75.1729795748	1.0000000000	755.3207141097	1.0000000000	0.0000000000	0.0000000000
0.2000000000	0.7537253123	1.0000000000	0.1179005020	1.0000000000	0.0000000000	0.0000000000	-66.3091331157	1.0000000000	716.0608121474	1.0000000000	0.0000000000	0.0000000000
0.2100000000	0.6887232521	1.0000000000	0.3332425374	1.0000000000	0.0000000000	0.0000000000	-58.3275661592	1.0000000000	676.2587264499	1.0000000000	0.0000000000	0.0000000000
0.2200000000	0.5865263665	1.0000000000	0.6910129910	1.0000000000	0.0000000000	0.0000000000	-51.3908308228	1.0000000000	638.2182532754	1.0000000000	0.0000000000	0.0000000000
0.2300000000	0.6414707975	1.0000000000	1.0842859076	1.0000000000	0.0000000000	0.0000000000	-44.9999053550	1.0000000000	603.3299869444	1.0000000000	0.0000000000	0.0000000000
0.2400000000	0.6923831008	1.0000000000	0.9357291262	1.0000000000	0.0000000000	0.0000000000	-39.3428754818	1.0000000000	571.3451239180	1.0000000000	0.0000000000	0.0000000000
0.2500000000	0.3327584193	1.0000000000	0.2875337152	1.0000000000	0.0000000000	0.0000000000	-34.2123271108	1.0000000000	542.1813662974	1.0000000000	0.0000000000	0.0000000000
0.2600000000	0.0000000000	1.0000000000	0.0000000000	1.0000000000	0.0000000000	0.0000000000	-29.1293237443	1.0000000000	517.4314933752	1.0000000000	0.0000000000	0.0000000000
0.2700000000	0.0000000000	1.0000000000	0.0000000000	1.0000000000	0.0000000000	0.0000000000	-24.3615108449	1.0000000000	499.0336376200	1.0000000000	0.0000000000	0.0000000000
0.2800000000	0.1768425441	1.0000000000	0.2478944248	1.0000000000	0.0000000000	0.0000000000	-19.6226244042	1.0000000000	486.8844415912	1.0000000000	0.0000000000	0.0000000000
0.2900000000	0.1755223832	1.0000000000	0.2393096531	1.0000000000	0.0000000000	0.0000000000	-14.5958604104	1.0000000000	479.0820499896	1.0000000000	0.0000000000	0.0000000000
0.3000000000	0.2015761762	1.0000000000	0.0733348753	1.0000000000	0.0000000000	0.0000000000	-9.0710786634	1.0000000000	474.3085662560	1.0000000000	0.0000000000	0.0000000000
0.3100000000	0.4520092624	1.0000000000	0.0400745150	1.0000000000	0.0000000000	0.0000000000	-3.3056650744	1.0000000000	472.7729300533	1.0000000000	0.0000000000	0.0000000000
0.3200000000	0.7929846226	1.0000000000	0.1139809509	1.0000000000	0.0000000000	0.0000000000	2.2329439995	1.0000000000	474.9184230986	1.0000000000	0.0000000000	0.0000000000
0.3300000000	0.7743446552	1.0000000000	0.1299727288	1.0000000000	0.0000000000	0.0000000000	8.0641025357	1.0000000000	480.1611634149	1.0000000000	0.0000000000	0.0000000000
0.3400000000	0.5704041412	1.0000000000	0.1829462797	1.0000000000	0.0000000000	0.0000000000	14.4544515712	1.0000000000	487.2643499331	1.0000000000	0.0000000000	0.0000000000
0.3500000000	0.3931236333	1.0000000000	0.4060851576	1.0000000000	0.0000000000	0.0000000000	21.0718034088	1.0000000000	495.5981571810	1.0000000000	0.0000000000	0.0000000000
0.3600000000	0.1960696443	1.0000000000	0.6259183328	1.0000000000	0.0000000000	0.0000000000	27.7728062064	1.0000000000	505.5472590629	1.0000000000	0.0000000000	0.0000000000
0.3700000000	0.0254382308	1.0000000000	0.6301674616	1.0000000000	0.0000000000	0.0000000000	34.9016708343	1.0000000000	517.8112594795	1.0000000000	0.0000000000	0.0000000000
0.3800000000	-0.1400984084	1.0000000000	0.5819953426	1.0000000000	0.0000000000	0.0000000000	42.7571997524	1.0000000000	532.7700821560	1.0000000000	0.0000000000	0.0000000000
0.3900000000	-0.2641041718	1.0000000000	0.6849372317	1.0000000000	0.0000000000	0.0000000000	50.9877935752	1.0000000000	550.3571721717	1.0000000000	0.0000000000	0.0000000000
0.4000000000	-0.3657345525	1.0000000000	0.5641835230	1.0000000000	0.0000000000	0.0000000000	59.6610106205	1.0000000000	570.0682708645	1.0000000000	0.0000000000	0.0000000000
0.4100000000	0.0000000000	1.0000000000	0.0000000000	1.0000000000	0.0000000000	0.0000000000	69.4021454990	1.0000000000	591.2067931770	1.0000000000	0.0000000000	0.0000000000
0.4200000000	0.0000000000	1.0000000000	0.0000000000	1.0000000000	0.0000000000	0.0000000000	80.5502137857	1.0000000000	613.2894613212	1.0000000000	0.0000000000	0.0000000000
0.4300000000	0.0000000000	1.0000000000	0.0000000000	1.0000000000	0.0000000000	0.0000000000	93.0217122449	1.0000000000	635.9646391906	1.0000000000	0.0000000000	0.0000000000
0.4400000000	0.0000000000	1.0000000000	0.0000000000	1.0000000000	0.0000000000	0.0000000000	106.7294241579	1.0000000000	658.1966350583	1.0000000000	0.0000000000	0.0000000000
0.4500000000	0.0000000000	1.0000000000	0.0000000000	1.0000000000	0.0000000000	0.0000000000	121.8667798226	1.0000000000	677.6994644438	1.0000000000	0.0000000000	0.0000000000
0.4600000000	0.0000000000	1.0000000000	0.0000000000	1.0000000000	0.0000000000	0.0000000000	138.1016447971	1.0000000000	691.7132722942	1.0000000000	0.0000000000	0.0000000000
0.4700000000	0.0000000000	1.0000000000	0.0000000000	1.0000000000	0.0000000000	0.0000000000	154.5172457730	1.0000000000	698.0855805087	1.0000000000	0.0000000000	0.0000000000
0.4800000000	0.0000000000	1.0000000000	0.0000000000	1.0000000000	0.0000000000	0.0000000000	170.1910812269	1.0000000000	695.0164400210	1.0000000000	0.0000000000	0.0000000000
0.4900000000	7.4297542430	1.0000000000	12.9025533962	1.0000000000	0.0000000000	0.0000000000	183.7335878819	1.0000000000	680.0443578518	1.0000000000	0.0000000000	0.0000000000
0.5000000000	6.8573505980	1.0000000000	60.3369152591	1.0000000000	0.0000000000	0.0000000000	193.0740013050	1.0000000000	650.1551602825	1.0000000000	0.0000000000	0.0000000000
0.5100000000	2.2495614832	1.0000000000	137.7649805595	1.0000000000	0.0000000000	0.0000000000	195.8753060662	1.0000000000	603.3882683395	1.0000000000	0.0000000000	0.0000000000
0.5200000000	-9.6141880488	1.0000000000	247.1499297288	1.0000000000	0.0000000000	0.0000000000	190.2019213637	1.0000000000	540.3773302523	1.0000000000	0.0000000000	0.0000000000
0.5300000000	-32.2349524820	1.0000000000	381.3468649654	1.0000000000	0.0000000000	0.0000000000	174.8349733911	1.0000000000	464.5449807860	1.0000000000	0.0000000000	0.0000000000
0.5400000000	-65.2564660713	1.0000000000	523.6396851474	1.0000000000	0.0000000000	0.0000000000	149.7011446301	1.0000000000	381.3208361365	1.0000000000	0.0000000000	0.0000000000
0.5500000000	-102.2310558747	1.0000000000	653.4552787984	1.0000000000	0.0000000000	0.0000000000	117.7338865555	1.0000000000	297.1031757401	1.0000000000	0.0000000000	0.0000000000
0.5600000000	-135.0449432085	1.0000000000	754.9005503852	1.0000000000	0.0000000000	0.0000000000	84.6138855991	1.0000000000	218.2534615068	1.0000000000	0.0000000000	0.0000000000
0.5700000000	-159.2909634330	1.0000000000	822.8441485337	1.0000000000	0.0000000000	0.0000000000	55.2061084280	1.0000000000	150.0556987492	1.0000000000	0.0000000000	0.0000000000
0.5800000000	-174.6277466066	1.0000000000	862.8599651843	1.0000000000	0.0000000000	0.0000000000	32.0587805895	1.0000000000	95.8137605831	1.0000000000	0.0000000000	0.0000000000
0.5900000000	-181.4326364994	1.0000000000	885.2896624751	1.0000000000	0.0000000000	0.0000000000	15.9856556432	1.0000000000	56.3235698419	1.0000000000	0.0000000000	0.0000000000
0.6000000000	-179.7847958710	1.0000000000	898.2093536423	1.0000000000	0.0000000000	0.0000000000	6.3952303603	1.0000000000	29.8662137329	1.0000000000	0.0000000000	0.0000000000
0.6100000000	-171.2347608914	1.0000000000	904.7127039930	1.0000000000	0.0000000000	0.0000000000	1.5788367197	1.0000000000	13.2335598696	1.0000000000	0.0000000000	0.0000000000
0.6200000000	-158.3808983999	1.0000000000	904.7446201983	1.0000000000	0.0000000000	0.0000000000	-0.5882430679	1.0000000000	3.3302261920	1.0000000000	0.0000000000	0.0000000000
0.6300000000	-143.1754684198	1.0000000000	897.6007426601	1.0000000000	0.0000000000	0.0000000000	0.0000000000	1.0000000000	0.0000000000	1.0000000000	0.0000000000	0.0000000000
0.6400000000	-126.9545682976	1.0000000000	882.7326229960	1.0000000000	0.0000000000	0.0000000000	0.0000000000	1.0000000000	0.0000000000	1.0000000000	0.0000000000	0.0000000000
0.6500000000	-111.5482082772	1.0000000000	859.7012342116	1.0000000000	0.0000000000	0.0000000000	0.0000000000	1.0000000000	0.0000000000	1.0000000000	0.0000000000	0.0000000000
0.6600000000	-98.4948896963	1.0000000000	828.7179001596	1.0000000000	0.0000000000	0.0000000000	0.0000000000	1.0000000000	0.0000000000	1.0000000000	0.0000000000	0.0000000000
0.6700000000	-87.6270524069	1.0000000000	791.2879266680	1.0000000000	0.0000000000	0.0000000000	0.0000000000	1.0000000000	0.0000000000	1.0000000000	0.0000000000	0.0000000000
0.6800000000	-78.3271205058	1.0000000000	749.7734539034	1.0000000000	0.0000000000	0.0000000000	0.0000000000	1.0000000000	0.0000000000	1.0000000000	0.0000000000	0.0000000000
0.6900000000	-70.4761216346	1.0000000000	706.4730115161	1.0000000000	0.0000000000	0.0000000000	0.0000000000	1.0000000000	0.0000000000	1.0000000000	0.0000000000	0.0000000000
0.7000000000	-63.6903058966	1.0000000000	663.3149100225	1.0000000000	0.0000000000	0.0000000000	1.1216999635	1.0000000000	0.2292174672	1.0000000000	0.0000000000	0.0000000000
0.7100000000	-57.2868704066	1.0000000000	622.0236467785	1.0000000000	0.0000000000	0.0000000000	1.0042576022	1.0000000000	0.5806130082	1.0000000000	0.0000000000	0.0000000000
0.7200000000	-51.1017833645	1.0000000000	583.9542161739	1.0000000000	0.0000000000	0.0000000000	1.0017092849	1.0000000000	0.7946787078	1.0000000000	0.0000000000	0.0000000000
0.7300000000	-45.5555071955	1.0000000000	549.7037930434	1.0000000000	0.0000000000	0.0000000000	0.9079356651	1.0000000000	0.5954420840	1.0000000000	0.0000000000	0.0000000000
0.7400000000	-40.5211893262	1.0000000000	519.5081814631	1.0000000000	0.0000000000	0.0000000000	0.7505177554	1.0000000000	0.1047193275	1.0000000000	0.0000000000	0.0000000000
0.7500000000	-35.3989090645	1.0000000000	493.9873426459	1.0000000000	0.0000000000	0.0000000000	0.0000000000	1.0000000000	0.0000000000	1.0000000000	0.0000000000	0.0000000000
0.7600000000	-30.1809546545	1.0000000000	473.8663963069	1.0000000000	0.0000000000	0.0000000000	0.6905430629	1.0000000000	0.0416583343	1.0000000000	0.0000000000	0.0000000000
0.7700000000	-25.1320562996	1.0000000000	459.1325880002	1.0000000000	0.0000000000	0.0000000000	0.4913396850	1.0000000000	0.4220254890	1.0000000000	0.0000000000	0.0000000000
0.7800000000	-20.0524089850	1.0000000000	449.1115458757	1.0000000000	0.0000000000	0.0000000000	0.3622016997	1.0000000000	0.4324032717	1.0000000000	0.0000000000	0.0000000000
0.7900000000	-14.6176425768	1.0000000000	443.3451082040	1.0000000000	0.0000000000	0.0000000000	0.4466724714	1.0000000000	0.0374120773	1.0000000000	0.0000000000	0.0000000000
0.8000000000	-8.9893086421	1.0000000000	441.7835132066	1.0000000000	0.0000000000	0.0000000000	0.0000000000	1.0000000000	0.0000000000	1.0000000000	0.0000000000	0.0000000000
0.8100000000	-3.2067867903	1.0000000000	444.1553354090	1.0000000000	0.0000000000	0.0000000000	0.0000000000	1.0000000000	0.0000000000	1.0000000000	0.0000000000	0.0000000000
0.8200000000	3.1458886387	1.0000000000	449.7773744191	1.0000000000	0.0000000000	0.0000000000	0.2871195589	1.0000000000	0.3583266695	1.0000000000	0.0000000000	0.0000000000
0.8300000000	10.1786721636	1.0000000000	458.1752359732	1.0000000000	0.0000000000	0.0000000000	0.4009397997	1.0000000000	0.6097832226	1.0000000000	0.0000000000	0.0000000000
0.8400000000	17.6799706717	1.0000000000	469.5342700319	1.0000000000	0.0000000000	0.0000000000	0.4310240837	1.0000000000	0.6171773287	1.0000000000	0.0000000000	0.0000000000
0.8500000000	25.6790462348	1.0000000000	484.3214317449	1.0000000000	0.0000000000	0.0000000000	0.3546909787	1.0000000000	0.5758869114	1.0000000000	0.0000000000	0.0000000000
0.8600000000	34.3796591801	1.0000000000	502.7733336300	1.0000000000	0.0000000000	0.0000000000	0.3655192962	1.0000000000	0.6508480596	1.0000000000	0.0000000000	0.0000000000
0.8700000000	43.6737360829	1.0000000000	524.8657996596	1.0000000000	0.0000000000	0.0000000000	0.3967013863	1.0000000000	0.8577339841	1.0000000000	0.0000000000	0.0000000000
0.8800000000	53.3310044170	1.0000000000	550.4301547818	1.0000000000	0.0000000000	0.0000000000	0.3348088041	1.0000000000	1.0503195834	1.0000000000	0.0000000000	0.0000000000
0.8900000000	63.5758557894	1.0000000000	579.0123742759	1.0000000000	0.0000000000	0.0000000000	0.2814206242	1.0000000000	0.9884677860	1.0000000000	0.0000000000	0.0000000000
0.9000000000	74.7116438858	1.0000000000	609.7334009295	1.0000000000	0.0000000000	0.0000000000	0.3719032104	1.0000000000	0.4927943103	1.0000000000	0.0000000000	0.0000000000
0.9100000000	86.7034628914	1.0000000000	641.4758471190	1.0000000000	0.0000000000	0.0000000000	0.0000000000	1.0000000000	0.0000000000	1.0000000000	0.0000000000	0.0000000000
0.9200000000	99.6200595691	1.0000000000	673.1205195404	1.0000000000	0.0000000000	0.0000000000	0.0000000000	1.0000000000	0.0000000000	1.0000000000	0.0000000000	0.0000000000
0.9300000000	113.7759260504	1.0000000000	703.3810558514	1.0000000000	0.0000000000	0.0000000000	0.0000000000	1.0000000000	0.0000000000	1.0000000000	0.0000000000	0.0000000000
0.9400000000	129.1032548362	1.0000000000	730.5335904850	1.0000000000	0.0000000000	0.0000000000	0.0000000000	1.0000000000	0.0000000000	1.0000000000	0.0000000000	0.0000000000
0.9500000000	144.9977385633	1.0000000000	752.5959628194	1.0000000000	0.0000000000	0.0000000000	0.0000000000	1.0000000000	0.0000000000	1.0000000000	0.0000000000	0.0000000000
0.9600000000	160.9958014425	1.0000000000	767.6234239328	1.0000000000	0.0000000000	0.0000000000	0.0000000000	1.0000000000	0.0000000000	1.0000000000	0.0000000000	0.0000000000
0.9700000000	176.7480526059	1.0000000000	773.5244648558	1.0000000000	0.0000000000	0.0000000000	0.0000000000	1.0000000000	0.0000000000	1.0000000000	0.0000000000	0.0000000000
0.9800000000	191.2822491240	1.0000000000	767.7573828199	1.0000000000	0.0000000000	0.0000000000	0.0000000000	1.0000000000	0.0000000000	1.0000000000	0.0000000000	0.0000000000
0.9900000000	202.9858425525	1.0000000000	747.5753817201	1.0000000000	0.0000000000	0.0000000000	8.9451917915	1.0000000000	11.6962488282	1.0000000000	0.0000000000	0.0000000000
