name p5_grf_mean_speed_1.2
datacolumns 13
datarows 100
range 0.00000000 0.99000000
endheader
time	grf_x_l_mean	grf_x_l_var	grf_y_l_mean	grf_y_l_var	grf_z_l_mean	grf_z_l_var	grf_x_r_mean	grf_x_r_var	grf_y_r_mean	grf_y_r_var	grf_z_r_mean	grf_z_r_var
0.0000000000	138.3529694643	1.0000000000	724.9267265735	1.0000000000	0.0000000000	0.0000000000	15.2962129446	1.0000000000	11.1513491953	1.0000000000	0.0000000000	0.0000000000
0.0100000000	148.2719349653	1.0000000000	709.9671067383	1.0000000000	0.0000000000	0.0000000000	22.8004317485	1.0000000000	41.0781764428	1.0000000000	0.0000000000	0.0000000000
0.0200000000	156.7564256281	1.0000000000	683.4353402863	1.0000000000	0.0000000000	0.0000000000	27.0564135560	1.0000000000	88.9434646332	1.0000000000	0.0000000000	0.0000000000
0.0300000000	161.9340055927	1.0000000000	642.7885967780	1.0000000000	0.0000000000	0.0000000000	21.8475411096	1.0000000000	155.1204898743	1.0000000000	0.0000000000	0.0000000000
0.0400000000	161.2263743639	1.0000000000	586.4707913805	1.0000000000	0.0000000000	0.0000000000	5.1860232960	1.0000000000	237.7648715122	1.0000000000	0.0000000000	0.0000000000
0.0500000000	153.7556951820	1.0000000000	515.1850534881	1.0000000000	0.0000000000	0.0000000000	-18.9107258464	1.0000000000	331.4492674559	1.0000000000	0.0000000000	0.0000000000
0.0600000000	138.8048821588	1.0000000000	431.9876476173	1.0000000000	0.0000000000	0.0000000000	-46.2670345692	1.0000000000	426.0806076328	1.0000000000	0.0000000000	0.0000000000
0.0700000000	115.2005301454	1.0000000000	342.4979754204	1.0000000000	0.0000000000	0.0000000000	-72.5093586003	1.0000000000	510.5391498934	1.0000000000	0.0000000000	0.0000000000
0.0800000000	86.1307030507	1.0000000000	254.8919618466	1.0000000000	0.0000000000	0.0000000000	-92.5690798738	1.0000000000	579.0922927693	1.0000000000	0.0000000000	0.0000000000
0.0900000000	57.0786876601	1.0000000000	177.7411599691	1.0000000000	0.0000000000	0.0000000000	-104.7848641357	1.0000000000	633.8322463386	1.0000000000	0.0000000000	0.0000000000
0.1000000000	31.5749986307	1.0000000000	116.3898832235	1.0000000000	0.0000000000	0.0000000000	-111.1257927115	1.0000000000	679.5090394391	1.0000000000	0.0000000000	0.0000000000
0.1100000000	12.9296145801	1.0000000000	71.4042707754	1.0000000000	0.0000000000	0.0000000000	-112.8269897288	1.0000000000	717.7047930966	1.0000000000	0.0000000000	0.0000000000
0.1200000000	2.9312943367	1.0000000000	40.6070520792	1.0000000000	0.0000000000	0.0000000000	-109.7303159903	1.0000000000	747.4275344896	1.0000000000	0.0000000000	0.0000000000
0.1300000000	-1.2902325910	1.0000000000	21.0336029921	1.0000000000	0.0000000000	0.0000000000	-103.8788586437	1.0000000000	768.0231351328	1.0000000000	0.0000000000	0.0000000000
0.1400000000	-2.8853156200	1.0000000000	9.3090829935	1.0000000000	0.0000000000	0.0000000000	-98.2397008962	1.0000000000	779.4201442127	1.0000000000	0.0000000000	0.0000000000
0.1500000000	-2.3042239984	1.0000000000	2.5280113574	1.0000000000	0.0000000000	0.0000000000	-92.3857310953	1.0000000000	781.7033413246	1.0000000000	0.0000000000	0.0000000000
0.1600000000	0.0000000000	1.0000000000	0.0000000000	1.0000000000	0.0000000000	0.0000000000	-86.1388854938	1.0000000000	776.0451909699	1.0000000000	0.0000000000	0.0000000000
0.1700000000	0.0000000000	1.0000000000	0.0000000000	1.0000000000	0.0000000000	0.0000000000	-80.7885532571	1.0000000000	764.7370726342	1.0000000000	0.0000000000	0.0000000000
0.1800000000	0.0000000000	1.0000000000	0.0000000000	1.0000000000	0.0000000000	0.0000000000	-75.7148745870	1.0000000000	749.5894941246	1.0000000000	0.0000000000	0.0000000000
0.1900000000	0.0000000000	1.0000000000	0.0000000000	1.0000000000	0.0000000000	0.0000000000	-70.0827403736	1.0000000000	731.3744353113	1.0000000000	0.0000000000	0.0000000000
0.2000000000	0.0000000000	1.0000000000	0.0000000000	1.0000000000	0.0000000000	0.0000000000	-64.8791600841	1.0000000000	710.6753186363	1.0000000000	0.0000000000	0.0000000000
0.2100000000	0.7669231480	1.0000000000	0.1994545916	1.0000000000	0.0000000000	0.0000000000	-60.4109515549	1.0000000000	688.3670323255	1.0000000000	0.0000000000	0.0000000000
0.2200000000	1.0794439986	1.0000000000	0.4750923817	1.0000000000	0.0000000000	0.0000000000	-55.8233247273	1.0000000000	665.4501458475	1.0000000000	0.0000000000	0.0000000000
0.2300000000	1.0576286980	1.0000000000	0.3351617240	1.0000000000	0.0000000000	0.0000000000	-51.5125512308	1.0000000000	642.7260498483	1.0000000000	0.0000000000	0.0000000000
0.2400000000	0.2925357756	1.0000000000	0.1256638223	1.0000000000	0.0000000000	0.0000000000	-47.9658465564	1.0000000000	621.1555641467	1.0000000000	0.0000000000	0.0000000000
0.2500000000	0.3230842822	1.0000000000	0.1616560389	1.0000000000	0.0000000000	0.0000000000	-44.3171742614	1.0000000000	602.2930029431	1.0000000000	0.0000000000	0.0000000000
0.2600000000	0.7547013545	1.0000000000	0.2423223538	1.0000000000	0.0000000000	0.0000000000	-40.2494832501	1.0000000000	587.3353642510	1.0000000000	0.0000000000	0.0000000000
0.2700000000	0.3596337950	1.0000000000	0.1580992834	1.0000000000	0.0000000000	0.0000000000	-36.3597054184	1.0000000000	576.1495690938	1.0000000000	0.0000000000	0.0000000000
0.2800000000	0.1494023918	1.0000000000	0.1161354131	1.0000000000	0.0000000000	0.0000000000	-32.1976318447	1.0000000000	568.0274708189	1.0000000000	0.0000000000	0.0000000000
0.2900000000	0.6685001056	1.0000000000	0.2123479215	1.0000000000	0.0000000000	0.0000000000	-27.5301493250	1.0000000000	562.8593070349	1.0000000000	0.0000000000	0.0000000000
0.3000000000	0.5655410176	1.0000000000	0.1834862765	1.0000000000	0.0000000000	0.0000000000	-22.9343702324	1.0000000000	560.5819397818	1.0000000000	0.0000000000	0.0000000000
0.3100000000	0.0000000000	1.0000000000	0.0000000000	1.0000000000	0.0000000000	0.0000000000	-18.1695624402	1.0000000000	560.2915423414	1.0000000000	0.0000000000	0.0000000000
0.3200000000	0.0000000000	1.0000000000	0.0000000000	1.0000000000	0.0000000000	0.0000000000	-12.8882740841	1.0000000000	561.1399677171	1.0000000000	0.0000000000	0.0000000000
0.3300000000	0.5808910509	1.0000000000	0.0620529018	1.0000000000	0.0000000000	0.0000000000	-7.6519344737	1.0000000000	563.1639104065	1.0000000000	0.0000000000	0.0000000000
0.3400000000	0.3352619914	1.0000000000	0.1227753799	1.0000000000	0.0000000000	0.0000000000	-2.5776517532	1.0000000000	566.5308466209	1.0000000000	0.0000000000	0.0000000000
0.3500000000	0.3817863146	1.0000000000	0.1099614558	1.0000000000	0.0000000000	0.0000000000	2.9632812465	1.0000000000	570.9831725978	1.0000000000	0.0000000000	0.0000000000
0.3600000000	0.5879095293	1.0000000000	0.2565537577	1.0000000000	0.0000000000	0.0000000000	8.6349688859	1.0000000000	576.3764400205	1.0000000000	0.0000000000	0.0000000000
0.3700000000	0.2968596260	1.0000000000	0.4986248290	1.0000000000	0.0000000000	0.0000000000	14.0793227667	1.0000000000	582.8162899415	1.0000000000	0.0000000000	0.0000000000
0.3800000000	0.1117645208	1.0000000000	0.5386101611	1.0000000000	0.0000000000	0.0000000000	20.0049053374	1.0000000000	590.2326396419	1.0000000000	0.0000000000	0.0000000000
0.3900000000	0.2455515042	1.0000000000	0.4866067109	1.0000000000	0.0000000000	0.0000000000	26.5916223153	1.0000000000	598.5913605416	1.0000000000	0.0000000000	0.0000000000
0.4000000000	-0.0208180439	1.0000000000	0.5791875199	1.0000000000	0.0000000000	0.0000000000	33.3361574043	1.0000000000	608.1085170605	1.0000000000	0.0000000000	0.0000000000
0.4100000000	-0.4583792571	1.0000000000	0.4189652949	1.0000000000	0.0000000000	0.0000000000	40.6324550502	1.0000000000	618.7198079776	1.0000000000	0.0000000000	0.0000000000
0.4200000000	0.0000000000	1.0000000000	0.0000000000	1.0000000000	0.0000000000	0.0000000000	48.8849863636	1.0000000000	630.0810957705	1.0000000000	0.0000000000	0.0000000000
0.4300000000	0.0000000000	1.0000000000	0.0000000000	1.0000000000	0.0000000000	0.0000000000	57.6335484319	1.0000000000	642.1210210764	1.0000000000	0.0000000000	0.0000000000
0.4400000000	0.0000000000	1.0000000000	0.0000000000	1.0000000000	0.0000000000	0.0000000000	66.9626538092	1.0000000000	654.7469342791	1.0000000000	0.0000000000	0.0000000000
0.4500000000	0.0000000000	1.0000000000	0.0000000000	1.0000000000	0.0000000000	0.0000000000	77.3145648498	1.0000000000	667.2257462184	1.0000000000	0.0000000000	0.0000000000
0.4600000000	0.0000000000	1.0000000000	0.0000000000	1.0000000000	0.0000000000	0.0000000000	88.3870244668	1.0000000000	678.4511806150	1.0000000000	0.0000000000	0.0000000000
0.4700000000	0.0000000000	1.0000000000	0.0000000000	1.0000000000	0.0000000000	0.0000000000	99.9624643578	1.0000000000	687.2938680551	1.0000000000	0.0000000000	0.0000000000
0.4800000000	0.0000000000	1.0000000000	0.0000000000	1.0000000000	0.0000000000	0.0000000000	112.5129516645	1.0000000000	692.1504867201	1.0000000000	0.0000000000	0.0000000000
0.4900000000	13.5217941892	1.0000000000	14.6048862938	1.0000000000	0.0000000000	0.0000000000	125.6581646480	1.0000000000	690.6075201541	1.0000000000	0.0000000000	0.0000000000
0.5000000000	19.5450542335	1.0000000000	49.1557432473	1.0000000000	0.0000000000	0.0000000000	138.2178582778	1.0000000000	679.7592084150	1.0000000000	0.0000000000	0.0000000000
0.5100000000	22.2336587891	1.0000000000	104.7952021200	1.0000000000	0.0000000000	0.0000000000	149.2736310861	1.0000000000	656.5977232957	1.0000000000	0.0000000000	0.0000000000
0.5200000000	16.6802329531	1.0000000000	182.1766967903	1.0000000000	0.0000000000	0.0000000000	157.0057008222	1.0000000000	618.3935853617	1.0000000000	0.0000000000	0.0000000000
0.5300000000	-0.0427934935	1.0000000000	277.1757974768	1.0000000000	0.0000000000	0.0000000000	158.3310727742	1.0000000000	563.5455564952	1.0000000000	0.0000000000	0.0000000000
0.5400000000	-24.9448740758	1.0000000000	380.9968319000	1.0000000000	0.0000000000	0.0000000000	151.3722516097	1.0000000000	492.7945669686	1.0000000000	0.0000000000	0.0000000000
0.5500000000	-52.1390717649	1.0000000000	481.2569233353	1.0000000000	0.0000000000	0.0000000000	135.7004557427	1.0000000000	409.9338324590	1.0000000000	0.0000000000	0.0000000000
0.5600000000	-77.0825686740	1.0000000000	566.4712413831	1.0000000000	0.0000000000	0.0000000000	111.4574561326	1.0000000000	321.6914304077	1.0000000000	0.0000000000	0.0000000000
0.5700000000	-96.5430806554	1.0000000000	631.7932593175	1.0000000000	0.0000000000	0.0000000000	81.8629272974	1.0000000000	236.6894378260	1.0000000000	0.0000000000	0.0000000000
0.5800000000	-108.6406308676	1.0000000000	679.7998350579	1.0000000000	0.0000000000	0.0000000000	52.7434746887	1.0000000000	163.0642299911	1.0000000000	0.0000000000	0.0000000000
0.5900000000	-114.1689040031	1.0000000000	715.5613946661	1.0000000000	0.0000000000	0.0000000000	28.4386592026	1.0000000000	105.4000918537	1.0000000000	0.0000000000	0.0000000000
0.6000000000	-114.8278949723	1.0000000000	742.1269148981	1.0000000000	0.0000000000	0.0000000000	11.1279422225	1.0000000000	63.6253816334	1.0000000000	0.0000000000	0.0000000000
0.6100000000	-111.2896487175	1.0000000000	760.6159298958	1.0000000000	0.0000000000	0.0000000000	1.5933343679	1.0000000000	35.2099635652	1.0000000000	0.0000000000	0.0000000000
0.6200000000	-105.0386962828	1.0000000000	771.7547420824	1.0000000000	0.0000000000	0.0000000000	-1.9928474633	1.0000000000	17.4739155479	1.0000000000	0.0000000000	0.0000000000
0.6300000000	-98.2972678209	1.0000000000	775.7708313329	1.0000000000	0.0000000000	0.0000000000	-2.8330570898	1.0000000000	7.5038600192	1.0000000000	0.0000000000	0.0000000000
0.6400000000	-91.7830074477	1.0000000000	772.5586513819	1.0000000000	0.0000000000	0.0000000000	-2.3384860040	1.0000000000	2.0782215429	1.0000000000	0.0000000000	0.0000000000
0.6500000000	-85.7827261854	1.0000000000	763.0138154866	1.0000000000	0.0000000000	0.0000000000	0.0000000000	1.0000000000	0.0000000000	1.0000000000	0.0000000000	0.0000000000
0.6600000000	-81.1328324987	1.0000000000	749.0677780883	1.0000000000	0.0000000000	0.0000000000	0.0000000000	1.0000000000	0.0000000000	1.0000000000	0.0000000000	0.0000000000
0.6700000000	-77.4102219424	1.0000000000	732.1403350147	1.0000000000	0.0000000000	0.0000000000	0.0000000000	1.0000000000	0.0000000000	1.0000000000	0.0000000000	0.0000000000
0.6800000000	-73.5851540317	1.0000000000	712.7330992814	1.0000000000	0.0000000000	0.0000000000	0.0000000000	1.0000000000	0.0000000000	1.0000000000	0.0000000000	0.0000000000
0.6900000000	-69.8653674097	1.0000000000	691.4852497270	1.0000000000	0.0000000000	0.0000000000	0.0000000000	1.0000000000	0.0000000000	1.0000000000	0.0000000000	0.0000000000
0.7000000000	-66.2710172540	1.0000000000	669.3890061271	1.0000000000	0.0000000000	0.0000000000	0.0000000000	1.0000000000	0.0000000000	1.0000000000	0.0000000000	0.0000000000
0.7100000000	-62.1507891375	1.0000000000	647.0844926807	1.0000000000	0.0000000000	0.0000000000	0.4397065686	1.0000000000	0.0484853595	1.0000000000	0.0000000000	0.0000000000
0.7200000000	-57.7376871767	1.0000000000	625.1712857565	1.0000000000	0.0000000000	0.0000000000	0.5345019055	1.0000000000	0.2156577350	1.0000000000	0.0000000000	0.0000000000
0.7300000000	-53.5353773383	1.0000000000	604.9287334879	1.0000000000	0.0000000000	0.0000000000	0.3207095932	1.0000000000	0.2909733414	1.0000000000	0.0000000000	0.0000000000
0.7400000000	-49.0036887524	1.0000000000	587.6673764588	1.0000000000	0.0000000000	0.0000000000	0.1161146059	1.0000000000	0.3036801253	1.0000000000	0.0000000000	0.0000000000
0.7500000000	-44.0501504120	1.0000000000	573.8154458208	1.0000000000	0.0000000000	0.0000000000	0.2358523144	1.0000000000	0.2579560737	1.0000000000	0.0000000000	0.0000000000
0.7600000000	-39.3590554043	1.0000000000	563.3989249229	1.0000000000	0.0000000000	0.0000000000	0.4292673303	1.0000000000	0.1886337187	1.0000000000	0.0000000000	0.0000000000
0.7700000000	-34.6185793934	1.0000000000	556.5512218567	1.0000000000	0.0000000000	0.0000000000	0.5316354999	1.0000000000	0.1571492513	1.0000000000	0.0000000000	0.0000000000
0.7800000000	-29.3443706155	1.0000000000	552.8729437869	1.0000000000	0.0000000000	0.0000000000	0.6068076808	1.0000000000	0.1810221224	1.0000000000	0.0000000000	0.0000000000
0.7900000000	-24.1059018332	1.0000000000	551.3047740999	1.0000000000	0.0000000000	0.0000000000	0.5591224743	1.0000000000	0.1941555363	1.0000000000	0.0000000000	0.0000000000
0.8000000000	-19.0233141801	1.0000000000	551.1490272718	1.0000000000	0.0000000000	0.0000000000	0.4085427170	1.0000000000	0.1479800427	1.0000000000	0.0000000000	0.0000000000
0.8100000000	-13.3767528756	1.0000000000	552.3936572911	1.0000000000	0.0000000000	0.0000000000	0.3006518611	1.0000000000	0.1052914420	1.0000000000	0.0000000000	0.0000000000
0.8200000000	-7.3302070494	1.0000000000	554.9841928572	1.0000000000	0.0000000000	0.0000000000	0.2041429027	1.0000000000	0.1163699938	1.0000000000	0.0000000000	0.0000000000
0.8300000000	-1.3397536877	1.0000000000	558.6976409433	1.0000000000	0.0000000000	0.0000000000	0.1031103341	1.0000000000	0.1339643222	1.0000000000	0.0000000000	0.0000000000
0.8400000000	4.9557832810	1.0000000000	563.7283685278	1.0000000000	0.0000000000	0.0000000000	0.1966827859	1.0000000000	0.1182038541	1.0000000000	0.0000000000	0.0000000000
0.8500000000	11.7355607018	1.0000000000	570.5869159623	1.0000000000	0.0000000000	0.0000000000	0.3834574488	1.0000000000	0.1047538408	1.0000000000	0.0000000000	0.0000000000
0.8600000000	18.6142003099	1.0000000000	579.3915282321	1.0000000000	0.0000000000	0.0000000000	0.3952006884	1.0000000000	0.1375359468	1.0000000000	0.0000000000	0.0000000000
0.8700000000	25.7295433911	1.0000000000	589.9264798061	1.0000000000	0.0000000000	0.0000000000	0.3149446063	1.0000000000	0.2058532849	1.0000000000	0.0000000000	0.0000000000
0.8800000000	33.3900808957	1.0000000000	602.2380032002	1.0000000000	0.0000000000	0.0000000000	0.2708130856	1.0000000000	0.2899348681	1.0000000000	0.0000000000	0.0000000000
0.8900000000	41.3081278746	1.0000000000	616.3970393223	1.0000000000	0.0000000000	0.0000000000	0.2378849797	1.0000000000	0.3533342642	1.0000000000	0.0000000000	0.0000000000
0.9000000000	49.5070276712	1.0000000000	631.9413907015	1.0000000000	0.0000000000	0.0000000000	0.1745087339	1.0000000000	0.2960452945	1.0000000000	0.0000000000	0.0000000000
0.9100000000	58.2999203476	1.0000000000	648.2577427665	1.0000000000	0.0000000000	0.0000000000	0.0000000000	1.0000000000	0.0000000000	1.0000000000	0.0000000000	0.0000000000
0.9200000000	67.4919482135	1.0000000000	665.0512088197	1.0000000000	0.0000000000	0.0000000000	0.0000000000	1.0000000000	0.0000000000	1.0000000000	0.0000000000	0.0000000000
0.9300000000	76.8566354296	1.0000000000	681.7926720855	1.0000000000	0.0000000000	0.0000000000	0.0000000000	1.0000000000	0.0000000000	1.0000000000	0.0000000000	0.0000000000
0.9400000000	86.5656304055	1.0000000000	697.3789798611	1.0000000000	0.0000000000	0.0000000000	0.0000000000	1.0000000000	0.0000000000	1.0000000000	0.0000000000	0.0000000000
0.9500000000	96.5576281738	1.0000000000	710.8432154111	1.0000000000	0.0000000000	0.0000000000	0.0000000000	1.0000000000	0.0000000000	1.0000000000	0.0000000000	0.0000000000
0.9600000000	106.6473222304	1.0000000000	721.5975522470	1.0000000000	0.0000000000	0.0000000000	0.0000000000	1.0000000000	0.0000000000	1.0000000000	0.0000000000	0.0000000000
0.9700000000	117.0431111865	1.0000000000	728.6328778374	1.0000000000	0.0000000000	0.0000000000	0.0000000000	1.0000000000	0.0000000000	1.0000000000	0.0000000000	0.0000000000
0.9800000000	127.7524693280	1.0000000000	730.2311612389	1.0000000000	0.0000000000	0.0000000000	0.0000000000	1.0000000000	0.0000000000	1.0000000000	0.0000000000	0.0000000000
0.9900000000	138.3044689120	1.0000000000	724.5038235267	1.0000000000	0.0000000000	0.0000000000	15.2780095722	1.0000000000	11.1487276718	1.0000000000	0.0000000000	0.0000000000
