name p5_grf_mean_speed_1.8
datacolumns 13
datarows 100
range 0.00000000 0.99000000
endheader
time	grf_x_l_mean	grf_x_l_var	grf_y_l_mean	grf_y_l_var	grf_z_l_mean	grf_z_l_var	grf_x_r_mean	grf_x_r_var	grf_y_r_mean	grf_y_r_var	grf_z_r_mean	grf_z_r_var
0.0000000000	220.6999878074	1.0000000000	718.5434597198	1.0000000000	0.0000000000	0.0000000000	3.1014230913	1.0000000000	12.1936562831	1.0000000000	0.0000000000	0.0000000000
0.0100000000	226.0587608283	1.0000000000	682.1951644967	1.0000000000	0.0000000000	0.0000000000	-1.5659418445	1.0000000000	66.0627878370	1.0000000000	0.0000000000	0.0000000000
0.0200000000	223.7820721054	1.0000000000	628.7200827446	1.0000000000	0.0000000000	0.0000000000	-10.8122344544	1.0000000000	153.7170919159	1.0000000000	0.0000000000	0.0000000000
0.0300000000	212.3174977478	1.0000000000	559.5977238598	1.0000000000	0.0000000000	0.0000000000	-26.5938762983	1.0000000000	277.2920156088	1.0000000000	0.0000000000	0.0000000000
0.0400000000	191.3556872768	1.0000000000	478.7615944255	1.0000000000	0.0000000000	0.0000000000	-51.6412972507	1.0000000000	428.4360739336	1.0000000000	0.0000000000	0.0000000000
0.0500000000	161.7426589810	1.0000000000	392.0778660321	1.0000000000	0.0000000000	0.0000000000	-86.7135547211	1.0000000000	585.1792551942	1.0000000000	0.0000000000	0.0000000000
0.0600000000	126.1211053320	1.0000000000	305.6269517065	1.0000000000	0.0000000000	0.0000000000	-125.6679574746	1.0000000000	719.4857180137	1.0000000000	0.0000000000	0.0000000000
0.0700000000	89.9378560215	1.0000000000	224.8578406404	1.0000000000	0.0000000000	0.0000000000	-158.6677767731	1.0000000000	812.9497915505	1.0000000000	0.0000000000	0.0000000000
0.0800000000	58.5628354345	1.0000000000	154.7515978223	1.0000000000	0.0000000000	0.0000000000	-180.9779351111	1.0000000000	865.0975054672	1.0000000000	0.0000000000	0.0000000000
0.0900000000	33.7773237819	1.0000000000	98.7584677404	1.0000000000	0.0000000000	0.0000000000	-194.1551960089	1.0000000000	890.1668543601	1.0000000000	0.0000000000	0.0000000000
0.1000000000	15.9282560267	1.0000000000	57.6401494201	1.0000000000	0.0000000000	0.0000000000	-200.6304706332	1.0000000000	905.2839097725	1.0000000000	0.0000000000	0.0000000000
0.1100000000	5.0386459005	1.0000000000	29.4504033164	1.0000000000	0.0000000000	0.0000000000	-199.2337491772	1.0000000000	919.4669999001	1.0000000000	0.0000000000	0.0000000000
0.1200000000	0.0035930349	1.0000000000	11.2304865587	1.0000000000	0.0000000000	0.0000000000	-189.1422497052	1.0000000000	932.5268210699	1.0000000000	0.0000000000	0.0000000000
0.1300000000	-2.0696683569	1.0000000000	0.7695942880	1.0000000000	0.0000000000	0.0000000000	-173.5744596112	1.0000000000	940.8270762960	1.0000000000	0.0000000000	0.0000000000
0.1400000000	0.0000000000	1.0000000000	0.0000000000	1.0000000000	0.0000000000	0.0000000000	-156.2699969241	1.0000000000	941.9465429369	1.0000000000	0.0000000000	0.0000000000
0.1500000000	0.0000000000	1.0000000000	0.0000000000	1.0000000000	0.0000000000	0.0000000000	-138.4760469960	1.0000000000	934.8380909408	1.0000000000	0.0000000000	0.0000000000
0.1600000000	0.0000000000	1.0000000000	0.0000000000	1.0000000000	0.0000000000	0.0000000000	-120.3446829808	1.0000000000	918.7141327894	1.0000000000	0.0000000000	0.0000000000
0.1700000000	0.0000000000	1.0000000000	0.0000000000	1.0000000000	0.0000000000	0.0000000000	-103.7724248903	1.0000000000	893.4845149971	1.0000000000	0.0000000000	0.0000000000
0.1800000000	0.0000000000	1.0000000000	0.0000000000	1.0000000000	0.0000000000	0.0000000000	-90.0410311736	1.0000000000	860.4653325652	1.0000000000	0.0000000000	0.0000000000
0.1900000000	0.0000000000	1.0000000000	0.0000000000	1.0000000000	0.0000000000	0.0000000000	-77.3227386750	1.0000000000	821.5104737445	1.0000000000	0.0000000000	0.0000000000
0.2000000000	0.1107120189	1.0000000000	0.3796310514	1.0000000000	0.0000000000	0.0000000000	-64.5171927027	1.0000000000	777.9973765007	1.0000000000	0.0000000000	0.0000000000
0.2100000000	0.2779207044	1.0000000000	0.1438482696	1.0000000000	0.0000000000	0.0000000000	-52.8351316912	1.0000000000	731.4638561842	1.0000000000	0.0000000000	0.0000000000
0.2200000000	0.0000000000	1.0000000000	0.0000000000	1.0000000000	0.0000000000	0.0000000000	-43.2661817810	1.0000000000	684.4349825861	1.0000000000	0.0000000000	0.0000000000
0.2300000000	-0.2765762083	1.0000000000	0.3364233270	1.0000000000	0.0000000000	0.0000000000	-35.2391319122	1.0000000000	639.4541877522	1.0000000000	0.0000000000	0.0000000000
0.2400000000	0.6612273390	1.0000000000	0.9665576402	1.0000000000	0.0000000000	0.0000000000	-27.8153626387	1.0000000000	597.4710626421	1.0000000000	0.0000000000	0.0000000000
0.2500000000	0.6151580040	1.0000000000	0.7111406755	1.0000000000	0.0000000000	0.0000000000	-21.6006268006	1.0000000000	557.9659629645	1.0000000000	0.0000000000	0.0000000000
0.2600000000	0.0000000000	1.0000000000	0.0000000000	1.0000000000	0.0000000000	0.0000000000	-16.7501187391	1.0000000000	521.1150510909	1.0000000000	0.0000000000	0.0000000000
0.2700000000	0.0000000000	1.0000000000	0.0000000000	1.0000000000	0.0000000000	0.0000000000	-12.0584762897	1.0000000000	489.3146327911	1.0000000000	0.0000000000	0.0000000000
0.2800000000	0.0000000000	1.0000000000	0.0000000000	1.0000000000	0.0000000000	0.0000000000	-7.3704530905	1.0000000000	465.2656914172	1.0000000000	0.0000000000	0.0000000000
0.2900000000	0.4153505745	1.0000000000	0.2619544172	1.0000000000	0.0000000000	0.0000000000	-3.0177920278	1.0000000000	449.0846529747	1.0000000000	0.0000000000	0.0000000000
0.3000000000	-0.1546611741	1.0000000000	0.1496066024	1.0000000000	0.0000000000	0.0000000000	1.4939855096	1.0000000000	438.5546222297	1.0000000000	0.0000000000	0.0000000000
0.3100000000	0.0000000000	1.0000000000	0.0000000000	1.0000000000	0.0000000000	0.0000000000	6.7954698819	1.0000000000	431.8603422132	1.0000000000	0.0000000000	0.0000000000
0.3200000000	0.1629358494	1.0000000000	0.1360993888	1.0000000000	0.0000000000	0.0000000000	12.5296170618	1.0000000000	429.0287055635	1.0000000000	0.0000000000	0.0000000000
0.3300000000	0.0238516358	1.0000000000	0.2952696263	1.0000000000	0.0000000000	0.0000000000	17.7436610173	1.0000000000	430.6779693157	1.0000000000	0.0000000000	0.0000000000
0.3400000000	-0.3772645408	1.0000000000	0.1633240466	1.0000000000	0.0000000000	0.0000000000	22.7770081417	1.0000000000	436.4250248256	1.0000000000	0.0000000000	0.0000000000
0.3500000000	-0.2946658603	1.0000000000	0.1317932676	1.0000000000	0.0000000000	0.0000000000	28.5176315223	1.0000000000	445.1019992846	1.0000000000	0.0000000000	0.0000000000
0.3600000000	-0.0207250006	1.0000000000	0.6021431087	1.0000000000	0.0000000000	0.0000000000	34.8278526056	1.0000000000	455.7312712468	1.0000000000	0.0000000000	0.0000000000
0.3700000000	-0.2589166949	1.0000000000	1.1444884296	1.0000000000	0.0000000000	0.0000000000	41.3254624187	1.0000000000	467.9407277174	1.0000000000	0.0000000000	0.0000000000
0.3800000000	-0.5195371265	1.0000000000	1.1078295977	1.0000000000	0.0000000000	0.0000000000	48.4259723882	1.0000000000	482.0670792176	1.0000000000	0.0000000000	0.0000000000
0.3900000000	-0.3085651331	1.0000000000	0.6597863545	1.0000000000	0.0000000000	0.0000000000	56.8422998541	1.0000000000	498.9561722246	1.0000000000	0.0000000000	0.0000000000
0.4000000000	-0.1167067066	1.0000000000	0.4069024629	1.0000000000	0.0000000000	0.0000000000	66.4247005437	1.0000000000	519.1483389073	1.0000000000	0.0000000000	0.0000000000
0.4100000000	-0.2851513027	1.0000000000	0.0118454629	1.0000000000	0.0000000000	0.0000000000	76.9184169205	1.0000000000	541.9986487503	1.0000000000	0.0000000000	0.0000000000
0.4200000000	0.0000000000	1.0000000000	0.0000000000	1.0000000000	0.0000000000	0.0000000000	88.9046586317	1.0000000000	565.8542950459	1.0000000000	0.0000000000	0.0000000000
0.4300000000	0.0000000000	1.0000000000	0.0000000000	1.0000000000	0.0000000000	0.0000000000	102.7127331122	1.0000000000	589.3330150691	1.0000000000	0.0000000000	0.0000000000
0.4400000000	0.0000000000	1.0000000000	0.0000000000	1.0000000000	0.0000000000	0.0000000000	117.9246268946	1.0000000000	611.8725118575	1.0000000000	0.0000000000	0.0000000000
0.4500000000	0.0000000000	1.0000000000	0.0000000000	1.0000000000	0.0000000000	0.0000000000	133.9785879667	1.0000000000	632.6335807736	1.0000000000	0.0000000000	0.0000000000
0.4600000000	0.0000000000	1.0000000000	0.0000000000	1.0000000000	0.0000000000	0.0000000000	150.5294513224	1.0000000000	649.1988619180	1.0000000000	0.0000000000	0.0000000000
0.4700000000	0.0000000000	1.0000000000	0.0000000000	1.0000000000	0.0000000000	0.0000000000	166.9807949419	1.0000000000	657.7660912669	1.0000000000	0.0000000000	0.0000000000
0.4800000000	0.0000000000	1.0000000000	0.0000000000	1.0000000000	0.0000000000	0.0000000000	181.8356510884	1.0000000000	654.7356638886	1.0000000000	0.0000000000	0.0000000000
0.4900000000	2.9034551155	1.0000000000	4.7577446087	1.0000000000	0.0000000000	0.0000000000	193.3228951826	1.0000000000	637.9458166480	1.0000000000	0.0000000000	0.0000000000
0.5000000000	-0.5522546920	1.0000000000	50.7397536619	1.0000000000	0.0000000000	0.0000000000	199.7150994248	1.0000000000	606.6042670691	1.0000000000	0.0000000000	0.0000000000
0.5100000000	-7.7212010818	1.0000000000	128.0650587225	1.0000000000	0.0000000000	0.0000000000	198.9739735024	1.0000000000	560.6870803644	1.0000000000	0.0000000000	0.0000000000
0.5200000000	-20.9768173799	1.0000000000	240.0791337470	1.0000000000	0.0000000000	0.0000000000	189.4661861908	1.0000000000	501.1338068755	1.0000000000	0.0000000000	0.0000000000
0.5300000000	-42.7220700832	1.0000000000	381.9382709689	1.0000000000	0.0000000000	0.0000000000	170.9923162950	1.0000000000	430.7852197105	1.0000000000	0.0000000000	0.0000000000
0.5400000000	-73.7816627851	1.0000000000	537.5653144081	1.0000000000	0.0000000000	0.0000000000	144.9780057587	1.0000000000	354.6784452615	1.0000000000	0.0000000000	0.0000000000
0.5500000000	-110.9746238742	1.0000000000	683.5329466316	1.0000000000	0.0000000000	0.0000000000	114.2359363983	1.0000000000	278.7980985809	1.0000000000	0.0000000000	0.0000000000
0.5600000000	-147.2864553424	1.0000000000	799.4238827577	1.0000000000	0.0000000000	0.0000000000	83.0930209833	1.0000000000	208.3949302214	1.0000000000	0.0000000000	0.0000000000
0.5700000000	-176.2738626125	1.0000000000	876.6897716452	1.0000000000	0.0000000000	0.0000000000	56.0338164067	1.0000000000	147.1363641169	1.0000000000	0.0000000000	0.0000000000
0.5800000000	-195.6776770849	1.0000000000	919.9988794442	1.0000000000	0.0000000000	0.0000000000	35.0461565190	1.0000000000	97.0367526797	1.0000000000	0.0000000000	0.0000000000
0.5900000000	-206.5679676063	1.0000000000	941.4955819093	1.0000000000	0.0000000000	0.0000000000	19.8128833986	1.0000000000	58.6659596920	1.0000000000	0.0000000000	0.0000000000
0.6000000000	-209.6204582386	1.0000000000	952.4828726260	1.0000000000	0.0000000000	0.0000000000	9.6181162952	1.0000000000	31.4353781585	1.0000000000	0.0000000000	0.0000000000
0.6100000000	-204.2130751248	1.0000000000	958.9974563873	1.0000000000	0.0000000000	0.0000000000	3.6599304901	1.0000000000	13.8074488268	1.0000000000	0.0000000000	0.0000000000
0.6200000000	-191.4228141567	1.0000000000	962.4540044811	1.0000000000	0.0000000000	0.0000000000	0.6977060454	1.0000000000	3.6748272413	1.0000000000	0.0000000000	0.0000000000
0.6300000000	-174.1405870286	1.0000000000	961.6945271354	1.0000000000	0.0000000000	0.0000000000	0.0000000000	1.0000000000	0.0000000000	1.0000000000	0.0000000000	0.0000000000
0.6400000000	-154.4962106141	1.0000000000	954.3158961507	1.0000000000	0.0000000000	0.0000000000	0.0000000000	1.0000000000	0.0000000000	1.0000000000	0.0000000000	0.0000000000
0.6500000000	-133.8466618953	1.0000000000	937.9762434505	1.0000000000	0.0000000000	0.0000000000	0.0000000000	1.0000000000	0.0000000000	1.0000000000	0.0000000000	0.0000000000
0.6600000000	-114.0106165182	1.0000000000	911.6044854256	1.0000000000	0.0000000000	0.0000000000	0.0000000000	1.0000000000	0.0000000000	1.0000000000	0.0000000000	0.0000000000
0.6700000000	-96.7328257977	1.0000000000	875.6720458684	1.0000000000	0.0000000000	0.0000000000	0.0000000000	1.0000000000	0.0000000000	1.0000000000	0.0000000000	0.0000000000
0.6800000000	-82.2076669443	1.0000000000	831.7827331299	1.0000000000	0.0000000000	0.0000000000	0.4234191175	1.0000000000	0.0873486660	1.0000000000	0.0000000000	0.0000000000
0.6900000000	-69.6406388749	1.0000000000	782.1535818750	1.0000000000	0.0000000000	0.0000000000	0.7149586030	1.0000000000	0.6203224211	1.0000000000	0.0000000000	0.0000000000
0.7000000000	-58.8480615602	1.0000000000	729.3738815591	1.0000000000	0.0000000000	0.0000000000	0.9232995259	1.0000000000	0.5344994387	1.0000000000	0.0000000000	0.0000000000
0.7100000000	-49.7584027525	1.0000000000	676.1876795515	1.0000000000	0.0000000000	0.0000000000	0.8347350263	1.0000000000	0.3502558527	1.0000000000	0.0000000000	0.0000000000
0.7200000000	-41.6625908852	1.0000000000	624.9361652636	1.0000000000	0.0000000000	0.0000000000	0.7749651142	1.0000000000	0.4379116806	1.0000000000	0.0000000000	0.0000000000
0.7300000000	-34.1490199545	1.0000000000	577.1546850222	1.0000000000	0.0000000000	0.0000000000	0.9675436018	1.0000000000	0.6167050962	1.0000000000	0.0000000000	0.0000000000
0.7400000000	-27.5711856940	1.0000000000	533.6731819848	1.0000000000	0.0000000000	0.0000000000	1.0243442179	1.0000000000	0.5282334456	1.0000000000	0.0000000000	0.0000000000
0.7500000000	-22.1192137044	1.0000000000	495.0151493438	1.0000000000	0.0000000000	0.0000000000	0.7814156232	1.0000000000	0.1414089203	1.0000000000	0.0000000000	0.0000000000
0.7600000000	-17.2810740989	1.0000000000	461.7899611307	1.0000000000	0.0000000000	0.0000000000	0.0000000000	1.0000000000	0.0000000000	1.0000000000	0.0000000000	0.0000000000
0.7700000000	-12.6212773635	1.0000000000	434.6504447331	1.0000000000	0.0000000000	0.0000000000	0.0000000000	1.0000000000	0.0000000000	1.0000000000	0.0000000000	0.0000000000
0.7800000000	-8.2444279090	1.0000000000	413.9056319467	1.0000000000	0.0000000000	0.0000000000	0.0000000000	1.0000000000	0.0000000000	1.0000000000	0.0000000000	0.0000000000
0.7900000000	-4.1021189095	1.0000000000	399.4244545923	1.0000000000	0.0000000000	0.0000000000	0.4315172562	1.0000000000	0.1247507173	1.0000000000	0.0000000000	0.0000000000
0.8000000000	0.2499444526	1.0000000000	390.8854033727	1.0000000000	0.0000000000	0.0000000000	0.4863154159	1.0000000000	0.1785314757	1.0000000000	0.0000000000	0.0000000000
0.8100000000	5.0268222648	1.0000000000	387.9428110073	1.0000000000	0.0000000000	0.0000000000	0.7103761857	1.0000000000	0.0912717778	1.0000000000	0.0000000000	0.0000000000
0.8200000000	10.1160012331	1.0000000000	390.2344462931	1.0000000000	0.0000000000	0.0000000000	0.7525196970	1.0000000000	0.0353956906	1.0000000000	0.0000000000	0.0000000000
0.8300000000	15.6543473089	1.0000000000	397.3259391259	1.0000000000	0.0000000000	0.0000000000	0.6197412138	1.0000000000	0.1513415417	1.0000000000	0.0000000000	0.0000000000
0.8400000000	22.0045661619	1.0000000000	408.7577720634	1.0000000000	0.0000000000	0.0000000000	0.5738999988	1.0000000000	0.4015792197	1.0000000000	0.0000000000	0.0000000000
0.8500000000	29.2268156946	1.0000000000	424.1693328149	1.0000000000	0.0000000000	0.0000000000	0.6013553138	1.0000000000	0.6402863723	1.0000000000	0.0000000000	0.0000000000
0.8600000000	37.2517353094	1.0000000000	443.3863830536	1.0000000000	0.0000000000	0.0000000000	0.5011609703	1.0000000000	0.7817612139	1.0000000000	0.0000000000	0.0000000000
0.8700000000	46.2663645642	1.0000000000	466.3717461204	1.0000000000	0.0000000000	0.0000000000	0.3389384951	1.0000000000	0.8755435226	1.0000000000	0.0000000000	0.0000000000
0.8800000000	56.4698284877	1.0000000000	493.0292078330	1.0000000000	0.0000000000	0.0000000000	0.2926595424	1.0000000000	1.0263411307	1.0000000000	0.0000000000	0.0000000000
0.8900000000	67.8388768180	1.0000000000	523.0086032379	1.0000000000	0.0000000000	0.0000000000	0.2428643763	1.0000000000	1.1576603544	1.0000000000	0.0000000000	0.0000000000
0.9000000000	80.3398082967	1.0000000000	555.6771414161	1.0000000000	0.0000000000	0.0000000000	0.0689482478	1.0000000000	0.8740640227	1.0000000000	0.0000000000	0.0000000000
0.9100000000	94.0915544397	1.0000000000	590.1452996913	1.0000000000	0.0000000000	0.0000000000	0.0000000000	1.0000000000	0.0000000000	1.0000000000	0.0000000000	0.0000000000
0.9200000000	109.1714697070	1.0000000000	625.1979459828	1.0000000000	0.0000000000	0.0000000000	0.0000000000	1.0000000000	0.0000000000	1.0000000000	0.0000000000	0.0000000000
0.9300000000	125.4410373827	1.0000000000	659.2310826799	1.0000000000	0.0000000000	0.0000000000	0.0000000000	1.0000000000	0.0000000000	1.0000000000	0.0000000000	0.0000000000
0.9400000000	142.6900810932	1.0000000000	690.3322765509	1.0000000000	0.0000000000	0.0000000000	0.0000000000	1.0000000000	0.0000000000	1.0000000000	0.0000000000	0.0000000000
0.9500000000	160.6278035976	1.0000000000	716.3511635386	1.0000000000	0.0000000000	0.0000000000	0.0000000000	1.0000000000	0.0000000000	1.0000000000	0.0000000000	0.0000000000
0.9600000000	178.5645225844	1.0000000000	734.8695951456	1.0000000000	0.0000000000	0.0000000000	0.0000000000	1.0000000000	0.0000000000	1.0000000000	0.0000000000	0.0000000000
0.9700000000	195.4236602663	1.0000000000	743.2078610896	1.0000000000	0.0000000000	0.0000000000	0.0000000000	1.0000000000	0.0000000000	1.0000000000	0.0000000000	0.0000000000
0.9800000000	210.0086353486	1.0000000000	738.6557441233	1.0000000000	0.0000000000	0.0000000000	0.0000000000	1.0000000000	0.0000000000	1.0000000000	0.0000000000	0.0000000000
0.9900000000	220.8983686596	1.0000000000	718.8956289577	1.0000000000	0.0000000000	0.0000000000	3.1141456516	1.0000000000	12.2108923703	1.0000000000	0.0000000000	0.0000000000
