name p5_grf_mean_speed_1.0
datacolumns 13
datarows 100
range 0.00000000 0.99000000
endheader
time	grf_x_l_mean	grf_x_l_var	grf_y_l_mean	grf_y_l_var	grf_z_l_mean	grf_z_l_var	grf_x_r_mean	grf_x_r_var	grf_y_r_mean	grf_y_r_var	grf_z_r_mean	grf_z_r_var
0.0000000000	95.1992141786	1.0000000000	705.1712250183	1.0000000000	0.0000000000	0.0000000000	9.0939007805	1.0000000000	10.9376750714	1.0000000000	0.0000000000	0.0000000000
0.0100000000	103.1672963985	1.0000000000	698.3988384834	1.0000000000	0.0000000000	0.0000000000	15.8979725513	1.0000000000	39.2315207069	1.0000000000	0.0000000000	0.0000000000
0.0200000000	111.2582020088	1.0000000000	685.7701429963	1.0000000000	0.0000000000	0.0000000000	21.5712646830	1.0000000000	84.3536774651	1.0000000000	0.0000000000	0.0000000000
0.0300000000	118.9454876720	1.0000000000	665.4252229830	1.0000000000	0.0000000000	0.0000000000	20.3206237837	1.0000000000	144.5053826087	1.0000000000	0.0000000000	0.0000000000
0.0400000000	124.7432186553	1.0000000000	635.0073790770	1.0000000000	0.0000000000	0.0000000000	9.2854559444	1.0000000000	214.4856832799	1.0000000000	0.0000000000	0.0000000000
0.0500000000	128.0584394856	1.0000000000	592.5424831764	1.0000000000	0.0000000000	0.0000000000	-7.6813918759	1.0000000000	287.2721899011	1.0000000000	0.0000000000	0.0000000000
0.0600000000	128.2505435516	1.0000000000	536.8179938081	1.0000000000	0.0000000000	0.0000000000	-26.6039607902	1.0000000000	355.4529265727	1.0000000000	0.0000000000	0.0000000000
0.0700000000	122.6854214387	1.0000000000	467.8486687155	1.0000000000	0.0000000000	0.0000000000	-45.5872631879	1.0000000000	414.5883388133	1.0000000000	0.0000000000	0.0000000000
0.0800000000	110.4930233928	1.0000000000	388.4109952996	1.0000000000	0.0000000000	0.0000000000	-62.4560472303	1.0000000000	464.8403178194	1.0000000000	0.0000000000	0.0000000000
0.0900000000	92.4090269477	1.0000000000	304.6681567939	1.0000000000	0.0000000000	0.0000000000	-75.4039834453	1.0000000000	509.1913827779	1.0000000000	0.0000000000	0.0000000000
0.1000000000	69.1980829103	1.0000000000	224.5393524801	1.0000000000	0.0000000000	0.0000000000	-84.7251892656	1.0000000000	550.4527828738	1.0000000000	0.0000000000	0.0000000000
0.1100000000	44.3634842986	1.0000000000	155.0331620823	1.0000000000	0.0000000000	0.0000000000	-90.5677595563	1.0000000000	590.0195799888	1.0000000000	0.0000000000	0.0000000000
0.1200000000	23.0730563310	1.0000000000	100.5712342671	1.0000000000	0.0000000000	0.0000000000	-92.3115187348	1.0000000000	628.1317941480	1.0000000000	0.0000000000	0.0000000000
0.1300000000	7.8013108734	1.0000000000	61.8271189421	1.0000000000	0.0000000000	0.0000000000	-91.3751159975	1.0000000000	663.4157851449	1.0000000000	0.0000000000	0.0000000000
0.1400000000	-0.9496826009	1.0000000000	36.2419867277	1.0000000000	0.0000000000	0.0000000000	-89.0475662948	1.0000000000	693.1851859757	1.0000000000	0.0000000000	0.0000000000
0.1500000000	-4.0077405796	1.0000000000	20.0748107190	1.0000000000	0.0000000000	0.0000000000	-84.8180283784	1.0000000000	715.2582284881	1.0000000000	0.0000000000	0.0000000000
0.1600000000	-4.1284606798	1.0000000000	10.0721957393	1.0000000000	0.0000000000	0.0000000000	-79.5902006481	1.0000000000	728.9163847958	1.0000000000	0.0000000000	0.0000000000
0.1700000000	-3.3220259139	1.0000000000	4.1076909380	1.0000000000	0.0000000000	0.0000000000	-74.3586811021	1.0000000000	734.5497562562	1.0000000000	0.0000000000	0.0000000000
0.1800000000	-1.8839228166	1.0000000000	0.9030194994	1.0000000000	0.0000000000	0.0000000000	-68.9254576028	1.0000000000	733.4450187187	1.0000000000	0.0000000000	0.0000000000
0.1900000000	0.0000000000	1.0000000000	0.0000000000	1.0000000000	0.0000000000	0.0000000000	-63.4588776637	1.0000000000	727.1876943774	1.0000000000	0.0000000000	0.0000000000
0.2000000000	0.0000000000	1.0000000000	0.0000000000	1.0000000000	0.0000000000	0.0000000000	-58.5329591732	1.0000000000	716.4260383855	1.0000000000	0.0000000000	0.0000000000
0.2100000000	0.0000000000	1.0000000000	0.0000000000	1.0000000000	0.0000000000	0.0000000000	-53.7762584830	1.0000000000	701.3929861457	1.0000000000	0.0000000000	0.0000000000
0.2200000000	0.0000000000	1.0000000000	0.0000000000	1.0000000000	0.0000000000	0.0000000000	-49.1118369991	1.0000000000	683.3950606427	1.0000000000	0.0000000000	0.0000000000
0.2300000000	-0.1366837595	1.0000000000	0.0694908983	1.0000000000	0.0000000000	0.0000000000	-44.9882934284	1.0000000000	664.4739841306	1.0000000000	0.0000000000	0.0000000000
0.2400000000	-0.1484470172	1.0000000000	0.2662091858	1.0000000000	0.0000000000	0.0000000000	-41.0313979411	1.0000000000	645.9485079349	1.0000000000	0.0000000000	0.0000000000
0.2500000000	-0.0649862526	1.0000000000	0.3381899360	1.0000000000	0.0000000000	0.0000000000	-36.9634726142	1.0000000000	628.3195233705	1.0000000000	0.0000000000	0.0000000000
0.2600000000	-0.2132704100	1.0000000000	0.3183767772	1.0000000000	0.0000000000	0.0000000000	-33.1145629810	1.0000000000	612.4687952552	1.0000000000	0.0000000000	0.0000000000
0.2700000000	-0.2394229513	1.0000000000	0.2747487430	1.0000000000	0.0000000000	0.0000000000	-29.4172934403	1.0000000000	599.6984128431	1.0000000000	0.0000000000	0.0000000000
0.2800000000	-0.1187564156	1.0000000000	0.2502205573	1.0000000000	0.0000000000	0.0000000000	-25.7611735301	1.0000000000	590.4182333925	1.0000000000	0.0000000000	0.0000000000
0.2900000000	-0.1711747374	1.0000000000	0.2525278092	1.0000000000	0.0000000000	0.0000000000	-22.3921170672	1.0000000000	583.7096350096	1.0000000000	0.0000000000	0.0000000000
0.3000000000	-0.1960857584	1.0000000000	0.2280489587	1.0000000000	0.0000000000	0.0000000000	-19.3219244718	1.0000000000	578.6758706851	1.0000000000	0.0000000000	0.0000000000
0.3100000000	-0.1143123416	1.0000000000	0.1682552299	1.0000000000	0.0000000000	0.0000000000	-16.3853253675	1.0000000000	575.4510330133	1.0000000000	0.0000000000	0.0000000000
0.3200000000	-0.2023165268	1.0000000000	0.1410076405	1.0000000000	0.0000000000	0.0000000000	-13.5612884716	1.0000000000	574.3466102368	1.0000000000	0.0000000000	0.0000000000
0.3300000000	-0.3162503486	1.0000000000	0.1424316386	1.0000000000	0.0000000000	0.0000000000	-10.7269459634	1.0000000000	574.9774639542	1.0000000000	0.0000000000	0.0000000000
0.3400000000	-0.2900304039	1.0000000000	0.1268344173	1.0000000000	0.0000000000	0.0000000000	-7.7381358823	1.0000000000	576.8035089674	1.0000000000	0.0000000000	0.0000000000
0.3500000000	-0.3101147726	1.0000000000	0.1135043394	1.0000000000	0.0000000000	0.0000000000	-4.6213394401	1.0000000000	579.8239391175	1.0000000000	0.0000000000	0.0000000000
0.3600000000	-0.3709933930	1.0000000000	0.1435828594	1.0000000000	0.0000000000	0.0000000000	-1.2907871588	1.0000000000	584.2817384421	1.0000000000	0.0000000000	0.0000000000
0.3700000000	-0.3051194343	1.0000000000	0.2359101698	1.0000000000	0.0000000000	0.0000000000	2.2381703501	1.0000000000	590.1771060314	1.0000000000	0.0000000000	0.0000000000
0.3800000000	-0.2184982842	1.0000000000	0.3666294181	1.0000000000	0.0000000000	0.0000000000	5.9036952746	1.0000000000	597.2478170673	1.0000000000	0.0000000000	0.0000000000
0.3900000000	-0.2222070339	1.0000000000	0.4735522785	1.0000000000	0.0000000000	0.0000000000	9.9161558545	1.0000000000	605.2009258276	1.0000000000	0.0000000000	0.0000000000
0.4000000000	-0.2973260096	1.0000000000	0.5157402901	1.0000000000	0.0000000000	0.0000000000	14.4593209494	1.0000000000	614.0361431655	1.0000000000	0.0000000000	0.0000000000
0.4100000000	-0.4658484779	1.0000000000	0.3866123103	1.0000000000	0.0000000000	0.0000000000	19.4886612722	1.0000000000	623.9529320407	1.0000000000	0.0000000000	0.0000000000
0.4200000000	0.0000000000	1.0000000000	0.0000000000	1.0000000000	0.0000000000	0.0000000000	25.0953314654	1.0000000000	634.7248622323	1.0000000000	0.0000000000	0.0000000000
0.4300000000	0.0000000000	1.0000000000	0.0000000000	1.0000000000	0.0000000000	0.0000000000	31.4045722478	1.0000000000	645.6361903593	1.0000000000	0.0000000000	0.0000000000
0.4400000000	0.0000000000	1.0000000000	0.0000000000	1.0000000000	0.0000000000	0.0000000000	38.3019356828	1.0000000000	656.1847665659	1.0000000000	0.0000000000	0.0000000000
0.4500000000	0.0000000000	1.0000000000	0.0000000000	1.0000000000	0.0000000000	0.0000000000	45.7149010119	1.0000000000	666.2275388581	1.0000000000	0.0000000000	0.0000000000
0.4600000000	0.0000000000	1.0000000000	0.0000000000	1.0000000000	0.0000000000	0.0000000000	53.6135958075	1.0000000000	675.4452516440	1.0000000000	0.0000000000	0.0000000000
0.4700000000	0.0000000000	1.0000000000	0.0000000000	1.0000000000	0.0000000000	0.0000000000	61.9269653358	1.0000000000	683.1819073799	1.0000000000	0.0000000000	0.0000000000
0.4800000000	0.0000000000	1.0000000000	0.0000000000	1.0000000000	0.0000000000	0.0000000000	70.7807009358	1.0000000000	688.5994369811	1.0000000000	0.0000000000	0.0000000000
0.4900000000	9.9511882836	1.0000000000	15.6487633391	1.0000000000	0.0000000000	0.0000000000	80.2992864623	1.0000000000	690.5779933172	1.0000000000	0.0000000000	0.0000000000
0.5000000000	16.6565025073	1.0000000000	45.5309178009	1.0000000000	0.0000000000	0.0000000000	90.2480871098	1.0000000000	687.5473936265	1.0000000000	0.0000000000	0.0000000000
0.5100000000	21.5396881716	1.0000000000	91.8558187037	1.0000000000	0.0000000000	0.0000000000	100.2912988630	1.0000000000	677.3578517037	1.0000000000	0.0000000000	0.0000000000
0.5200000000	20.2641876843	1.0000000000	153.6082305563	1.0000000000	0.0000000000	0.0000000000	109.7375411850	1.0000000000	657.2843179729	1.0000000000	0.0000000000	0.0000000000
0.5300000000	10.4677539189	1.0000000000	226.3049930529	1.0000000000	0.0000000000	0.0000000000	117.2629657322	1.0000000000	624.5860622683	1.0000000000	0.0000000000	0.0000000000
0.5400000000	-6.2036952128	1.0000000000	303.2236846808	1.0000000000	0.0000000000	0.0000000000	121.5616877924	1.0000000000	577.4017401817	1.0000000000	0.0000000000	0.0000000000
0.5500000000	-26.3124483534	1.0000000000	377.2000692059	1.0000000000	0.0000000000	0.0000000000	121.1835358822	1.0000000000	515.5475558097	1.0000000000	0.0000000000	0.0000000000
0.5600000000	-46.8444507113	1.0000000000	442.6722125836	1.0000000000	0.0000000000	0.0000000000	114.3881564936	1.0000000000	441.2182165571	1.0000000000	0.0000000000	0.0000000000
0.5700000000	-65.0081089777	1.0000000000	497.3460171695	1.0000000000	0.0000000000	0.0000000000	100.6776746152	1.0000000000	359.3448951173	1.0000000000	0.0000000000	0.0000000000
0.5800000000	-78.7908344505	1.0000000000	542.4889549204	1.0000000000	0.0000000000	0.0000000000	81.3803942313	1.0000000000	276.9561345976	1.0000000000	0.0000000000	0.0000000000
0.5900000000	-87.9342831820	1.0000000000	581.3003571681	1.0000000000	0.0000000000	0.0000000000	58.9238598127	1.0000000000	201.4215003204	1.0000000000	0.0000000000	0.0000000000
0.6000000000	-92.6905601390	1.0000000000	616.4724437588	1.0000000000	0.0000000000	0.0000000000	36.8142974863	1.0000000000	138.2862251419	1.0000000000	0.0000000000	0.0000000000
0.6100000000	-93.2630609741	1.0000000000	648.6620188702	1.0000000000	0.0000000000	0.0000000000	18.6776140201	1.0000000000	89.9510008095	1.0000000000	0.0000000000	0.0000000000
0.6200000000	-90.7419885674	1.0000000000	676.5896833242	1.0000000000	0.0000000000	0.0000000000	6.1924862909	1.0000000000	55.7094012841	1.0000000000	0.0000000000	0.0000000000
0.6300000000	-86.3317563400	1.0000000000	698.4987954242	1.0000000000	0.0000000000	0.0000000000	-0.8697671315	1.0000000000	32.7942743079	1.0000000000	0.0000000000	0.0000000000
0.6400000000	-80.6933539473	1.0000000000	713.4150542871	1.0000000000	0.0000000000	0.0000000000	-3.6216042794	1.0000000000	17.9962360823	1.0000000000	0.0000000000	0.0000000000
0.6500000000	-74.7712714763	1.0000000000	721.1388316626	1.0000000000	0.0000000000	0.0000000000	-3.7850292037	1.0000000000	8.8677872310	1.0000000000	0.0000000000	0.0000000000
0.6600000000	-69.2686263324	1.0000000000	721.9673658088	1.0000000000	0.0000000000	0.0000000000	-2.9405435419	1.0000000000	3.6287558737	1.0000000000	0.0000000000	0.0000000000
0.6700000000	-64.0059012460	1.0000000000	716.7589783192	1.0000000000	0.0000000000	0.0000000000	-1.7786139148	1.0000000000	0.8647395953	1.0000000000	0.0000000000	0.0000000000
0.6800000000	-58.8451575586	1.0000000000	706.7143037326	1.0000000000	0.0000000000	0.0000000000	0.0000000000	1.0000000000	0.0000000000	1.0000000000	0.0000000000	0.0000000000
0.6900000000	-53.9265369606	1.0000000000	692.9368803862	1.0000000000	0.0000000000	0.0000000000	0.0000000000	1.0000000000	0.0000000000	1.0000000000	0.0000000000	0.0000000000
0.7000000000	-48.9946559508	1.0000000000	676.4019068066	1.0000000000	0.0000000000	0.0000000000	0.0000000000	1.0000000000	0.0000000000	1.0000000000	0.0000000000	0.0000000000
0.7100000000	-44.0478773043	1.0000000000	658.1807055269	1.0000000000	0.0000000000	0.0000000000	0.0000000000	1.0000000000	0.0000000000	1.0000000000	0.0000000000	0.0000000000
0.7200000000	-39.3806935779	1.0000000000	639.5600016801	1.0000000000	0.0000000000	0.0000000000	0.0000000000	1.0000000000	0.0000000000	1.0000000000	0.0000000000	0.0000000000
0.7300000000	-34.9652270623	1.0000000000	621.8836908199	1.0000000000	0.0000000000	0.0000000000	0.0000000000	1.0000000000	0.0000000000	1.0000000000	0.0000000000	0.0000000000
0.7400000000	-30.7432298392	1.0000000000	606.4051540466	1.0000000000	0.0000000000	0.0000000000	0.0000000000	1.0000000000	0.0000000000	1.0000000000	0.0000000000	0.0000000000
0.7500000000	-26.9156086107	1.0000000000	594.1143961161	1.0000000000	0.0000000000	0.0000000000	0.0000000000	1.0000000000	0.0000000000	1.0000000000	0.0000000000	0.0000000000
0.7600000000	-23.3329073389	1.0000000000	585.3504711130	1.0000000000	0.0000000000	0.0000000000	0.0000000000	1.0000000000	0.0000000000	1.0000000000	0.0000000000	0.0000000000
0.7700000000	-19.8401238402	1.0000000000	579.7650146110	1.0000000000	0.0000000000	0.0000000000	0.0000000000	1.0000000000	0.0000000000	1.0000000000	0.0000000000	0.0000000000
0.7800000000	-16.5176092349	1.0000000000	576.7835506391	1.0000000000	0.0000000000	0.0000000000	0.2747088208	1.0000000000	0.0312198364	1.0000000000	0.0000000000	0.0000000000
0.7900000000	-13.2861782584	1.0000000000	575.7905819176	1.0000000000	0.0000000000	0.0000000000	0.0906572743	1.0000000000	0.1579902606	1.0000000000	0.0000000000	0.0000000000
0.8000000000	-9.9144615290	1.0000000000	576.1653888151	1.0000000000	0.0000000000	0.0000000000	0.0080890574	1.0000000000	0.2258290800	1.0000000000	0.0000000000	0.0000000000
0.8100000000	-6.3965545512	1.0000000000	577.5921159711	1.0000000000	0.0000000000	0.0000000000	-0.0048995183	1.0000000000	0.2377880281	1.0000000000	0.0000000000	0.0000000000
0.8200000000	-2.6780212889	1.0000000000	580.1124205630	1.0000000000	0.0000000000	0.0000000000	-0.0480895781	1.0000000000	0.2313704957	1.0000000000	0.0000000000	0.0000000000
0.8300000000	1.3625755160	1.0000000000	583.7917727907	1.0000000000	0.0000000000	0.0000000000	-0.1267975091	1.0000000000	0.2178400728	1.0000000000	0.0000000000	0.0000000000
0.8400000000	5.6246914708	1.0000000000	588.5754249073	1.0000000000	0.0000000000	0.0000000000	-0.2124080143	1.0000000000	0.1920626555	1.0000000000	0.0000000000	0.0000000000
0.8500000000	10.0213908478	1.0000000000	594.4226309285	1.0000000000	0.0000000000	0.0000000000	-0.2701244191	1.0000000000	0.1667190688	1.0000000000	0.0000000000	0.0000000000
0.8600000000	14.5522046058	1.0000000000	601.3753343301	1.0000000000	0.0000000000	0.0000000000	-0.2262710833	1.0000000000	0.1568678073	1.0000000000	0.0000000000	0.0000000000
0.8700000000	19.1856426701	1.0000000000	609.4629381096	1.0000000000	0.0000000000	0.0000000000	-0.0876234519	1.0000000000	0.1799873526	1.0000000000	0.0000000000	0.0000000000
0.8800000000	23.9424960913	1.0000000000	618.6390544291	1.0000000000	0.0000000000	0.0000000000	0.0640517051	1.0000000000	0.2383897491	1.0000000000	0.0000000000	0.0000000000
0.8900000000	28.9354003885	1.0000000000	628.8522236883	1.0000000000	0.0000000000	0.0000000000	0.1511674612	1.0000000000	0.3098908485	1.0000000000	0.0000000000	0.0000000000
0.9000000000	34.2215667152	1.0000000000	639.9806042400	1.0000000000	0.0000000000	0.0000000000	0.1288925074	1.0000000000	0.3383607679	1.0000000000	0.0000000000	0.0000000000
0.9100000000	39.8558474154	1.0000000000	651.6803870844	1.0000000000	0.0000000000	0.0000000000	-0.0158196605	1.0000000000	0.2114019509	1.0000000000	0.0000000000	0.0000000000
0.9200000000	45.8635026185	1.0000000000	663.4754076756	1.0000000000	0.0000000000	0.0000000000	0.0000000000	1.0000000000	0.0000000000	1.0000000000	0.0000000000	0.0000000000
0.9300000000	52.2023825883	1.0000000000	674.8752460658	1.0000000000	0.0000000000	0.0000000000	0.0000000000	1.0000000000	0.0000000000	1.0000000000	0.0000000000	0.0000000000
0.9400000000	58.8097196970	1.0000000000	685.3467478640	1.0000000000	0.0000000000	0.0000000000	0.0000000000	1.0000000000	0.0000000000	1.0000000000	0.0000000000	0.0000000000
0.9500000000	65.6570130231	1.0000000000	694.3459715317	1.0000000000	0.0000000000	0.0000000000	0.0000000000	1.0000000000	0.0000000000	1.0000000000	0.0000000000	0.0000000000
0.9600000000	72.7075660846	1.0000000000	701.3643817666	1.0000000000	0.0000000000	0.0000000000	0.0000000000	1.0000000000	0.0000000000	1.0000000000	0.0000000000	0.0000000000
0.9700000000	79.9896423466	1.0000000000	705.8925322252	1.0000000000	0.0000000000	0.0000000000	0.0000000000	1.0000000000	0.0000000000	1.0000000000	0.0000000000	0.0000000000
0.9800000000	87.5274780732	1.0000000000	707.3700418537	1.0000000000	0.0000000000	0.0000000000	0.0000000000	1.0000000000	0.0000000000	1.0000000000	0.0000000000	0.0000000000
0.9900000000	95.2910171763	1.0000000000	705.1298246739	1.0000000000	0.0000000000	0.0000000000	9.1034123456	1.0000000000	10.9381440656	1.0000000000	0.0000000000	0.0000000000
