name p6_grf_mean_speed_1.6
datacolumns 13
datarows 100
range 0.00000000 0.99000000
endheader
time	grf_x_l_mean	grf_x_l_var	grf_y_l_mean	grf_y_l_var	grf_z_l_mean	grf_z_l_var	grf_x_r_mean	grf_x_r_var	grf_y_r_mean	grf_y_r_var	grf_z_r_mean	grf_z_r_var
0.0000000000	199.0610300845	1.0000000000	871.4426093419	1.0000000000	0.0000000000	0.0000000000	6.4829955757	1.0000000000	11.7369821594	1.0000000000	0.0000000000	0.0000000000
0.0100000000	212.9206873890	1.0000000000	848.0761773532	1.0000000000	0.0000000000	0.0000000000	11.2408579001	1.0000000000	63.4111063753	1.0000000000	0.0000000000	0.0000000000
0.0200000000	223.3249931825	1.0000000000	808.0201536588	1.0000000000	0.0000000000	0.0000000000	15.5856282017	1.0000000000	151.2865389656	1.0000000000	0.0000000000	0.0000000000
0.0300000000	227.8944292224	1.0000000000	749.2022274148	1.0000000000	0.0000000000	0.0000000000	13.8626032759	1.0000000000	274.4902532930	1.0000000000	0.0000000000	0.0000000000
0.0400000000	223.8522983377	1.0000000000	671.7405975744	1.0000000000	0.0000000000	0.0000000000	-4.0181812353	1.0000000000	418.4448862996	1.0000000000	0.0000000000	0.0000000000
0.0500000000	208.2582917749	1.0000000000	578.1937454377	1.0000000000	0.0000000000	0.0000000000	-40.8185894698	1.0000000000	558.8942415281	1.0000000000	0.0000000000	0.0000000000
0.0600000000	181.6261925933	1.0000000000	473.5320337226	1.0000000000	0.0000000000	0.0000000000	-83.8191445548	1.0000000000	677.9792888024	1.0000000000	0.0000000000	0.0000000000
0.0700000000	148.4987731432	1.0000000000	366.8296093043	1.0000000000	0.0000000000	0.0000000000	-120.9308154362	1.0000000000	770.3350654435	1.0000000000	0.0000000000	0.0000000000
0.0800000000	112.4648082422	1.0000000000	267.7642201666	1.0000000000	0.0000000000	0.0000000000	-152.3606613317	1.0000000000	837.8999944169	1.0000000000	0.0000000000	0.0000000000
0.0900000000	76.9333294749	1.0000000000	182.8497387098	1.0000000000	0.0000000000	0.0000000000	-178.1531845186	1.0000000000	888.3960909331	1.0000000000	0.0000000000	0.0000000000
0.1000000000	47.5122724410	1.0000000000	116.3483952984	1.0000000000	0.0000000000	0.0000000000	-195.1557175075	1.0000000000	931.5434258302	1.0000000000	0.0000000000	0.0000000000
0.1100000000	25.5210334664	1.0000000000	69.4630903918	1.0000000000	0.0000000000	0.0000000000	-203.6171270194	1.0000000000	971.2556823759	1.0000000000	0.0000000000	0.0000000000
0.1200000000	10.8074784556	1.0000000000	37.9460073324	1.0000000000	0.0000000000	0.0000000000	-206.1875342597	1.0000000000	1004.0332051351	1.0000000000	0.0000000000	0.0000000000
0.1300000000	2.8914484642	1.0000000000	16.8238199945	1.0000000000	0.0000000000	0.0000000000	-201.7369376455	1.0000000000	1025.6365358558	1.0000000000	0.0000000000	0.0000000000
0.1400000000	-1.1730255744	1.0000000000	4.8936242130	1.0000000000	0.0000000000	0.0000000000	-190.6548215485	1.0000000000	1034.9702231178	1.0000000000	0.0000000000	0.0000000000
0.1500000000	0.0000000000	1.0000000000	0.0000000000	1.0000000000	0.0000000000	0.0000000000	-176.9845769027	1.0000000000	1031.1193753941	1.0000000000	0.0000000000	0.0000000000
0.1600000000	0.0000000000	1.0000000000	0.0000000000	1.0000000000	0.0000000000	0.0000000000	-161.0860884299	1.0000000000	1013.2325012713	1.0000000000	0.0000000000	0.0000000000
0.1700000000	0.0000000000	1.0000000000	0.0000000000	1.0000000000	0.0000000000	0.0000000000	-142.6410657781	1.0000000000	983.0483212918	1.0000000000	0.0000000000	0.0000000000
0.1800000000	0.0000000000	1.0000000000	0.0000000000	1.0000000000	0.0000000000	0.0000000000	-124.7538492713	1.0000000000	944.2621623724	1.0000000000	0.0000000000	0.0000000000
0.1900000000	-1.0693721139	1.0000000000	0.0299841974	1.0000000000	0.0000000000	0.0000000000	-108.6258340396	1.0000000000	898.7924152676	1.0000000000	0.0000000000	0.0000000000
0.2000000000	-0.1368418667	1.0000000000	0.1737617815	1.0000000000	0.0000000000	0.0000000000	-93.2525783810	1.0000000000	847.4508341658	1.0000000000	0.0000000000	0.0000000000
0.2100000000	-0.5099735567	1.0000000000	0.1057716815	1.0000000000	0.0000000000	0.0000000000	-79.8922399311	1.0000000000	794.2066483605	1.0000000000	0.0000000000	0.0000000000
0.2200000000	-0.6510542669	1.0000000000	0.4560227962	1.0000000000	0.0000000000	0.0000000000	-69.4013068185	1.0000000000	744.2407051724	1.0000000000	0.0000000000	0.0000000000
0.2300000000	0.1543990196	1.0000000000	0.6124861216	1.0000000000	0.0000000000	0.0000000000	-60.1832960741	1.0000000000	699.9826313112	1.0000000000	0.0000000000	0.0000000000
0.2400000000	-0.1463613994	1.0000000000	0.2202008031	1.0000000000	0.0000000000	0.0000000000	-51.6629490586	1.0000000000	661.6754163633	1.0000000000	0.0000000000	0.0000000000
0.2500000000	0.0000000000	1.0000000000	0.0000000000	1.0000000000	0.0000000000	0.0000000000	-44.7930835608	1.0000000000	630.0653793134	1.0000000000	0.0000000000	0.0000000000
0.2600000000	-0.1556191478	1.0000000000	0.1540113888	1.0000000000	0.0000000000	0.0000000000	-38.6643397199	1.0000000000	606.5243405775	1.0000000000	0.0000000000	0.0000000000
0.2700000000	-0.1147861213	1.0000000000	0.1413055333	1.0000000000	0.0000000000	0.0000000000	-32.7602037811	1.0000000000	590.7574749038	1.0000000000	0.0000000000	0.0000000000
0.2800000000	0.0000000000	1.0000000000	0.0000000000	1.0000000000	0.0000000000	0.0000000000	-27.5510108795	1.0000000000	580.6414473290	1.0000000000	0.0000000000	0.0000000000
0.2900000000	-0.4846611225	1.0000000000	0.0594011689	1.0000000000	0.0000000000	0.0000000000	-22.7915356474	1.0000000000	574.9093504434	1.0000000000	0.0000000000	0.0000000000
0.3000000000	0.0053130850	1.0000000000	0.3218547214	1.0000000000	0.0000000000	0.0000000000	-17.8643996597	1.0000000000	574.1109038664	1.0000000000	0.0000000000	0.0000000000
0.3100000000	-0.6595391733	1.0000000000	0.0853250754	1.0000000000	0.0000000000	0.0000000000	-12.5569013745	1.0000000000	577.9235412966	1.0000000000	0.0000000000	0.0000000000
0.3200000000	-0.8127840771	1.0000000000	0.0300432848	1.0000000000	0.0000000000	0.0000000000	-7.0258005212	1.0000000000	585.0064131714	1.0000000000	0.0000000000	0.0000000000
0.3300000000	-0.3334640764	1.0000000000	0.4370559585	1.0000000000	0.0000000000	0.0000000000	-1.2224096609	1.0000000000	595.1546818776	1.0000000000	0.0000000000	0.0000000000
0.3400000000	-0.6597596842	1.0000000000	0.4252156662	1.0000000000	0.0000000000	0.0000000000	5.0462295783	1.0000000000	608.2221449886	1.0000000000	0.0000000000	0.0000000000
0.3500000000	-1.0567445606	1.0000000000	0.0001799154	1.0000000000	0.0000000000	0.0000000000	12.0295014095	1.0000000000	623.4056319089	1.0000000000	0.0000000000	0.0000000000
0.3600000000	-0.7180004390	1.0000000000	0.1189161773	1.0000000000	0.0000000000	0.0000000000	19.5091353931	1.0000000000	640.7554527641	1.0000000000	0.0000000000	0.0000000000
0.3700000000	-0.6623850074	1.0000000000	0.7228647191	1.0000000000	0.0000000000	0.0000000000	27.3979532189	1.0000000000	660.3966293765	1.0000000000	0.0000000000	0.0000000000
0.3800000000	-0.8172580336	1.0000000000	0.8768605445	1.0000000000	0.0000000000	0.0000000000	36.2813759627	1.0000000000	681.0862837506	1.0000000000	0.0000000000	0.0000000000
0.3900000000	-0.5878736152	1.0000000000	0.6955970425	1.0000000000	0.0000000000	0.0000000000	46.2133202657	1.0000000000	702.0623610231	1.0000000000	0.0000000000	0.0000000000
0.4000000000	-0.6441932288	1.0000000000	0.9665622006	1.0000000000	0.0000000000	0.0000000000	56.8193571168	1.0000000000	724.0140359773	1.0000000000	0.0000000000	0.0000000000
0.4100000000	-0.9598120880	1.0000000000	1.0352821022	1.0000000000	0.0000000000	0.0000000000	68.4098047397	1.0000000000	746.9548224828	1.0000000000	0.0000000000	0.0000000000
0.4200000000	0.0000000000	1.0000000000	0.0000000000	1.0000000000	0.0000000000	0.0000000000	81.0679633470	1.0000000000	769.9580918488	1.0000000000	0.0000000000	0.0000000000
0.4300000000	0.0000000000	1.0000000000	0.0000000000	1.0000000000	0.0000000000	0.0000000000	94.4448494293	1.0000000000	792.6939498416	1.0000000000	0.0000000000	0.0000000000
0.4400000000	0.0000000000	1.0000000000	0.0000000000	1.0000000000	0.0000000000	0.0000000000	108.6221354550	1.0000000000	814.9266229472	1.0000000000	0.0000000000	0.0000000000
0.4500000000	0.0000000000	1.0000000000	0.0000000000	1.0000000000	0.0000000000	0.0000000000	123.5508053364	1.0000000000	835.4945539411	1.0000000000	0.0000000000	0.0000000000
0.4600000000	0.0000000000	1.0000000000	0.0000000000	1.0000000000	0.0000000000	0.0000000000	138.7516663757	1.0000000000	853.0856976629	1.0000000000	0.0000000000	0.0000000000
0.4700000000	0.0000000000	1.0000000000	0.0000000000	1.0000000000	0.0000000000	0.0000000000	154.4455099579	1.0000000000	866.6400710280	1.0000000000	0.0000000000	0.0000000000
0.4800000000	0.0000000000	1.0000000000	0.0000000000	1.0000000000	0.0000000000	0.0000000000	171.0431213266	1.0000000000	874.2562452735	1.0000000000	0.0000000000	0.0000000000
0.4900000000	1.1191558611	1.0000000000	15.9185377650	1.0000000000	0.0000000000	0.0000000000	187.8652038751	1.0000000000	873.2604897610	1.0000000000	0.0000000000	0.0000000000
0.5000000000	3.3197080300	1.0000000000	64.1704633864	1.0000000000	0.0000000000	0.0000000000	204.0059096829	1.0000000000	861.1028904335	1.0000000000	0.0000000000	0.0000000000
0.5100000000	4.9711546191	1.0000000000	144.4815680963	1.0000000000	0.0000000000	0.0000000000	218.4868400200	1.0000000000	834.6954251353	1.0000000000	0.0000000000	0.0000000000
0.5200000000	1.2902617943	1.0000000000	255.0731811695	1.0000000000	0.0000000000	0.0000000000	228.9953838223	1.0000000000	790.0647189001	1.0000000000	0.0000000000	0.0000000000
0.5300000000	-15.9524270497	1.0000000000	383.5071119829	1.0000000000	0.0000000000	0.0000000000	231.9876701079	1.0000000000	724.4231648405	1.0000000000	0.0000000000	0.0000000000
0.5400000000	-48.3305130018	1.0000000000	510.9551777465	1.0000000000	0.0000000000	0.0000000000	224.1559205645	1.0000000000	638.2299898850	1.0000000000	0.0000000000	0.0000000000
0.5500000000	-86.3064417220	1.0000000000	622.2165319975	1.0000000000	0.0000000000	0.0000000000	204.3499987299	1.0000000000	535.8680239230	1.0000000000	0.0000000000	0.0000000000
0.5600000000	-120.9054329301	1.0000000000	711.4894301191	1.0000000000	0.0000000000	0.0000000000	174.1611569479	1.0000000000	425.8269251981	1.0000000000	0.0000000000	0.0000000000
0.5700000000	-150.0734061325	1.0000000000	780.7929934078	1.0000000000	0.0000000000	0.0000000000	136.8989169536	1.0000000000	318.0981455396	1.0000000000	0.0000000000	0.0000000000
0.5800000000	-172.6761082445	1.0000000000	837.0453335926	1.0000000000	0.0000000000	0.0000000000	98.2916726933	1.0000000000	221.2309831136	1.0000000000	0.0000000000	0.0000000000
0.5900000000	-187.1369073555	1.0000000000	887.9073451514	1.0000000000	0.0000000000	0.0000000000	64.1025547053	1.0000000000	142.5330010499	1.0000000000	0.0000000000	0.0000000000
0.6000000000	-194.1896304926	1.0000000000	936.2917683647	1.0000000000	0.0000000000	0.0000000000	36.7581682381	1.0000000000	85.9182539346	1.0000000000	0.0000000000	0.0000000000
0.6100000000	-194.8337428904	1.0000000000	979.3072596371	1.0000000000	0.0000000000	0.0000000000	17.4003705725	1.0000000000	47.9887780055	1.0000000000	0.0000000000	0.0000000000
0.6200000000	-188.9349534624	1.0000000000	1012.8192114945	1.0000000000	0.0000000000	0.0000000000	6.0664109280	1.0000000000	22.4833375297	1.0000000000	0.0000000000	0.0000000000
0.6300000000	-178.3999736483	1.0000000000	1034.3922983705	1.0000000000	0.0000000000	0.0000000000	0.5004614912	1.0000000000	7.1035550038	1.0000000000	0.0000000000	0.0000000000
0.6400000000	-165.3730617387	1.0000000000	1042.7173730522	1.0000000000	0.0000000000	0.0000000000	-1.9254602722	1.0000000000	0.4298104391	1.0000000000	0.0000000000	0.0000000000
0.6500000000	-150.3119111680	1.0000000000	1037.2876847422	1.0000000000	0.0000000000	0.0000000000	0.0000000000	1.0000000000	0.0000000000	1.0000000000	0.0000000000	0.0000000000
0.6600000000	-134.3786629933	1.0000000000	1018.7125311039	1.0000000000	0.0000000000	0.0000000000	0.0000000000	1.0000000000	0.0000000000	1.0000000000	0.0000000000	0.0000000000
0.6700000000	-119.0532839095	1.0000000000	988.7694973404	1.0000000000	0.0000000000	0.0000000000	0.0000000000	1.0000000000	0.0000000000	1.0000000000	0.0000000000	0.0000000000
0.6800000000	-103.8112783584	1.0000000000	949.5557208521	1.0000000000	0.0000000000	0.0000000000	0.0000000000	1.0000000000	0.0000000000	1.0000000000	0.0000000000	0.0000000000
0.6900000000	-89.0699092270	1.0000000000	903.2176318419	1.0000000000	0.0000000000	0.0000000000	0.0000000000	1.0000000000	0.0000000000	1.0000000000	0.0000000000	0.0000000000
0.7000000000	-76.3135915386	1.0000000000	852.9343669226	1.0000000000	0.0000000000	0.0000000000	1.0705759217	1.0000000000	0.3598625209	1.0000000000	0.0000000000	0.0000000000
0.7100000000	-64.9909232625	1.0000000000	802.0705552608	1.0000000000	0.0000000000	0.0000000000	1.0179369891	1.0000000000	0.7044165380	1.0000000000	0.0000000000	0.0000000000
0.7200000000	-54.7043031593	1.0000000000	752.9923919503	1.0000000000	0.0000000000	0.0000000000	1.2759300112	1.0000000000	0.7143215041	1.0000000000	0.0000000000	0.0000000000
0.7300000000	-46.3813584558	1.0000000000	708.1931121218	1.0000000000	0.0000000000	0.0000000000	1.2375386516	1.0000000000	0.5167551536	1.0000000000	0.0000000000	0.0000000000
0.7400000000	-39.5550998018	1.0000000000	670.0178894154	1.0000000000	0.0000000000	0.0000000000	0.9389093352	1.0000000000	0.4468841967	1.0000000000	0.0000000000	0.0000000000
0.7500000000	-33.1251626186	1.0000000000	638.7769020408	1.0000000000	0.0000000000	0.0000000000	0.8379578578	1.0000000000	0.5456336468	1.0000000000	0.0000000000	0.0000000000
0.7600000000	-27.7582396842	1.0000000000	613.9896448261	1.0000000000	0.0000000000	0.0000000000	0.7270990361	1.0000000000	0.3662560069	1.0000000000	0.0000000000	0.0000000000
0.7700000000	-23.4427185294	1.0000000000	596.0653398882	1.0000000000	0.0000000000	0.0000000000	0.0000000000	1.0000000000	0.0000000000	1.0000000000	0.0000000000	0.0000000000
0.7800000000	-18.8414781478	1.0000000000	584.8002058248	1.0000000000	0.0000000000	0.0000000000	0.0000000000	1.0000000000	0.0000000000	1.0000000000	0.0000000000	0.0000000000
0.7900000000	-14.1776513420	1.0000000000	578.8858344310	1.0000000000	0.0000000000	0.0000000000	0.4596534277	1.0000000000	0.2266165494	1.0000000000	0.0000000000	0.0000000000
0.8000000000	-10.0092491433	1.0000000000	577.5796398513	1.0000000000	0.0000000000	0.0000000000	0.2978123522	1.0000000000	0.3682879464	1.0000000000	0.0000000000	0.0000000000
0.8100000000	-5.3385280329	1.0000000000	580.7986016982	1.0000000000	0.0000000000	0.0000000000	0.4455663555	1.0000000000	0.0607523121	1.0000000000	0.0000000000	0.0000000000
0.8200000000	0.0278114675	1.0000000000	587.9897241158	1.0000000000	0.0000000000	0.0000000000	0.0000000000	1.0000000000	0.0000000000	1.0000000000	0.0000000000	0.0000000000
0.8300000000	5.5182847135	1.0000000000	598.2133760844	1.0000000000	0.0000000000	0.0000000000	0.4380336864	1.0000000000	0.1580453541	1.0000000000	0.0000000000	0.0000000000
0.8400000000	11.6410215338	1.0000000000	610.9722945393	1.0000000000	0.0000000000	0.0000000000	0.4969731451	1.0000000000	0.3092457526	1.0000000000	0.0000000000	0.0000000000
0.8500000000	18.7315286338	1.0000000000	626.1916287519	1.0000000000	0.0000000000	0.0000000000	0.7004342343	1.0000000000	0.2629913487	1.0000000000	0.0000000000	0.0000000000
0.8600000000	26.3732735408	1.0000000000	643.4188772113	1.0000000000	0.0000000000	0.0000000000	0.5919947624	1.0000000000	0.1979120763	1.0000000000	0.0000000000	0.0000000000
0.8700000000	34.8191691828	1.0000000000	662.0746030461	1.0000000000	0.0000000000	0.0000000000	0.4409793860	1.0000000000	0.3007968103	1.0000000000	0.0000000000	0.0000000000
0.8800000000	44.4478060931	1.0000000000	682.4432348754	1.0000000000	0.0000000000	0.0000000000	0.4396922371	1.0000000000	0.5705783271	1.0000000000	0.0000000000	0.0000000000
0.8900000000	54.8906120272	1.0000000000	704.8447946947	1.0000000000	0.0000000000	0.0000000000	0.3570294710	1.0000000000	0.8535545351	1.0000000000	0.0000000000	0.0000000000
0.9000000000	66.1618564743	1.0000000000	728.5644469282	1.0000000000	0.0000000000	0.0000000000	0.2953805942	1.0000000000	0.9448463829	1.0000000000	0.0000000000	0.0000000000
0.9100000000	78.5166316845	1.0000000000	753.0618602699	1.0000000000	0.0000000000	0.0000000000	0.3461537941	1.0000000000	0.6419544502	1.0000000000	0.0000000000	0.0000000000
0.9200000000	91.6402120517	1.0000000000	778.5409630087	1.0000000000	0.0000000000	0.0000000000	0.0000000000	1.0000000000	0.0000000000	1.0000000000	0.0000000000	0.0000000000
0.9300000000	105.4408616926	1.0000000000	804.3789182343	1.0000000000	0.0000000000	0.0000000000	0.0000000000	1.0000000000	0.0000000000	1.0000000000	0.0000000000	0.0000000000
0.9400000000	120.0939713338	1.0000000000	828.8422810791	1.0000000000	0.0000000000	0.0000000000	0.0000000000	1.0000000000	0.0000000000	1.0000000000	0.0000000000	0.0000000000
0.9500000000	135.3537720070	1.0000000000	850.4127960511	1.0000000000	0.0000000000	0.0000000000	0.0000000000	1.0000000000	0.0000000000	1.0000000000	0.0000000000	0.0000000000
0.9600000000	151.0535278281	1.0000000000	867.7837515051	1.0000000000	0.0000000000	0.0000000000	0.0000000000	1.0000000000	0.0000000000	1.0000000000	0.0000000000	0.0000000000
0.9700000000	167.2425673340	1.0000000000	878.8693793313	1.0000000000	0.0000000000	0.0000000000	0.0000000000	1.0000000000	0.0000000000	1.0000000000	0.0000000000	0.0000000000
0.9800000000	183.4964149604	1.0000000000	880.9948849671	1.0000000000	0.0000000000	0.0000000000	0.0000000000	1.0000000000	0.0000000000	1.0000000000	0.0000000000	0.0000000000
0.9900000000	199.0620878040	1.0000000000	871.6712937750	1.0000000000	0.0000000000	0.0000000000	6.5383269332	1.0000000000	11.7369809678	1.0000000000	0.0000000000	0.0000000000
