name p6_grf_mean_speed_1.8
datacolumns 13
datarows 100
range 0.00000000 0.99000000
endheader
time	grf_x_l_mean	grf_x_l_var	grf_y_l_mean	grf_y_l_var	grf_z_l_mean	grf_z_l_var	grf_x_r_mean	grf_x_r_var	grf_y_r_mean	grf_y_r_var	grf_z_r_mean	grf_z_r_var
0.0000000000	221.7105429815	1.0000000000	900.7110635819	1.0000000000	0.0000000000	0.0000000000	8.7511690389	1.0000000000	11.9489103899	1.0000000000	0.0000000000	0.0000000000
0.0100000000	235.4989629770	1.0000000000	868.8711184499	1.0000000000	0.0000000000	0.0000000000	12.8093194867	1.0000000000	67.0784668474	1.0000000000	0.0000000000	0.0000000000
0.0200000000	243.9008935539	1.0000000000	817.5793634565	1.0000000000	0.0000000000	0.0000000000	15.1463961500	1.0000000000	160.0165945443	1.0000000000	0.0000000000	0.0000000000
0.0300000000	244.5103844384	1.0000000000	746.8979337219	1.0000000000	0.0000000000	0.0000000000	10.9814575628	1.0000000000	291.0551238031	1.0000000000	0.0000000000	0.0000000000
0.0400000000	235.3165470307	1.0000000000	658.6832491480	1.0000000000	0.0000000000	0.0000000000	-8.2699309052	1.0000000000	446.9795019853	1.0000000000	0.0000000000	0.0000000000
0.0500000000	214.3460833780	1.0000000000	556.9516536440	1.0000000000	0.0000000000	0.0000000000	-47.2049754933	1.0000000000	602.9023809023	1.0000000000	0.0000000000	0.0000000000
0.0600000000	182.4364564309	1.0000000000	447.7327471174	1.0000000000	0.0000000000	0.0000000000	-95.9820658699	1.0000000000	736.9220803419	1.0000000000	0.0000000000	0.0000000000
0.0700000000	145.2318645535	1.0000000000	339.6866439506	1.0000000000	0.0000000000	0.0000000000	-139.1640739182	1.0000000000	840.4238011144	1.0000000000	0.0000000000	0.0000000000
0.0800000000	108.0642569177	1.0000000000	241.9595521892	1.0000000000	0.0000000000	0.0000000000	-173.2408904709	1.0000000000	913.6171905559	1.0000000000	0.0000000000	0.0000000000
0.0900000000	72.7798504862	1.0000000000	160.3715021133	1.0000000000	0.0000000000	0.0000000000	-200.4627390958	1.0000000000	963.2426281613	1.0000000000	0.0000000000	0.0000000000
0.1000000000	43.4855831667	1.0000000000	97.4968588992	1.0000000000	0.0000000000	0.0000000000	-218.8590800922	1.0000000000	1000.6535531714	1.0000000000	0.0000000000	0.0000000000
0.1100000000	23.2704249632	1.0000000000	53.5609027437	1.0000000000	0.0000000000	0.0000000000	-226.8485486212	1.0000000000	1034.2264375858	1.0000000000	0.0000000000	0.0000000000
0.1200000000	9.6792636626	1.0000000000	25.8596893041	1.0000000000	0.0000000000	0.0000000000	-226.9907562225	1.0000000000	1063.6720078431	1.0000000000	0.0000000000	0.0000000000
0.1300000000	1.4430670211	1.0000000000	9.0081218740	1.0000000000	0.0000000000	0.0000000000	-221.6730122898	1.0000000000	1083.4009380485	1.0000000000	0.0000000000	0.0000000000
0.1400000000	0.0000000000	1.0000000000	0.0000000000	1.0000000000	0.0000000000	0.0000000000	-209.2642059510	1.0000000000	1090.0470605403	1.0000000000	0.0000000000	0.0000000000
0.1500000000	0.0000000000	1.0000000000	0.0000000000	1.0000000000	0.0000000000	0.0000000000	-191.4283803449	1.0000000000	1083.4093643305	1.0000000000	0.0000000000	0.0000000000
0.1600000000	0.0000000000	1.0000000000	0.0000000000	1.0000000000	0.0000000000	0.0000000000	-172.5756157072	1.0000000000	1062.5870369985	1.0000000000	0.0000000000	0.0000000000
0.1700000000	0.0000000000	1.0000000000	0.0000000000	1.0000000000	0.0000000000	0.0000000000	-152.7800406859	1.0000000000	1027.1587165883	1.0000000000	0.0000000000	0.0000000000
0.1800000000	0.0000000000	1.0000000000	0.0000000000	1.0000000000	0.0000000000	0.0000000000	-131.3947849309	1.0000000000	979.7823968763	1.0000000000	0.0000000000	0.0000000000
0.1900000000	0.0000000000	1.0000000000	0.0000000000	1.0000000000	0.0000000000	0.0000000000	-111.4371916084	1.0000000000	924.8596133612	1.0000000000	0.0000000000	0.0000000000
0.2000000000	-0.9752432070	1.0000000000	0.7130898906	1.0000000000	0.0000000000	0.0000000000	-94.4726098368	1.0000000000	865.1113706210	1.0000000000	0.0000000000	0.0000000000
0.2100000000	-0.2048416793	1.0000000000	0.6833647759	1.0000000000	0.0000000000	0.0000000000	-79.0760175669	1.0000000000	802.1153846003	1.0000000000	0.0000000000	0.0000000000
0.2200000000	-0.3089350379	1.0000000000	0.3679249811	1.0000000000	0.0000000000	0.0000000000	-65.8366347399	1.0000000000	739.7595687434	1.0000000000	0.0000000000	0.0000000000
0.2300000000	-0.9404604778	1.0000000000	0.3904741557	1.0000000000	0.0000000000	0.0000000000	-55.9349059793	1.0000000000	682.9057331623	1.0000000000	0.0000000000	0.0000000000
0.2400000000	-0.4365256985	1.0000000000	0.4039816059	1.0000000000	0.0000000000	0.0000000000	-48.0836684766	1.0000000000	634.0832290132	1.0000000000	0.0000000000	0.0000000000
0.2500000000	0.0072383934	1.0000000000	0.1662877487	1.0000000000	0.0000000000	0.0000000000	-40.8445522178	1.0000000000	593.5580732966	1.0000000000	0.0000000000	0.0000000000
0.2600000000	0.0000000000	1.0000000000	0.0000000000	1.0000000000	0.0000000000	0.0000000000	-35.0377429587	1.0000000000	561.3166187020	1.0000000000	0.0000000000	0.0000000000
0.2700000000	0.0000000000	1.0000000000	0.0000000000	1.0000000000	0.0000000000	0.0000000000	-30.6505615603	1.0000000000	537.8505368811	1.0000000000	0.0000000000	0.0000000000
0.2800000000	0.0599012356	1.0000000000	0.1084021846	1.0000000000	0.0000000000	0.0000000000	-26.2633592422	1.0000000000	522.8545094023	1.0000000000	0.0000000000	0.0000000000
0.2900000000	-0.2298313274	1.0000000000	0.0658176007	1.0000000000	0.0000000000	0.0000000000	-21.8703449398	1.0000000000	514.6935868786	1.0000000000	0.0000000000	0.0000000000
0.3000000000	0.0000000000	1.0000000000	0.0000000000	1.0000000000	0.0000000000	0.0000000000	-17.8411442293	1.0000000000	511.7152752267	1.0000000000	0.0000000000	0.0000000000
0.3100000000	-0.3645051498	1.0000000000	0.0639553103	1.0000000000	0.0000000000	0.0000000000	-13.6180877728	1.0000000000	513.5542685510	1.0000000000	0.0000000000	0.0000000000
0.3200000000	-0.1090413035	1.0000000000	0.0791596818	1.0000000000	0.0000000000	0.0000000000	-8.6280887930	1.0000000000	520.4136438379	1.0000000000	0.0000000000	0.0000000000
0.3300000000	0.0000000000	1.0000000000	0.0000000000	1.0000000000	0.0000000000	0.0000000000	-2.9919841144	1.0000000000	531.5344256355	1.0000000000	0.0000000000	0.0000000000
0.3400000000	-0.8728444338	1.0000000000	0.0196268004	1.0000000000	0.0000000000	0.0000000000	3.2188797857	1.0000000000	545.9157823421	1.0000000000	0.0000000000	0.0000000000
0.3500000000	-0.4683526356	1.0000000000	0.2730377863	1.0000000000	0.0000000000	0.0000000000	10.1400735745	1.0000000000	563.4392264645	1.0000000000	0.0000000000	0.0000000000
0.3600000000	-0.6560452060	1.0000000000	0.2738285850	1.0000000000	0.0000000000	0.0000000000	17.8915548828	1.0000000000	584.0268086208	1.0000000000	0.0000000000	0.0000000000
0.3700000000	-0.9698068541	1.0000000000	0.1227992063	1.0000000000	0.0000000000	0.0000000000	26.7373662356	1.0000000000	607.1754753650	1.0000000000	0.0000000000	0.0000000000
0.3800000000	-0.7190935875	1.0000000000	0.3164305681	1.0000000000	0.0000000000	0.0000000000	36.7142732714	1.0000000000	632.7004704072	1.0000000000	0.0000000000	0.0000000000
0.3900000000	-0.6204722028	1.0000000000	0.7712151762	1.0000000000	0.0000000000	0.0000000000	47.6790874350	1.0000000000	660.6007390618	1.0000000000	0.0000000000	0.0000000000
0.4000000000	-0.8756198028	1.0000000000	0.9070616608	1.0000000000	0.0000000000	0.0000000000	59.8155436245	1.0000000000	690.2460790387	1.0000000000	0.0000000000	0.0000000000
0.4100000000	-0.9023486925	1.0000000000	0.5972635600	1.0000000000	0.0000000000	0.0000000000	73.2539300427	1.0000000000	721.0379098203	1.0000000000	0.0000000000	0.0000000000
0.4200000000	0.0000000000	1.0000000000	0.0000000000	1.0000000000	0.0000000000	0.0000000000	87.7083794010	1.0000000000	753.1066333213	1.0000000000	0.0000000000	0.0000000000
0.4300000000	0.0000000000	1.0000000000	0.0000000000	1.0000000000	0.0000000000	0.0000000000	103.0669847858	1.0000000000	786.1383035526	1.0000000000	0.0000000000	0.0000000000
0.4400000000	0.0000000000	1.0000000000	0.0000000000	1.0000000000	0.0000000000	0.0000000000	119.4685518964	1.0000000000	818.6578088567	1.0000000000	0.0000000000	0.0000000000
0.4500000000	0.0000000000	1.0000000000	0.0000000000	1.0000000000	0.0000000000	0.0000000000	136.8272749807	1.0000000000	848.9761460190	1.0000000000	0.0000000000	0.0000000000
0.4600000000	0.0000000000	1.0000000000	0.0000000000	1.0000000000	0.0000000000	0.0000000000	154.9971630075	1.0000000000	875.5631941075	1.0000000000	0.0000000000	0.0000000000
0.4700000000	0.0000000000	1.0000000000	0.0000000000	1.0000000000	0.0000000000	0.0000000000	174.0129384679	1.0000000000	896.2340893438	1.0000000000	0.0000000000	0.0000000000
0.4800000000	0.0000000000	1.0000000000	0.0000000000	1.0000000000	0.0000000000	0.0000000000	193.4733227599	1.0000000000	908.1621727433	1.0000000000	0.0000000000	0.0000000000
0.4900000000	2.9522244357	1.0000000000	3.2380083618	1.0000000000	0.0000000000	0.0000000000	212.5940621877	1.0000000000	908.5796144788	1.0000000000	0.0000000000	0.0000000000
0.5000000000	4.4198378171	1.0000000000	45.4704601157	1.0000000000	0.0000000000	0.0000000000	230.4641397803	1.0000000000	894.5763384629	1.0000000000	0.0000000000	0.0000000000
0.5100000000	4.7403968937	1.0000000000	119.7889336806	1.0000000000	0.0000000000	0.0000000000	245.2812051366	1.0000000000	863.0109176662	1.0000000000	0.0000000000	0.0000000000
0.5200000000	0.9189701742	1.0000000000	229.1831060021	1.0000000000	0.0000000000	0.0000000000	254.3366814202	1.0000000000	811.4439718369	1.0000000000	0.0000000000	0.0000000000
0.5300000000	-13.1335187189	1.0000000000	366.7106847462	1.0000000000	0.0000000000	0.0000000000	254.8381518505	1.0000000000	739.1353262412	1.0000000000	0.0000000000	0.0000000000
0.5400000000	-42.7692422464	1.0000000000	513.7849696761	1.0000000000	0.0000000000	0.0000000000	244.0436160138	1.0000000000	647.6630067407	1.0000000000	0.0000000000	0.0000000000
0.5500000000	-84.5525434730	1.0000000000	648.3364099072	1.0000000000	0.0000000000	0.0000000000	220.5361490528	1.0000000000	541.4766183047	1.0000000000	0.0000000000	0.0000000000
0.5600000000	-126.9420806952	1.0000000000	757.3730529693	1.0000000000	0.0000000000	0.0000000000	186.8564273524	1.0000000000	428.5123261715	1.0000000000	0.0000000000	0.0000000000
0.5700000000	-162.0281082071	1.0000000000	839.3904333264	1.0000000000	0.0000000000	0.0000000000	147.9129158847	1.0000000000	318.8296313424	1.0000000000	0.0000000000	0.0000000000
0.5800000000	-189.1510603995	1.0000000000	899.7549403727	1.0000000000	0.0000000000	0.0000000000	107.6877829491	1.0000000000	221.0871376416	1.0000000000	0.0000000000	0.0000000000
0.5900000000	-208.4182937695	1.0000000000	947.3698907965	1.0000000000	0.0000000000	0.0000000000	70.8369590217	1.0000000000	141.0342870038	1.0000000000	0.0000000000	0.0000000000
0.6000000000	-218.7015983031	1.0000000000	990.5760416976	1.0000000000	0.0000000000	0.0000000000	41.7542690650	1.0000000000	81.6431820672	1.0000000000	0.0000000000	0.0000000000
0.6100000000	-220.6438507212	1.0000000000	1031.6813065486	1.0000000000	0.0000000000	0.0000000000	21.0345844614	1.0000000000	42.2822689090	1.0000000000	0.0000000000	0.0000000000
0.6200000000	-216.1563602738	1.0000000000	1066.5064779320	1.0000000000	0.0000000000	0.0000000000	7.4272633843	1.0000000000	18.1540846051	1.0000000000	0.0000000000	0.0000000000
0.6300000000	-205.7695515712	1.0000000000	1089.9445833189	1.0000000000	0.0000000000	0.0000000000	0.3027980609	1.0000000000	3.7053252189	1.0000000000	0.0000000000	0.0000000000
0.6400000000	-190.4337041787	1.0000000000	1099.6376599788	1.0000000000	0.0000000000	0.0000000000	0.0000000000	1.0000000000	0.0000000000	1.0000000000	0.0000000000	0.0000000000
0.6500000000	-172.6543903722	1.0000000000	1094.6701367756	1.0000000000	0.0000000000	0.0000000000	0.0000000000	1.0000000000	0.0000000000	1.0000000000	0.0000000000	0.0000000000
0.6600000000	-153.8538593775	1.0000000000	1074.6368489026	1.0000000000	0.0000000000	0.0000000000	0.0000000000	1.0000000000	0.0000000000	1.0000000000	0.0000000000	0.0000000000
0.6700000000	-134.2907311206	1.0000000000	1040.7199315980	1.0000000000	0.0000000000	0.0000000000	0.0000000000	1.0000000000	0.0000000000	1.0000000000	0.0000000000	0.0000000000
0.6800000000	-115.2503624313	1.0000000000	995.7255518062	1.0000000000	0.0000000000	0.0000000000	0.0000000000	1.0000000000	0.0000000000	1.0000000000	0.0000000000	0.0000000000
0.6900000000	-97.7169836105	1.0000000000	942.6598748058	1.0000000000	0.0000000000	0.0000000000	0.0000000000	1.0000000000	0.0000000000	1.0000000000	0.0000000000	0.0000000000
0.7000000000	-81.3030304022	1.0000000000	883.9853285393	1.0000000000	0.0000000000	0.0000000000	0.9317904836	1.0000000000	0.3223088158	1.0000000000	0.0000000000	0.0000000000
0.7100000000	-66.5754457752	1.0000000000	822.7425520338	1.0000000000	0.0000000000	0.0000000000	1.4051698090	1.0000000000	0.4359834700	1.0000000000	0.0000000000	0.0000000000
0.7200000000	-54.4658407174	1.0000000000	762.7649938693	1.0000000000	0.0000000000	0.0000000000	1.1929956776	1.0000000000	0.5355755216	1.0000000000	0.0000000000	0.0000000000
0.7300000000	-44.3502158536	1.0000000000	706.7522720700	1.0000000000	0.0000000000	0.0000000000	0.9112593911	1.0000000000	0.5839162184	1.0000000000	0.0000000000	0.0000000000
0.7400000000	-35.7496695713	1.0000000000	656.1309307002	1.0000000000	0.0000000000	0.0000000000	1.0731836763	1.0000000000	0.4047829326	1.0000000000	0.0000000000	0.0000000000
0.7500000000	-29.1418089726	1.0000000000	612.7071801395	1.0000000000	0.0000000000	0.0000000000	0.9851273979	1.0000000000	0.2619498175	1.0000000000	0.0000000000	0.0000000000
0.7600000000	-24.1358591218	1.0000000000	577.9768661317	1.0000000000	0.0000000000	0.0000000000	0.6374294310	1.0000000000	0.4105628965	1.0000000000	0.0000000000	0.0000000000
0.7700000000	-19.8475331640	1.0000000000	551.5412411989	1.0000000000	0.0000000000	0.0000000000	0.6170668829	1.0000000000	0.6170898393	1.0000000000	0.0000000000	0.0000000000
0.7800000000	-16.4568931418	1.0000000000	532.3466042009	1.0000000000	0.0000000000	0.0000000000	0.6325844972	1.0000000000	0.4697206995	1.0000000000	0.0000000000	0.0000000000
0.7900000000	-13.8969332490	1.0000000000	520.2919074565	1.0000000000	0.0000000000	0.0000000000	0.3814467945	1.0000000000	0.0951625300	1.0000000000	0.0000000000	0.0000000000
0.8000000000	-11.0511985656	1.0000000000	515.2108937540	1.0000000000	0.0000000000	0.0000000000	0.2395671863	1.0000000000	0.0107179903	1.0000000000	0.0000000000	0.0000000000
0.8100000000	-7.6352185381	1.0000000000	515.9400194493	1.0000000000	0.0000000000	0.0000000000	0.2690765247	1.0000000000	0.2664068299	1.0000000000	0.0000000000	0.0000000000
0.8200000000	-3.9848650846	1.0000000000	521.3956176520	1.0000000000	0.0000000000	0.0000000000	0.1996283757	1.0000000000	0.4403191339	1.0000000000	0.0000000000	0.0000000000
0.8300000000	0.5471006841	1.0000000000	531.2761284773	1.0000000000	0.0000000000	0.0000000000	0.2084133570	1.0000000000	0.3855319332	1.0000000000	0.0000000000	0.0000000000
0.8400000000	6.4860551851	1.0000000000	545.2651132635	1.0000000000	0.0000000000	0.0000000000	0.4445202185	1.0000000000	0.2986372492	1.0000000000	0.0000000000	0.0000000000
0.8500000000	13.4844453894	1.0000000000	562.6623975007	1.0000000000	0.0000000000	0.0000000000	0.5515414787	1.0000000000	0.3100731762	1.0000000000	0.0000000000	0.0000000000
0.8600000000	21.6418450054	1.0000000000	583.0735134016	1.0000000000	0.0000000000	0.0000000000	0.5260598112	1.0000000000	0.4730620596	1.0000000000	0.0000000000	0.0000000000
0.8700000000	31.4219493696	1.0000000000	606.6326053522	1.0000000000	0.0000000000	0.0000000000	0.6862769044	1.0000000000	0.7779579325	1.0000000000	0.0000000000	0.0000000000
0.8800000000	42.5503789364	1.0000000000	633.3463117539	1.0000000000	0.0000000000	0.0000000000	0.8356426925	1.0000000000	1.0741114867	1.0000000000	0.0000000000	0.0000000000
0.8900000000	54.6724076066	1.0000000000	662.9494963624	1.0000000000	0.0000000000	0.0000000000	0.6984896288	1.0000000000	1.2168136560	1.0000000000	0.0000000000	0.0000000000
0.9000000000	67.9783797309	1.0000000000	695.4391328543	1.0000000000	0.0000000000	0.0000000000	0.4069019853	1.0000000000	1.1478645226	1.0000000000	0.0000000000	0.0000000000
0.9100000000	82.3331567675	1.0000000000	730.7818273812	1.0000000000	0.0000000000	0.0000000000	0.0956787791	1.0000000000	0.6557078962	1.0000000000	0.0000000000	0.0000000000
0.9200000000	97.3661528015	1.0000000000	768.0483287400	1.0000000000	0.0000000000	0.0000000000	0.0000000000	1.0000000000	0.0000000000	1.0000000000	0.0000000000	0.0000000000
0.9300000000	113.2836431279	1.0000000000	805.5830606064	1.0000000000	0.0000000000	0.0000000000	0.0000000000	1.0000000000	0.0000000000	1.0000000000	0.0000000000	0.0000000000
0.9400000000	130.3253539757	1.0000000000	841.5261071614	1.0000000000	0.0000000000	0.0000000000	0.0000000000	1.0000000000	0.0000000000	1.0000000000	0.0000000000	0.0000000000
0.9500000000	148.2810566257	1.0000000000	873.4948595936	1.0000000000	0.0000000000	0.0000000000	0.0000000000	1.0000000000	0.0000000000	1.0000000000	0.0000000000	0.0000000000
0.9600000000	166.9817497259	1.0000000000	898.3739611249	1.0000000000	0.0000000000	0.0000000000	0.0000000000	1.0000000000	0.0000000000	1.0000000000	0.0000000000	0.0000000000
0.9700000000	186.1313610360	1.0000000000	912.9847411711	1.0000000000	0.0000000000	0.0000000000	0.0000000000	1.0000000000	0.0000000000	1.0000000000	0.0000000000	0.0000000000
0.9800000000	204.8356838045	1.0000000000	914.5966955026	1.0000000000	0.0000000000	0.0000000000	0.0000000000	1.0000000000	0.0000000000	1.0000000000	0.0000000000	0.0000000000
0.9900000000	221.8384968005	1.0000000000	900.6516330271	1.0000000000	0.0000000000	0.0000000000	8.7731621982	1.0000000000	11.9667277825	1.0000000000	0.0000000000	0.0000000000
