name p6_grf_mean_speed_1.2
datacolumns 13
datarows 100
range 0.00000000 0.99000000
endheader
time	grf_x_l_mean	grf_x_l_var	grf_y_l_mean	grf_y_l_var	grf_z_l_mean	grf_z_l_var	grf_x_r_mean	grf_x_r_var	grf_y_r_mean	grf_y_r_var	grf_z_r_mean	grf_z_r_var
0.0000000000	138.8681576032	1.0000000000	859.0943757574	1.0000000000	0.0000000000	0.0000000000	6.9332586350	1.0000000000	11.0270519259	1.0000000000	0.0000000000	0.0000000000
0.0100000000	148.7537061594	1.0000000000	845.3311314659	1.0000000000	0.0000000000	0.0000000000	17.3321236212	1.0000000000	49.8041376798	1.0000000000	0.0000000000	0.0000000000
0.0200000000	158.9209437692	1.0000000000	821.2445758472	1.0000000000	0.0000000000	0.0000000000	30.0357875222	1.0000000000	114.7666357253	1.0000000000	0.0000000000	0.0000000000
0.0300000000	168.3827046044	1.0000000000	784.0399451694	1.0000000000	0.0000000000	0.0000000000	34.3794412760	1.0000000000	200.8668520931	1.0000000000	0.0000000000	0.0000000000
0.0400000000	174.6070710300	1.0000000000	730.8131981461	1.0000000000	0.0000000000	0.0000000000	18.9349891922	1.0000000000	296.3481476462	1.0000000000	0.0000000000	0.0000000000
0.0500000000	175.4857037957	1.0000000000	660.2192210472	1.0000000000	0.0000000000	0.0000000000	-10.9820499776	1.0000000000	390.5261666533	1.0000000000	0.0000000000	0.0000000000
0.0600000000	169.3126454829	1.0000000000	573.5079501515	1.0000000000	0.0000000000	0.0000000000	-42.6522753730	1.0000000000	477.9758203582	1.0000000000	0.0000000000	0.0000000000
0.0700000000	153.6811817349	1.0000000000	474.8305068988	1.0000000000	0.0000000000	0.0000000000	-72.8911347467	1.0000000000	555.3059119120	1.0000000000	0.0000000000	0.0000000000
0.0800000000	128.1847517910	1.0000000000	371.3343810797	1.0000000000	0.0000000000	0.0000000000	-100.1649921286	1.0000000000	622.1628669106	1.0000000000	0.0000000000	0.0000000000
0.0900000000	97.4928418788	1.0000000000	272.6261923008	1.0000000000	0.0000000000	0.0000000000	-122.0505013093	1.0000000000	681.8584980080	1.0000000000	0.0000000000	0.0000000000
0.1000000000	65.7927129118	1.0000000000	187.1400995434	1.0000000000	0.0000000000	0.0000000000	-139.6232512439	1.0000000000	737.0686247988	1.0000000000	0.0000000000	0.0000000000
0.1100000000	38.5377354597	1.0000000000	119.7167635289	1.0000000000	0.0000000000	0.0000000000	-151.3687330358	1.0000000000	787.7098274402	1.0000000000	0.0000000000	0.0000000000
0.1200000000	18.7012148736	1.0000000000	72.0702740064	1.0000000000	0.0000000000	0.0000000000	-156.1282420825	1.0000000000	832.9829699317	1.0000000000	0.0000000000	0.0000000000
0.1300000000	6.2615018463	1.0000000000	41.3149154033	1.0000000000	0.0000000000	0.0000000000	-156.4085833892	1.0000000000	870.5581456482	1.0000000000	0.0000000000	0.0000000000
0.1400000000	0.7321630077	1.0000000000	21.4924493672	1.0000000000	0.0000000000	0.0000000000	-151.5273590195	1.0000000000	897.0475420432	1.0000000000	0.0000000000	0.0000000000
0.1500000000	-1.3420822414	1.0000000000	8.9372805881	1.0000000000	0.0000000000	0.0000000000	-142.4112063836	1.0000000000	911.5872868388	1.0000000000	0.0000000000	0.0000000000
0.1600000000	-1.8192830023	1.0000000000	2.2006381275	1.0000000000	0.0000000000	0.0000000000	-131.7904820207	1.0000000000	915.2500095495	1.0000000000	0.0000000000	0.0000000000
0.1700000000	0.0000000000	1.0000000000	0.0000000000	1.0000000000	0.0000000000	0.0000000000	-119.6536844427	1.0000000000	908.4062762152	1.0000000000	0.0000000000	0.0000000000
0.1800000000	0.0000000000	1.0000000000	0.0000000000	1.0000000000	0.0000000000	0.0000000000	-107.2780605940	1.0000000000	891.4853333833	1.0000000000	0.0000000000	0.0000000000
0.1900000000	0.0000000000	1.0000000000	0.0000000000	1.0000000000	0.0000000000	0.0000000000	-95.7651277140	1.0000000000	867.0626874720	1.0000000000	0.0000000000	0.0000000000
0.2000000000	0.0000000000	1.0000000000	0.0000000000	1.0000000000	0.0000000000	0.0000000000	-84.6257600782	1.0000000000	838.6264024162	1.0000000000	0.0000000000	0.0000000000
0.2100000000	0.0000000000	1.0000000000	0.0000000000	1.0000000000	0.0000000000	0.0000000000	-74.7061837035	1.0000000000	808.4504246107	1.0000000000	0.0000000000	0.0000000000
0.2200000000	-0.4416967952	1.0000000000	0.0708592073	1.0000000000	0.0000000000	0.0000000000	-65.6576300422	1.0000000000	778.4941270425	1.0000000000	0.0000000000	0.0000000000
0.2300000000	-0.0863178695	1.0000000000	0.2712089291	1.0000000000	0.0000000000	0.0000000000	-57.0436618335	1.0000000000	751.0895365282	1.0000000000	0.0000000000	0.0000000000
0.2400000000	-0.1093056404	1.0000000000	0.3082080542	1.0000000000	0.0000000000	0.0000000000	-49.6666218403	1.0000000000	727.9310637135	1.0000000000	0.0000000000	0.0000000000
0.2500000000	0.2239652467	1.0000000000	0.4119078049	1.0000000000	0.0000000000	0.0000000000	-43.0654994006	1.0000000000	710.2570190322	1.0000000000	0.0000000000	0.0000000000
0.2600000000	0.0795849720	1.0000000000	0.3368648988	1.0000000000	0.0000000000	0.0000000000	-36.9964161824	1.0000000000	698.0729159422	1.0000000000	0.0000000000	0.0000000000
0.2700000000	0.0000000000	1.0000000000	0.0000000000	1.0000000000	0.0000000000	0.0000000000	-31.4286203193	1.0000000000	690.2955567417	1.0000000000	0.0000000000	0.0000000000
0.2800000000	0.0000000000	1.0000000000	0.0000000000	1.0000000000	0.0000000000	0.0000000000	-26.0693896250	1.0000000000	687.0836509600	1.0000000000	0.0000000000	0.0000000000
0.2900000000	-0.2955741631	1.0000000000	0.0564335238	1.0000000000	0.0000000000	0.0000000000	-20.8992305264	1.0000000000	688.2561414501	1.0000000000	0.0000000000	0.0000000000
0.3000000000	-0.4421853476	1.0000000000	0.1377897130	1.0000000000	0.0000000000	0.0000000000	-15.5786484875	1.0000000000	691.5555845171	1.0000000000	0.0000000000	0.0000000000
0.3100000000	-0.4629711578	1.0000000000	0.1585499338	1.0000000000	0.0000000000	0.0000000000	-10.1577532500	1.0000000000	695.9678040936	1.0000000000	0.0000000000	0.0000000000
0.3200000000	-0.5105170249	1.0000000000	0.1844758004	1.0000000000	0.0000000000	0.0000000000	-4.8567084398	1.0000000000	701.9923340601	1.0000000000	0.0000000000	0.0000000000
0.3300000000	-0.3004796983	1.0000000000	0.0856899998	1.0000000000	0.0000000000	0.0000000000	0.6251159936	1.0000000000	709.0792868109	1.0000000000	0.0000000000	0.0000000000
0.3400000000	-0.1426221140	1.0000000000	0.0350134614	1.0000000000	0.0000000000	0.0000000000	6.0464380142	1.0000000000	716.3385424271	1.0000000000	0.0000000000	0.0000000000
0.3500000000	-0.1772539078	1.0000000000	0.0504107367	1.0000000000	0.0000000000	0.0000000000	11.4055930195	1.0000000000	723.6055805881	1.0000000000	0.0000000000	0.0000000000
0.3600000000	-0.1687005598	1.0000000000	0.0350960287	1.0000000000	0.0000000000	0.0000000000	16.8778977560	1.0000000000	731.2586207924	1.0000000000	0.0000000000	0.0000000000
0.3700000000	-0.2469387285	1.0000000000	0.1345539974	1.0000000000	0.0000000000	0.0000000000	22.3371684115	1.0000000000	739.5117276354	1.0000000000	0.0000000000	0.0000000000
0.3800000000	-0.3076092448	1.0000000000	0.2474495923	1.0000000000	0.0000000000	0.0000000000	28.2634944434	1.0000000000	747.5698204097	1.0000000000	0.0000000000	0.0000000000
0.3900000000	-0.2575138308	1.0000000000	0.2754522648	1.0000000000	0.0000000000	0.0000000000	34.8685306653	1.0000000000	755.2635196821	1.0000000000	0.0000000000	0.0000000000
0.4000000000	-0.2551003103	1.0000000000	0.3734202138	1.0000000000	0.0000000000	0.0000000000	42.2453780532	1.0000000000	763.7159342835	1.0000000000	0.0000000000	0.0000000000
0.4100000000	-0.2665733763	1.0000000000	0.4268255696	1.0000000000	0.0000000000	0.0000000000	50.7642736083	1.0000000000	773.1285316653	1.0000000000	0.0000000000	0.0000000000
0.4200000000	-0.3830984355	1.0000000000	0.1546117685	1.0000000000	0.0000000000	0.0000000000	60.1951195774	1.0000000000	782.9647792694	1.0000000000	0.0000000000	0.0000000000
0.4300000000	0.0000000000	1.0000000000	0.0000000000	1.0000000000	0.0000000000	0.0000000000	70.4536814850	1.0000000000	793.4417606982	1.0000000000	0.0000000000	0.0000000000
0.4400000000	0.0000000000	1.0000000000	0.0000000000	1.0000000000	0.0000000000	0.0000000000	81.3118922797	1.0000000000	804.5992514903	1.0000000000	0.0000000000	0.0000000000
0.4500000000	0.0000000000	1.0000000000	0.0000000000	1.0000000000	0.0000000000	0.0000000000	92.1373730453	1.0000000000	815.5117120662	1.0000000000	0.0000000000	0.0000000000
0.4600000000	0.0000000000	1.0000000000	0.0000000000	1.0000000000	0.0000000000	0.0000000000	102.9119593863	1.0000000000	824.9253055059	1.0000000000	0.0000000000	0.0000000000
0.4700000000	0.0000000000	1.0000000000	0.0000000000	1.0000000000	0.0000000000	0.0000000000	113.5612816648	1.0000000000	831.9976780086	1.0000000000	0.0000000000	0.0000000000
0.4800000000	0.0000000000	1.0000000000	0.0000000000	1.0000000000	0.0000000000	0.0000000000	123.9790438401	1.0000000000	836.3759994949	1.0000000000	0.0000000000	0.0000000000
0.4900000000	7.2471274758	1.0000000000	19.0808611353	1.0000000000	0.0000000000	0.0000000000	134.7064385823	1.0000000000	837.2695641806	1.0000000000	0.0000000000	0.0000000000
0.5000000000	14.9965225744	1.0000000000	58.8167330662	1.0000000000	0.0000000000	0.0000000000	145.8946848985	1.0000000000	832.8967491069	1.0000000000	0.0000000000	0.0000000000
0.5100000000	21.0300622161	1.0000000000	120.9030559460	1.0000000000	0.0000000000	0.0000000000	157.6416753501	1.0000000000	820.8804970631	1.0000000000	0.0000000000	0.0000000000
0.5200000000	16.4576558537	1.0000000000	201.9284278719	1.0000000000	0.0000000000	0.0000000000	169.3419095040	1.0000000000	798.0925380403	1.0000000000	0.0000000000	0.0000000000
0.5300000000	-3.9258586749	1.0000000000	294.4158482626	1.0000000000	0.0000000000	0.0000000000	178.9992118995	1.0000000000	760.6236074135	1.0000000000	0.0000000000	0.0000000000
0.5400000000	-33.9527179501	1.0000000000	389.3509174724	1.0000000000	0.0000000000	0.0000000000	184.7633528195	1.0000000000	704.9651811385	1.0000000000	0.0000000000	0.0000000000
0.5500000000	-65.1684391147	1.0000000000	477.7865182920	1.0000000000	0.0000000000	0.0000000000	183.8399035094	1.0000000000	629.2085391350	1.0000000000	0.0000000000	0.0000000000
0.5600000000	-94.1173393700	1.0000000000	553.4124619736	1.0000000000	0.0000000000	0.0000000000	172.5103557602	1.0000000000	534.7003822981	1.0000000000	0.0000000000	0.0000000000
0.5700000000	-118.1200626349	1.0000000000	616.1994506966	1.0000000000	0.0000000000	0.0000000000	149.6618762140	1.0000000000	428.1611767148	1.0000000000	0.0000000000	0.0000000000
0.5800000000	-135.9938619436	1.0000000000	670.9182419647	1.0000000000	0.0000000000	0.0000000000	117.3375941175	1.0000000000	320.6786930682	1.0000000000	0.0000000000	0.0000000000
0.5900000000	-147.9403965185	1.0000000000	721.9629642652	1.0000000000	0.0000000000	0.0000000000	81.0651760708	1.0000000000	223.1732169409	1.0000000000	0.0000000000	0.0000000000
0.6000000000	-153.3532090185	1.0000000000	771.1206571642	1.0000000000	0.0000000000	0.0000000000	48.7095088294	1.0000000000	143.7308935935	1.0000000000	0.0000000000	0.0000000000
0.6100000000	-153.5294695645	1.0000000000	817.0269922863	1.0000000000	0.0000000000	0.0000000000	24.3305426250	1.0000000000	86.4065710980	1.0000000000	0.0000000000	0.0000000000
0.6200000000	-149.8968739486	1.0000000000	856.1572471704	1.0000000000	0.0000000000	0.0000000000	8.7361867317	1.0000000000	48.8257843402	1.0000000000	0.0000000000	0.0000000000
0.6300000000	-142.8754451177	1.0000000000	886.2488588797	1.0000000000	0.0000000000	0.0000000000	1.1732745213	1.0000000000	25.1435586463	1.0000000000	0.0000000000	0.0000000000
0.6400000000	-134.1714833030	1.0000000000	906.5300836501	1.0000000000	0.0000000000	0.0000000000	-1.4927476846	1.0000000000	11.3264507815	1.0000000000	0.0000000000	0.0000000000
0.6500000000	-124.2440212575	1.0000000000	916.3192498641	1.0000000000	0.0000000000	0.0000000000	-1.6988276730	1.0000000000	4.1830679386	1.0000000000	0.0000000000	0.0000000000
0.6600000000	-113.3268790732	1.0000000000	915.8019807612	1.0000000000	0.0000000000	0.0000000000	-0.8084836477	1.0000000000	0.7398668053	1.0000000000	0.0000000000	0.0000000000
0.6700000000	-102.5897697190	1.0000000000	905.8273815129	1.0000000000	0.0000000000	0.0000000000	0.0000000000	1.0000000000	0.0000000000	1.0000000000	0.0000000000	0.0000000000
0.6800000000	-91.7697838073	1.0000000000	887.0637744354	1.0000000000	0.0000000000	0.0000000000	0.0000000000	1.0000000000	0.0000000000	1.0000000000	0.0000000000	0.0000000000
0.6900000000	-81.3515705065	1.0000000000	861.1753215073	1.0000000000	0.0000000000	0.0000000000	0.0000000000	1.0000000000	0.0000000000	1.0000000000	0.0000000000	0.0000000000
0.7000000000	-71.8872346388	1.0000000000	830.9729274632	1.0000000000	0.0000000000	0.0000000000	0.0000000000	1.0000000000	0.0000000000	1.0000000000	0.0000000000	0.0000000000
0.7100000000	-62.9445681177	1.0000000000	798.9296999282	1.0000000000	0.0000000000	0.0000000000	0.0000000000	1.0000000000	0.0000000000	1.0000000000	0.0000000000	0.0000000000
0.7200000000	-55.1273533769	1.0000000000	767.7965182067	1.0000000000	0.0000000000	0.0000000000	0.7951704870	1.0000000000	0.0712817488	1.0000000000	0.0000000000	0.0000000000
0.7300000000	-48.2747498650	1.0000000000	740.4269662912	1.0000000000	0.0000000000	0.0000000000	0.5808170744	1.0000000000	0.0459696911	1.0000000000	0.0000000000	0.0000000000
0.7400000000	-41.7674762849	1.0000000000	717.9629640509	1.0000000000	0.0000000000	0.0000000000	0.0000000000	1.0000000000	0.0000000000	1.0000000000	0.0000000000	0.0000000000
0.7500000000	-36.2040742709	1.0000000000	700.8570751763	1.0000000000	0.0000000000	0.0000000000	0.0000000000	1.0000000000	0.0000000000	1.0000000000	0.0000000000	0.0000000000
0.7600000000	-30.9492609512	1.0000000000	689.5286308143	1.0000000000	0.0000000000	0.0000000000	0.0000000000	1.0000000000	0.0000000000	1.0000000000	0.0000000000	0.0000000000
0.7700000000	-25.6774350103	1.0000000000	683.2648741444	1.0000000000	0.0000000000	0.0000000000	0.0000000000	1.0000000000	0.0000000000	1.0000000000	0.0000000000	0.0000000000
0.7800000000	-20.8477257226	1.0000000000	681.3170656356	1.0000000000	0.0000000000	0.0000000000	0.0000000000	1.0000000000	0.0000000000	1.0000000000	0.0000000000	0.0000000000
0.7900000000	-15.8281939399	1.0000000000	683.4221273680	1.0000000000	0.0000000000	0.0000000000	0.7491790038	1.0000000000	0.0081930428	1.0000000000	0.0000000000	0.0000000000
0.8000000000	-10.7555933786	1.0000000000	688.5066901830	1.0000000000	0.0000000000	0.0000000000	0.0000000000	1.0000000000	0.0000000000	1.0000000000	0.0000000000	0.0000000000
0.8100000000	-5.8265460905	1.0000000000	695.3535157916	1.0000000000	0.0000000000	0.0000000000	0.0000000000	1.0000000000	0.0000000000	1.0000000000	0.0000000000	0.0000000000
0.8200000000	-0.6221714680	1.0000000000	703.6856313135	1.0000000000	0.0000000000	0.0000000000	0.0000000000	1.0000000000	0.0000000000	1.0000000000	0.0000000000	0.0000000000
0.8300000000	4.4993879196	1.0000000000	713.0668324638	1.0000000000	0.0000000000	0.0000000000	0.0000000000	1.0000000000	0.0000000000	1.0000000000	0.0000000000	0.0000000000
0.8400000000	9.7118843175	1.0000000000	722.6781825973	1.0000000000	0.0000000000	0.0000000000	0.0000000000	1.0000000000	0.0000000000	1.0000000000	0.0000000000	0.0000000000
0.8500000000	15.3069933592	1.0000000000	732.5389621459	1.0000000000	0.0000000000	0.0000000000	0.0000000000	1.0000000000	0.0000000000	1.0000000000	0.0000000000	0.0000000000
0.8600000000	21.0372137073	1.0000000000	742.6379963023	1.0000000000	0.0000000000	0.0000000000	0.0000000000	1.0000000000	0.0000000000	1.0000000000	0.0000000000	0.0000000000
0.8700000000	27.4108082669	1.0000000000	752.3273137085	1.0000000000	0.0000000000	0.0000000000	0.0000000000	1.0000000000	0.0000000000	1.0000000000	0.0000000000	0.0000000000
0.8800000000	34.5041566320	1.0000000000	761.7927752094	1.0000000000	0.0000000000	0.0000000000	0.3497744541	1.0000000000	0.0543583167	1.0000000000	0.0000000000	0.0000000000
0.8900000000	42.2314605742	1.0000000000	771.6739538039	1.0000000000	0.0000000000	0.0000000000	0.4466816259	1.0000000000	0.1689256447	1.0000000000	0.0000000000	0.0000000000
0.9000000000	50.9273714026	1.0000000000	782.0543795987	1.0000000000	0.0000000000	0.0000000000	0.5197985145	1.0000000000	0.3261837069	1.0000000000	0.0000000000	0.0000000000
0.9100000000	60.2816882188	1.0000000000	793.3247486543	1.0000000000	0.0000000000	0.0000000000	0.4783568341	1.0000000000	0.4342830480	1.0000000000	0.0000000000	0.0000000000
0.9200000000	70.1385253891	1.0000000000	805.9943720537	1.0000000000	0.0000000000	0.0000000000	0.3059212940	1.0000000000	0.3253249936	1.0000000000	0.0000000000	0.0000000000
0.9300000000	80.3698085266	1.0000000000	819.6967417947	1.0000000000	0.0000000000	0.0000000000	0.0000000000	1.0000000000	0.0000000000	1.0000000000	0.0000000000	0.0000000000
0.9400000000	90.4645030876	1.0000000000	833.5651329882	1.0000000000	0.0000000000	0.0000000000	0.0000000000	1.0000000000	0.0000000000	1.0000000000	0.0000000000	0.0000000000
0.9500000000	100.4630742351	1.0000000000	846.4913311660	1.0000000000	0.0000000000	0.0000000000	0.0000000000	1.0000000000	0.0000000000	1.0000000000	0.0000000000	0.0000000000
0.9600000000	110.1973422858	1.0000000000	856.8168217582	1.0000000000	0.0000000000	0.0000000000	0.0000000000	1.0000000000	0.0000000000	1.0000000000	0.0000000000	0.0000000000
0.9700000000	119.5916579368	1.0000000000	863.0516828295	1.0000000000	0.0000000000	0.0000000000	0.0000000000	1.0000000000	0.0000000000	1.0000000000	0.0000000000	0.0000000000
0.9800000000	129.1408654494	1.0000000000	864.1782981194	1.0000000000	0.0000000000	0.0000000000	0.0000000000	1.0000000000	0.0000000000	1.0000000000	0.0000000000	0.0000000000
0.9900000000	138.8375687944	1.0000000000	858.7930854905	1.0000000000	0.0000000000	0.0000000000	6.9315893962	1.0000000000	11.0254602724	1.0000000000	0.0000000000	0.0000000000
