name p6_grf_mean_speed_1.4
datacolumns 13
datarows 100
range 0.00000000 0.99000000
endheader
time	grf_x_l_mean	grf_x_l_var	grf_y_l_mean	grf_y_l_var	grf_z_l_mean	grf_z_l_var	grf_x_r_mean	grf_x_r_var	grf_y_r_mean	grf_y_r_var	grf_z_r_mean	grf_z_r_var
0.0000000000	176.2970901342	1.0000000000	832.6803774857	1.0000000000	0.0000000000	0.0000000000	7.7454295931	1.0000000000	11.4972429451	1.0000000000	0.0000000000	0.0000000000
0.0100000000	188.9936323024	1.0000000000	816.2655075694	1.0000000000	0.0000000000	0.0000000000	15.2650759226	1.0000000000	60.2435956300	1.0000000000	0.0000000000	0.0000000000
0.0200000000	199.6228566391	1.0000000000	785.6118617258	1.0000000000	0.0000000000	0.0000000000	22.7007416845	1.0000000000	143.6807702473	1.0000000000	0.0000000000	0.0000000000
0.0300000000	206.4275380348	1.0000000000	737.7171395454	1.0000000000	0.0000000000	0.0000000000	21.4872236362	1.0000000000	259.5125656055	1.0000000000	0.0000000000	0.0000000000
0.0400000000	205.7669958901	1.0000000000	670.9428983118	1.0000000000	0.0000000000	0.0000000000	0.7937701487	1.0000000000	392.8350928030	1.0000000000	0.0000000000	0.0000000000
0.0500000000	194.5572466721	1.0000000000	585.7987122249	1.0000000000	0.0000000000	0.0000000000	-36.6076188269	1.0000000000	522.8491211702	1.0000000000	0.0000000000	0.0000000000
0.0600000000	173.5721041693	1.0000000000	487.0054854341	1.0000000000	0.0000000000	0.0000000000	-75.6467197955	1.0000000000	635.7763089263	1.0000000000	0.0000000000	0.0000000000
0.0700000000	144.9193899165	1.0000000000	383.4793852436	1.0000000000	0.0000000000	0.0000000000	-109.7741412952	1.0000000000	725.0234737500	1.0000000000	0.0000000000	0.0000000000
0.0800000000	111.0279872868	1.0000000000	283.9321544358	1.0000000000	0.0000000000	0.0000000000	-139.5859961343	1.0000000000	792.2830189063	1.0000000000	0.0000000000	0.0000000000
0.0900000000	77.7805412729	1.0000000000	196.6183922527	1.0000000000	0.0000000000	0.0000000000	-161.9355724048	1.0000000000	845.9971475568	1.0000000000	0.0000000000	0.0000000000
0.1000000000	49.1186608602	1.0000000000	127.7844007272	1.0000000000	0.0000000000	0.0000000000	-176.0528023696	1.0000000000	892.2970900629	1.0000000000	0.0000000000	0.0000000000
0.1100000000	26.7724975115	1.0000000000	77.5620072886	1.0000000000	0.0000000000	0.0000000000	-183.9947094604	1.0000000000	931.6741855661	1.0000000000	0.0000000000	0.0000000000
0.1200000000	12.8802240427	1.0000000000	42.5037134297	1.0000000000	0.0000000000	0.0000000000	-184.8143566404	1.0000000000	962.3944642222	1.0000000000	0.0000000000	0.0000000000
0.1300000000	4.9113026358	1.0000000000	20.2213704869	1.0000000000	0.0000000000	0.0000000000	-179.4452512074	1.0000000000	983.1863389462	1.0000000000	0.0000000000	0.0000000000
0.1400000000	0.2896056816	1.0000000000	7.2794227868	1.0000000000	0.0000000000	0.0000000000	-171.0681871692	1.0000000000	992.1173516403	1.0000000000	0.0000000000	0.0000000000
0.1500000000	-1.2762158561	1.0000000000	0.2857385437	1.0000000000	0.0000000000	0.0000000000	-159.0272010432	1.0000000000	988.2788307624	1.0000000000	0.0000000000	0.0000000000
0.1600000000	0.0000000000	1.0000000000	0.0000000000	1.0000000000	0.0000000000	0.0000000000	-144.4495425492	1.0000000000	974.0179418466	1.0000000000	0.0000000000	0.0000000000
0.1700000000	0.0000000000	1.0000000000	0.0000000000	1.0000000000	0.0000000000	0.0000000000	-130.2131207908	1.0000000000	951.6669745012	1.0000000000	0.0000000000	0.0000000000
0.1800000000	0.0000000000	1.0000000000	0.0000000000	1.0000000000	0.0000000000	0.0000000000	-115.9028354588	1.0000000000	920.9182045142	1.0000000000	0.0000000000	0.0000000000
0.1900000000	0.0000000000	1.0000000000	0.0000000000	1.0000000000	0.0000000000	0.0000000000	-102.1037395506	1.0000000000	882.8905932544	1.0000000000	0.0000000000	0.0000000000
0.2000000000	-0.8066032270	1.0000000000	0.0954406996	1.0000000000	0.0000000000	0.0000000000	-90.5960278880	1.0000000000	841.7544766304	1.0000000000	0.0000000000	0.0000000000
0.2100000000	-0.2235716600	1.0000000000	0.5673105869	1.0000000000	0.0000000000	0.0000000000	-80.3911162802	1.0000000000	801.2101631479	1.0000000000	0.0000000000	0.0000000000
0.2200000000	-0.1541392915	1.0000000000	0.4977058990	1.0000000000	0.0000000000	0.0000000000	-70.9488751980	1.0000000000	763.1211419479	1.0000000000	0.0000000000	0.0000000000
0.2300000000	-0.7203998297	1.0000000000	0.0953239877	1.0000000000	0.0000000000	0.0000000000	-63.0056143521	1.0000000000	728.6488351031	1.0000000000	0.0000000000	0.0000000000
0.2400000000	-0.4520061652	1.0000000000	0.1041915860	1.0000000000	0.0000000000	0.0000000000	-55.4404366891	1.0000000000	699.7477397151	1.0000000000	0.0000000000	0.0000000000
0.2500000000	-0.3928319864	1.0000000000	0.1531993922	1.0000000000	0.0000000000	0.0000000000	-48.3094120261	1.0000000000	677.7422523663	1.0000000000	0.0000000000	0.0000000000
0.2600000000	-0.7166935020	1.0000000000	0.0583472471	1.0000000000	0.0000000000	0.0000000000	-42.2341219751	1.0000000000	661.8057462428	1.0000000000	0.0000000000	0.0000000000
0.2700000000	-0.2071057938	1.0000000000	0.1667504761	1.0000000000	0.0000000000	0.0000000000	-36.4217977302	1.0000000000	650.7192199718	1.0000000000	0.0000000000	0.0000000000
0.2800000000	-0.2377075809	1.0000000000	0.2460662108	1.0000000000	0.0000000000	0.0000000000	-30.6250143430	1.0000000000	644.2808498549	1.0000000000	0.0000000000	0.0000000000
0.2900000000	-0.8168551242	1.0000000000	0.1184947531	1.0000000000	0.0000000000	0.0000000000	-25.0005867219	1.0000000000	642.2368713181	1.0000000000	0.0000000000	0.0000000000
0.3000000000	-0.4477455483	1.0000000000	0.1747450538	1.0000000000	0.0000000000	0.0000000000	-19.1391629398	1.0000000000	644.0502629659	1.0000000000	0.0000000000	0.0000000000
0.3100000000	-0.2359579089	1.0000000000	0.3537559207	1.0000000000	0.0000000000	0.0000000000	-13.0035402184	1.0000000000	648.5467204539	1.0000000000	0.0000000000	0.0000000000
0.3200000000	-0.5549554957	1.0000000000	0.1762587925	1.0000000000	0.0000000000	0.0000000000	-6.4459325966	1.0000000000	654.2603408313	1.0000000000	0.0000000000	0.0000000000
0.3300000000	0.0000000000	1.0000000000	0.0000000000	1.0000000000	0.0000000000	0.0000000000	0.7066693406	1.0000000000	661.4074467341	1.0000000000	0.0000000000	0.0000000000
0.3400000000	-0.4204684798	1.0000000000	0.1318832226	1.0000000000	0.0000000000	0.0000000000	7.9675596150	1.0000000000	670.6461447262	1.0000000000	0.0000000000	0.0000000000
0.3500000000	-0.7678059880	1.0000000000	0.4247825010	1.0000000000	0.0000000000	0.0000000000	15.5876723140	1.0000000000	680.9492902424	1.0000000000	0.0000000000	0.0000000000
0.3600000000	-0.6398378851	1.0000000000	0.3766971580	1.0000000000	0.0000000000	0.0000000000	23.8711744168	1.0000000000	691.2972541897	1.0000000000	0.0000000000	0.0000000000
0.3700000000	-0.6954496324	1.0000000000	0.5264344525	1.0000000000	0.0000000000	0.0000000000	32.2848779960	1.0000000000	702.0496120542	1.0000000000	0.0000000000	0.0000000000
0.3800000000	-0.7804407102	1.0000000000	0.7690615168	1.0000000000	0.0000000000	0.0000000000	41.0732855887	1.0000000000	713.2605135432	1.0000000000	0.0000000000	0.0000000000
0.3900000000	-0.4046311050	1.0000000000	0.7259460822	1.0000000000	0.0000000000	0.0000000000	50.5368329848	1.0000000000	724.4450250435	1.0000000000	0.0000000000	0.0000000000
0.4000000000	-0.4929177036	1.0000000000	0.8069649889	1.0000000000	0.0000000000	0.0000000000	60.5684113851	1.0000000000	735.4792812553	1.0000000000	0.0000000000	0.0000000000
0.4100000000	-0.8816122006	1.0000000000	0.9268528582	1.0000000000	0.0000000000	0.0000000000	71.5163298278	1.0000000000	746.3006824812	1.0000000000	0.0000000000	0.0000000000
0.4200000000	-0.9007533715	1.0000000000	0.4298879342	1.0000000000	0.0000000000	0.0000000000	83.3198338277	1.0000000000	757.1809955034	1.0000000000	0.0000000000	0.0000000000
0.4300000000	0.0000000000	1.0000000000	0.0000000000	1.0000000000	0.0000000000	0.0000000000	95.4438120762	1.0000000000	768.8962138164	1.0000000000	0.0000000000	0.0000000000
0.4400000000	0.0000000000	1.0000000000	0.0000000000	1.0000000000	0.0000000000	0.0000000000	108.1351851006	1.0000000000	781.0326798673	1.0000000000	0.0000000000	0.0000000000
0.4500000000	0.0000000000	1.0000000000	0.0000000000	1.0000000000	0.0000000000	0.0000000000	121.1306646905	1.0000000000	792.1232125206	1.0000000000	0.0000000000	0.0000000000
0.4600000000	0.0000000000	1.0000000000	0.0000000000	1.0000000000	0.0000000000	0.0000000000	133.8403165253	1.0000000000	801.9843489253	1.0000000000	0.0000000000	0.0000000000
0.4700000000	0.0000000000	1.0000000000	0.0000000000	1.0000000000	0.0000000000	0.0000000000	146.6477981236	1.0000000000	810.7028239797	1.0000000000	0.0000000000	0.0000000000
0.4800000000	0.0000000000	1.0000000000	0.0000000000	1.0000000000	0.0000000000	0.0000000000	159.7161199860	1.0000000000	816.5083692930	1.0000000000	0.0000000000	0.0000000000
0.4900000000	3.2671514810	1.0000000000	17.5171540925	1.0000000000	0.0000000000	0.0000000000	172.8837027333	1.0000000000	817.0084919238	1.0000000000	0.0000000000	0.0000000000
0.5000000000	7.7841508975	1.0000000000	65.2378479749	1.0000000000	0.0000000000	0.0000000000	186.3432212148	1.0000000000	810.1270037281	1.0000000000	0.0000000000	0.0000000000
0.5100000000	11.6484056780	1.0000000000	143.5278644403	1.0000000000	0.0000000000	0.0000000000	199.2149968905	1.0000000000	792.6723540183	1.0000000000	0.0000000000	0.0000000000
0.5200000000	6.7759727381	1.0000000000	249.3839426647	1.0000000000	0.0000000000	0.0000000000	209.4895079948	1.0000000000	760.0708571579	1.0000000000	0.0000000000	0.0000000000
0.5300000000	-14.3514202565	1.0000000000	370.2314515939	1.0000000000	0.0000000000	0.0000000000	214.1554624631	1.0000000000	707.9330796027	1.0000000000	0.0000000000	0.0000000000
0.5400000000	-48.2491069283	1.0000000000	489.3767428270	1.0000000000	0.0000000000	0.0000000000	209.6351784177	1.0000000000	634.0682310767	1.0000000000	0.0000000000	0.0000000000
0.5500000000	-84.1925112589	1.0000000000	594.2882432403	1.0000000000	0.0000000000	0.0000000000	194.0786288958	1.0000000000	540.7888616586	1.0000000000	0.0000000000	0.0000000000
0.5600000000	-116.5290410943	1.0000000000	679.9271818669	1.0000000000	0.0000000000	0.0000000000	167.4333990142	1.0000000000	435.3612004356	1.0000000000	0.0000000000	0.0000000000
0.5700000000	-144.0620614993	1.0000000000	749.3818870613	1.0000000000	0.0000000000	0.0000000000	132.0779032928	1.0000000000	327.9937356542	1.0000000000	0.0000000000	0.0000000000
0.5800000000	-164.5966727995	1.0000000000	810.2939312036	1.0000000000	0.0000000000	0.0000000000	94.6993026895	1.0000000000	229.8562782717	1.0000000000	0.0000000000	0.0000000000
0.5900000000	-177.0159538148	1.0000000000	867.3768379575	1.0000000000	0.0000000000	0.0000000000	61.1349650255	1.0000000000	149.9680708858	1.0000000000	0.0000000000	0.0000000000
0.6000000000	-181.9991193686	1.0000000000	919.4360276468	1.0000000000	0.0000000000	0.0000000000	34.2827813354	1.0000000000	91.1061559125	1.0000000000	0.0000000000	0.0000000000
0.6100000000	-180.0145734111	1.0000000000	962.7152219004	1.0000000000	0.0000000000	0.0000000000	16.1729245112	1.0000000000	50.5542069766	1.0000000000	0.0000000000	0.0000000000
0.6200000000	-172.9987335172	1.0000000000	994.2349574397	1.0000000000	0.0000000000	0.0000000000	5.9355482748	1.0000000000	24.7794396184	1.0000000000	0.0000000000	0.0000000000
0.6300000000	-163.2839246399	1.0000000000	1012.4633456059	1.0000000000	0.0000000000	0.0000000000	0.7835245696	1.0000000000	9.9944216492	1.0000000000	0.0000000000	0.0000000000
0.6400000000	-151.4350090499	1.0000000000	1017.5412592899	1.0000000000	0.0000000000	0.0000000000	-1.0245144561	1.0000000000	2.1179747352	1.0000000000	0.0000000000	0.0000000000
0.6500000000	-138.7207626948	1.0000000000	1010.7174991170	1.0000000000	0.0000000000	0.0000000000	0.0000000000	1.0000000000	0.0000000000	1.0000000000	0.0000000000	0.0000000000
0.6600000000	-125.9776888449	1.0000000000	992.9796691678	1.0000000000	0.0000000000	0.0000000000	0.0000000000	1.0000000000	0.0000000000	1.0000000000	0.0000000000	0.0000000000
0.6700000000	-112.7255687019	1.0000000000	965.3118576292	1.0000000000	0.0000000000	0.0000000000	0.0000000000	1.0000000000	0.0000000000	1.0000000000	0.0000000000	0.0000000000
0.6800000000	-100.0218825174	1.0000000000	929.8478793226	1.0000000000	0.0000000000	0.0000000000	0.0000000000	1.0000000000	0.0000000000	1.0000000000	0.0000000000	0.0000000000
0.6900000000	-88.5986476282	1.0000000000	889.1613747966	1.0000000000	0.0000000000	0.0000000000	0.0000000000	1.0000000000	0.0000000000	1.0000000000	0.0000000000	0.0000000000
0.7000000000	-77.7827034234	1.0000000000	845.5000647658	1.0000000000	0.0000000000	0.0000000000	0.7649569699	1.0000000000	0.2116663347	1.0000000000	0.0000000000	0.0000000000
0.7100000000	-68.2548068791	1.0000000000	801.9165452893	1.0000000000	0.0000000000	0.0000000000	0.8017782073	1.0000000000	0.2722353553	1.0000000000	0.0000000000	0.0000000000
0.7200000000	-60.1917368614	1.0000000000	761.6209299168	1.0000000000	0.0000000000	0.0000000000	0.6112354006	1.0000000000	0.2525600612	1.0000000000	0.0000000000	0.0000000000
0.7300000000	-52.6566767833	1.0000000000	726.0998847683	1.0000000000	0.0000000000	0.0000000000	0.5124571904	1.0000000000	0.2608904973	1.0000000000	0.0000000000	0.0000000000
0.7400000000	-46.0683932888	1.0000000000	696.1226176983	1.0000000000	0.0000000000	0.0000000000	0.4070315049	1.0000000000	0.1880694831	1.0000000000	0.0000000000	0.0000000000
0.7500000000	-40.3790519627	1.0000000000	672.6826300618	1.0000000000	0.0000000000	0.0000000000	0.3026399703	1.0000000000	0.0638989714	1.0000000000	0.0000000000	0.0000000000
0.7600000000	-34.5488826126	1.0000000000	655.7136584099	1.0000000000	0.0000000000	0.0000000000	0.3372282188	1.0000000000	0.0354078964	1.0000000000	0.0000000000	0.0000000000
0.7700000000	-29.0390516168	1.0000000000	644.2373709315	1.0000000000	0.0000000000	0.0000000000	0.3556486324	1.0000000000	0.0575298849	1.0000000000	0.0000000000	0.0000000000
0.7800000000	-23.8017986811	1.0000000000	637.7483654957	1.0000000000	0.0000000000	0.0000000000	0.3688067710	1.0000000000	0.0364063608	1.0000000000	0.0000000000	0.0000000000
0.7900000000	-18.0082261286	1.0000000000	635.7558263283	1.0000000000	0.0000000000	0.0000000000	0.3998309752	1.0000000000	0.0065265546	1.0000000000	0.0000000000	0.0000000000
0.8000000000	-12.1818160479	1.0000000000	637.2113612415	1.0000000000	0.0000000000	0.0000000000	0.3054562113	1.0000000000	0.0414724945	1.0000000000	0.0000000000	0.0000000000
0.8100000000	-6.3631690396	1.0000000000	641.2603271175	1.0000000000	0.0000000000	0.0000000000	0.2341663825	1.0000000000	0.0871584408	1.0000000000	0.0000000000	0.0000000000
0.8200000000	0.0879919603	1.0000000000	647.4774094297	1.0000000000	0.0000000000	0.0000000000	0.2722064316	1.0000000000	0.0709724576	1.0000000000	0.0000000000	0.0000000000
0.8300000000	6.7367876373	1.0000000000	655.2377149532	1.0000000000	0.0000000000	0.0000000000	0.1594306693	1.0000000000	0.0386261096	1.0000000000	0.0000000000	0.0000000000
0.8400000000	13.5285449264	1.0000000000	663.9006274274	1.0000000000	0.0000000000	0.0000000000	0.0091241127	1.0000000000	0.0352028917	1.0000000000	0.0000000000	0.0000000000
0.8500000000	20.9223260828	1.0000000000	673.5145356966	1.0000000000	0.0000000000	0.0000000000	0.0036958670	1.0000000000	0.0492810289	1.0000000000	0.0000000000	0.0000000000
0.8600000000	28.5857975655	1.0000000000	684.1307825413	1.0000000000	0.0000000000	0.0000000000	0.0359504869	1.0000000000	0.0776759809	1.0000000000	0.0000000000	0.0000000000
0.8700000000	36.6389428045	1.0000000000	695.2750914333	1.0000000000	0.0000000000	0.0000000000	0.1612398196	1.0000000000	0.1134393279	1.0000000000	0.0000000000	0.0000000000
0.8800000000	45.5428566645	1.0000000000	706.9786425586	1.0000000000	0.0000000000	0.0000000000	0.3493308175	1.0000000000	0.1999018501	1.0000000000	0.0000000000	0.0000000000
0.8900000000	55.0118118054	1.0000000000	719.7879169434	1.0000000000	0.0000000000	0.0000000000	0.3604840361	1.0000000000	0.3906687341	1.0000000000	0.0000000000	0.0000000000
0.9000000000	65.1404996691	1.0000000000	733.6712651762	1.0000000000	0.0000000000	0.0000000000	0.2731735779	1.0000000000	0.5963510146	1.0000000000	0.0000000000	0.0000000000
0.9100000000	76.0311574447	1.0000000000	748.4904760833	1.0000000000	0.0000000000	0.0000000000	0.2003152810	1.0000000000	0.6319487668	1.0000000000	0.0000000000	0.0000000000
0.9200000000	87.2974454163	1.0000000000	764.6257977646	1.0000000000	0.0000000000	0.0000000000	0.0062454994	1.0000000000	0.2503065419	1.0000000000	0.0000000000	0.0000000000
0.9300000000	99.0457873852	1.0000000000	781.8507425458	1.0000000000	0.0000000000	0.0000000000	0.0000000000	1.0000000000	0.0000000000	1.0000000000	0.0000000000	0.0000000000
0.9400000000	111.3451999919	1.0000000000	798.8291773337	1.0000000000	0.0000000000	0.0000000000	0.0000000000	1.0000000000	0.0000000000	1.0000000000	0.0000000000	0.0000000000
0.9500000000	123.8426083738	1.0000000000	814.2168312257	1.0000000000	0.0000000000	0.0000000000	0.0000000000	1.0000000000	0.0000000000	1.0000000000	0.0000000000	0.0000000000
0.9600000000	136.6187131736	1.0000000000	826.9052620926	1.0000000000	0.0000000000	0.0000000000	0.0000000000	1.0000000000	0.0000000000	1.0000000000	0.0000000000	0.0000000000
0.9700000000	149.7683581940	1.0000000000	835.3366811919	1.0000000000	0.0000000000	0.0000000000	0.0000000000	1.0000000000	0.0000000000	1.0000000000	0.0000000000	0.0000000000
0.9800000000	163.0387604863	1.0000000000	837.6857091588	1.0000000000	0.0000000000	0.0000000000	0.0000000000	1.0000000000	0.0000000000	1.0000000000	0.0000000000	0.0000000000
0.9900000000	176.3404501830	1.0000000000	832.0389251372	1.0000000000	0.0000000000	0.0000000000	7.7451560160	1.0000000000	11.4929179396	1.0000000000	0.0000000000	0.0000000000
