name p6_grf_mean_speed_1.0
datacolumns 13
datarows 100
range 0.00000000 0.99000000
endheader
time	grf_x_l_mean	grf_x_l_var	grf_y_l_mean	grf_y_l_var	grf_z_l_mean	grf_z_l_var	grf_x_r_mean	grf_x_r_var	grf_y_r_mean	grf_y_r_var	grf_z_r_mean	grf_z_r_var
0.0000000000	123.5735467793	1.0000000000	776.4129488286	1.0000000000	0.0000000000	0.0000000000	2.4877748604	1.0000000000	10.9771670334	1.0000000000	0.0000000000	0.0000000000
0.0100000000	131.7606588922	1.0000000000	760.7321300829	1.0000000000	0.0000000000	0.0000000000	11.8391220839	1.0000000000	48.1996968977	1.0000000000	0.0000000000	0.0000000000
0.0200000000	140.0334379863	1.0000000000	737.2032070890	1.0000000000	0.0000000000	0.0000000000	24.3081555606	1.0000000000	112.4851646601	1.0000000000	0.0000000000	0.0000000000
0.0300000000	147.2285924387	1.0000000000	703.1205136675	1.0000000000	0.0000000000	0.0000000000	27.8286507805	1.0000000000	203.2997811813	1.0000000000	0.0000000000	0.0000000000
0.0400000000	150.7754579336	1.0000000000	655.2816925513	1.0000000000	0.0000000000	0.0000000000	13.0821320458	1.0000000000	312.6840737082	1.0000000000	0.0000000000	0.0000000000
0.0500000000	149.0275441527	1.0000000000	591.5186266251	1.0000000000	0.0000000000	0.0000000000	-13.3598043443	1.0000000000	427.7912755826	1.0000000000	0.0000000000	0.0000000000
0.0600000000	140.1587591191	1.0000000000	512.1453072049	1.0000000000	0.0000000000	0.0000000000	-42.4064453895	1.0000000000	534.5220666177	1.0000000000	0.0000000000	0.0000000000
0.0700000000	122.0722423998	1.0000000000	420.9776616733	1.0000000000	0.0000000000	0.0000000000	-70.5010605574	1.0000000000	623.8257588599	1.0000000000	0.0000000000	0.0000000000
0.0800000000	97.1676278561	1.0000000000	326.1570491111	1.0000000000	0.0000000000	0.0000000000	-93.1930134337	1.0000000000	695.1608674053	1.0000000000	0.0000000000	0.0000000000
0.0900000000	69.1406585960	1.0000000000	237.4794106844	1.0000000000	0.0000000000	0.0000000000	-109.2319907509	1.0000000000	752.2506720728	1.0000000000	0.0000000000	0.0000000000
0.1000000000	42.2526704179	1.0000000000	162.4162270996	1.0000000000	0.0000000000	0.0000000000	-119.3732864910	1.0000000000	798.6391443114	1.0000000000	0.0000000000	0.0000000000
0.1100000000	20.9773947785	1.0000000000	105.4809424366	1.0000000000	0.0000000000	0.0000000000	-123.6349925278	1.0000000000	836.2132866127	1.0000000000	0.0000000000	0.0000000000
0.1200000000	6.3337814582	1.0000000000	66.3868091103	1.0000000000	0.0000000000	0.0000000000	-123.7361856625	1.0000000000	864.8074601175	1.0000000000	0.0000000000	0.0000000000
0.1300000000	-1.5106115036	1.0000000000	40.2697605103	1.0000000000	0.0000000000	0.0000000000	-120.3189268090	1.0000000000	884.2017914716	1.0000000000	0.0000000000	0.0000000000
0.1400000000	-4.0679437575	1.0000000000	22.8768391996	1.0000000000	0.0000000000	0.0000000000	-113.9413446764	1.0000000000	895.6255171220	1.0000000000	0.0000000000	0.0000000000
0.1500000000	-4.0406707223	1.0000000000	11.7666756522	1.0000000000	0.0000000000	0.0000000000	-106.4839760145	1.0000000000	900.1643185638	1.0000000000	0.0000000000	0.0000000000
0.1600000000	-2.8074774489	1.0000000000	4.8333764850	1.0000000000	0.0000000000	0.0000000000	-98.2861155756	1.0000000000	897.2757292042	1.0000000000	0.0000000000	0.0000000000
0.1700000000	-1.5759523648	1.0000000000	0.9698063395	1.0000000000	0.0000000000	0.0000000000	-90.0303445318	1.0000000000	887.2096384459	1.0000000000	0.0000000000	0.0000000000
0.1800000000	0.0000000000	1.0000000000	0.0000000000	1.0000000000	0.0000000000	0.0000000000	-82.5200621924	1.0000000000	872.1910059299	1.0000000000	0.0000000000	0.0000000000
0.1900000000	0.0000000000	1.0000000000	0.0000000000	1.0000000000	0.0000000000	0.0000000000	-75.3587958322	1.0000000000	854.3358122449	1.0000000000	0.0000000000	0.0000000000
0.2000000000	0.0000000000	1.0000000000	0.0000000000	1.0000000000	0.0000000000	0.0000000000	-68.8322822720	1.0000000000	834.7468821473	1.0000000000	0.0000000000	0.0000000000
0.2100000000	0.0000000000	1.0000000000	0.0000000000	1.0000000000	0.0000000000	0.0000000000	-62.8209351919	1.0000000000	814.4934279669	1.0000000000	0.0000000000	0.0000000000
0.2200000000	-0.4231884800	1.0000000000	0.0158074250	1.0000000000	0.0000000000	0.0000000000	-57.1628383962	1.0000000000	795.4941675500	1.0000000000	0.0000000000	0.0000000000
0.2300000000	-0.4967996412	1.0000000000	0.1539485496	1.0000000000	0.0000000000	0.0000000000	-52.0153228869	1.0000000000	779.1984813029	1.0000000000	0.0000000000	0.0000000000
0.2400000000	-0.5183337111	1.0000000000	0.2201491576	1.0000000000	0.0000000000	0.0000000000	-46.9994968946	1.0000000000	765.7938039695	1.0000000000	0.0000000000	0.0000000000
0.2500000000	-0.5744737128	1.0000000000	0.2045941388	1.0000000000	0.0000000000	0.0000000000	-41.9752312240	1.0000000000	755.5300119066	1.0000000000	0.0000000000	0.0000000000
0.2600000000	-0.6514884018	1.0000000000	0.1709508357	1.0000000000	0.0000000000	0.0000000000	-36.9947984420	1.0000000000	748.8789672271	1.0000000000	0.0000000000	0.0000000000
0.2700000000	-0.5509037666	1.0000000000	0.1859110326	1.0000000000	0.0000000000	0.0000000000	-31.8857677465	1.0000000000	745.3721121657	1.0000000000	0.0000000000	0.0000000000
0.2800000000	-0.5021171842	1.0000000000	0.1959715497	1.0000000000	0.0000000000	0.0000000000	-26.6513743061	1.0000000000	743.6711652140	1.0000000000	0.0000000000	0.0000000000
0.2900000000	-0.5044764323	1.0000000000	0.1832911961	1.0000000000	0.0000000000	0.0000000000	-21.2344222307	1.0000000000	743.3445486033	1.0000000000	0.0000000000	0.0000000000
0.3000000000	-0.4687971497	1.0000000000	0.2130806571	1.0000000000	0.0000000000	0.0000000000	-15.6585563245	1.0000000000	744.4843693600	1.0000000000	0.0000000000	0.0000000000
0.3100000000	-0.4780922447	1.0000000000	0.2619198316	1.0000000000	0.0000000000	0.0000000000	-9.9551989872	1.0000000000	746.3986562482	1.0000000000	0.0000000000	0.0000000000
0.3200000000	-0.4688703416	1.0000000000	0.2819430524	1.0000000000	0.0000000000	0.0000000000	-4.0950891704	1.0000000000	748.4426445313	1.0000000000	0.0000000000	0.0000000000
0.3300000000	-0.4870414093	1.0000000000	0.3177712365	1.0000000000	0.0000000000	0.0000000000	1.8324290974	1.0000000000	750.5325157905	1.0000000000	0.0000000000	0.0000000000
0.3400000000	-0.5000612959	1.0000000000	0.3309571653	1.0000000000	0.0000000000	0.0000000000	7.7715397256	1.0000000000	752.8134308408	1.0000000000	0.0000000000	0.0000000000
0.3500000000	-0.4952967414	1.0000000000	0.3018731504	1.0000000000	0.0000000000	0.0000000000	13.8165295876	1.0000000000	755.0045101534	1.0000000000	0.0000000000	0.0000000000
0.3600000000	-0.5467179129	1.0000000000	0.2748434262	1.0000000000	0.0000000000	0.0000000000	20.0325030869	1.0000000000	756.7279353569	1.0000000000	0.0000000000	0.0000000000
0.3700000000	-0.5736070636	1.0000000000	0.2664277174	1.0000000000	0.0000000000	0.0000000000	26.5017219276	1.0000000000	758.2260370684	1.0000000000	0.0000000000	0.0000000000
0.3800000000	-0.5239596971	1.0000000000	0.2946824939	1.0000000000	0.0000000000	0.0000000000	33.2804290459	1.0000000000	759.7153909005	1.0000000000	0.0000000000	0.0000000000
0.3900000000	-0.4374879216	1.0000000000	0.3601636720	1.0000000000	0.0000000000	0.0000000000	40.4144799080	1.0000000000	761.1152758001	1.0000000000	0.0000000000	0.0000000000
0.4000000000	-0.3358512888	1.0000000000	0.3993357897	1.0000000000	0.0000000000	0.0000000000	48.0298045173	1.0000000000	762.3865123595	1.0000000000	0.0000000000	0.0000000000
0.4100000000	-0.2806731080	1.0000000000	0.3064386426	1.0000000000	0.0000000000	0.0000000000	56.0829194251	1.0000000000	763.8397433129	1.0000000000	0.0000000000	0.0000000000
0.4200000000	0.0000000000	1.0000000000	0.0000000000	1.0000000000	0.0000000000	0.0000000000	64.4932830240	1.0000000000	765.5297958235	1.0000000000	0.0000000000	0.0000000000
0.4300000000	0.0000000000	1.0000000000	0.0000000000	1.0000000000	0.0000000000	0.0000000000	73.2637246636	1.0000000000	767.0599839597	1.0000000000	0.0000000000	0.0000000000
0.4400000000	0.0000000000	1.0000000000	0.0000000000	1.0000000000	0.0000000000	0.0000000000	82.1950227501	1.0000000000	768.1845814802	1.0000000000	0.0000000000	0.0000000000
0.4500000000	0.0000000000	1.0000000000	0.0000000000	1.0000000000	0.0000000000	0.0000000000	91.1644321868	1.0000000000	768.6384670359	1.0000000000	0.0000000000	0.0000000000
0.4600000000	0.0000000000	1.0000000000	0.0000000000	1.0000000000	0.0000000000	0.0000000000	100.0831108913	1.0000000000	768.0871405434	1.0000000000	0.0000000000	0.0000000000
0.4700000000	0.0000000000	1.0000000000	0.0000000000	1.0000000000	0.0000000000	0.0000000000	108.8950063460	1.0000000000	766.0853409103	1.0000000000	0.0000000000	0.0000000000
0.4800000000	0.9660946483	1.0000000000	9.6834102347	1.0000000000	0.0000000000	0.0000000000	117.7576324846	1.0000000000	762.2366004691	1.0000000000	0.0000000000	0.0000000000
0.4900000000	7.1593279546	1.0000000000	41.8316820597	1.0000000000	0.0000000000	0.0000000000	126.7594008004	1.0000000000	755.9368813808	1.0000000000	0.0000000000	0.0000000000
0.5000000000	15.0632410610	1.0000000000	98.4082308624	1.0000000000	0.0000000000	0.0000000000	136.0069721678	1.0000000000	745.5674864497	1.0000000000	0.0000000000	0.0000000000
0.5100000000	16.7945456417	1.0000000000	180.0820573038	1.0000000000	0.0000000000	0.0000000000	145.1121731404	1.0000000000	728.4408866171	1.0000000000	0.0000000000	0.0000000000
0.5200000000	4.4876565535	1.0000000000	280.7381091199	1.0000000000	0.0000000000	0.0000000000	152.6268582520	1.0000000000	701.0365537648	1.0000000000	0.0000000000	0.0000000000
0.5300000000	-19.4982558440	1.0000000000	388.8167848789	1.0000000000	0.0000000000	0.0000000000	157.1177481005	1.0000000000	659.6823606084	1.0000000000	0.0000000000	0.0000000000
0.5400000000	-47.6368661946	1.0000000000	490.3400869380	1.0000000000	0.0000000000	0.0000000000	156.6855880228	1.0000000000	601.2271798954	1.0000000000	0.0000000000	0.0000000000
0.5500000000	-75.1231592305	1.0000000000	574.9285152757	1.0000000000	0.0000000000	0.0000000000	148.5757772437	1.0000000000	524.7558861879	1.0000000000	0.0000000000	0.0000000000
0.5600000000	-97.9995045479	1.0000000000	641.1101235439	1.0000000000	0.0000000000	0.0000000000	131.6309124498	1.0000000000	434.0887894239	1.0000000000	0.0000000000	0.0000000000
0.5700000000	-114.0379538734	1.0000000000	694.4138534118	1.0000000000	0.0000000000	0.0000000000	106.5335791514	1.0000000000	337.5216430957	1.0000000000	0.0000000000	0.0000000000
0.5800000000	-123.4351015255	1.0000000000	740.8344716003	1.0000000000	0.0000000000	0.0000000000	76.5466107257	1.0000000000	245.0613247546	1.0000000000	0.0000000000	0.0000000000
0.5900000000	-126.6267199400	1.0000000000	783.3650730088	1.0000000000	0.0000000000	0.0000000000	47.5383189312	1.0000000000	165.9177834799	1.0000000000	0.0000000000	0.0000000000
0.6000000000	-125.3399982774	1.0000000000	821.8058585882	1.0000000000	0.0000000000	0.0000000000	23.8723590942	1.0000000000	105.8158101209	1.0000000000	0.0000000000	0.0000000000
0.6100000000	-121.1861586458	1.0000000000	854.1664011927	1.0000000000	0.0000000000	0.0000000000	7.5323295775	1.0000000000	64.7492925699	1.0000000000	0.0000000000	0.0000000000
0.6200000000	-115.0329392951	1.0000000000	878.7587091633	1.0000000000	0.0000000000	0.0000000000	-1.3961767863	1.0000000000	38.5616247742	1.0000000000	0.0000000000	0.0000000000
0.6300000000	-108.0861979253	1.0000000000	894.5511506727	1.0000000000	0.0000000000	0.0000000000	-4.8221677737	1.0000000000	22.3985667783	1.0000000000	0.0000000000	0.0000000000
0.6400000000	-100.4737629138	1.0000000000	901.1576569176	1.0000000000	0.0000000000	0.0000000000	-4.7967895534	1.0000000000	12.2074769473	1.0000000000	0.0000000000	0.0000000000
0.6500000000	-92.5284939320	1.0000000000	899.3635865144	1.0000000000	0.0000000000	0.0000000000	-3.1793860398	1.0000000000	5.6294207202	1.0000000000	0.0000000000	0.0000000000
0.6600000000	-84.8892841993	1.0000000000	890.4507543302	1.0000000000	0.0000000000	0.0000000000	-1.4481880175	1.0000000000	1.7852870619	1.0000000000	0.0000000000	0.0000000000
0.6700000000	-77.4104496032	1.0000000000	875.9543341019	1.0000000000	0.0000000000	0.0000000000	0.0000000000	1.0000000000	0.0000000000	1.0000000000	0.0000000000	0.0000000000
0.6800000000	-70.4727941136	1.0000000000	857.9644732168	1.0000000000	0.0000000000	0.0000000000	0.0000000000	1.0000000000	0.0000000000	1.0000000000	0.0000000000	0.0000000000
0.6900000000	-64.2149069342	1.0000000000	838.3315723638	1.0000000000	0.0000000000	0.0000000000	0.0000000000	1.0000000000	0.0000000000	1.0000000000	0.0000000000	0.0000000000
0.7000000000	-58.5486137590	1.0000000000	818.4152765400	1.0000000000	0.0000000000	0.0000000000	0.0000000000	1.0000000000	0.0000000000	1.0000000000	0.0000000000	0.0000000000
0.7100000000	-53.6518613112	1.0000000000	799.6296881379	1.0000000000	0.0000000000	0.0000000000	0.0000000000	1.0000000000	0.0000000000	1.0000000000	0.0000000000	0.0000000000
0.7200000000	-49.1146131701	1.0000000000	783.2502916197	1.0000000000	0.0000000000	0.0000000000	0.1513923124	1.0000000000	0.0730092764	1.0000000000	0.0000000000	0.0000000000
0.7300000000	-44.7360422092	1.0000000000	769.8903856678	1.0000000000	0.0000000000	0.0000000000	0.1139351972	1.0000000000	0.1355367783	1.0000000000	0.0000000000	0.0000000000
0.7400000000	-40.4016371877	1.0000000000	759.6744795217	1.0000000000	0.0000000000	0.0000000000	0.1265907013	1.0000000000	0.1334977660	1.0000000000	0.0000000000	0.0000000000
0.7500000000	-35.7950876786	1.0000000000	752.5398180448	1.0000000000	0.0000000000	0.0000000000	0.1760699542	1.0000000000	0.0388072274	1.0000000000	0.0000000000	0.0000000000
0.7600000000	-30.9887630132	1.0000000000	748.1222958569	1.0000000000	0.0000000000	0.0000000000	0.0000000000	1.0000000000	0.0000000000	1.0000000000	0.0000000000	0.0000000000
0.7700000000	-26.0100500531	1.0000000000	746.0252985116	1.0000000000	0.0000000000	0.0000000000	0.0000000000	1.0000000000	0.0000000000	1.0000000000	0.0000000000	0.0000000000
0.7800000000	-20.8170075165	1.0000000000	745.7143885715	1.0000000000	0.0000000000	0.0000000000	0.0000000000	1.0000000000	0.0000000000	1.0000000000	0.0000000000	0.0000000000
0.7900000000	-15.5441710832	1.0000000000	746.6271617323	1.0000000000	0.0000000000	0.0000000000	0.0000000000	1.0000000000	0.0000000000	1.0000000000	0.0000000000	0.0000000000
0.8000000000	-10.2026972079	1.0000000000	748.4589811832	1.0000000000	0.0000000000	0.0000000000	0.0000000000	1.0000000000	0.0000000000	1.0000000000	0.0000000000	0.0000000000
0.8100000000	-4.8209651337	1.0000000000	750.9158543134	1.0000000000	0.0000000000	0.0000000000	0.0452953170	1.0000000000	0.0149540157	1.0000000000	0.0000000000	0.0000000000
0.8200000000	0.5631750922	1.0000000000	753.8774019304	1.0000000000	0.0000000000	0.0000000000	0.0272116575	1.0000000000	0.0183355674	1.0000000000	0.0000000000	0.0000000000
0.8300000000	6.0607509778	1.0000000000	757.1464106101	1.0000000000	0.0000000000	0.0000000000	0.0000000000	1.0000000000	0.0000000000	1.0000000000	0.0000000000	0.0000000000
0.8400000000	11.7346662213	1.0000000000	760.4473588774	1.0000000000	0.0000000000	0.0000000000	0.0000000000	1.0000000000	0.0000000000	1.0000000000	0.0000000000	0.0000000000
0.8500000000	17.7117795090	1.0000000000	763.5996886975	1.0000000000	0.0000000000	0.0000000000	0.0000000000	1.0000000000	0.0000000000	1.0000000000	0.0000000000	0.0000000000
0.8600000000	24.0604093204	1.0000000000	766.2961184324	1.0000000000	0.0000000000	0.0000000000	0.0000000000	1.0000000000	0.0000000000	1.0000000000	0.0000000000	0.0000000000
0.8700000000	30.7157915261	1.0000000000	768.5956436614	1.0000000000	0.0000000000	0.0000000000	0.0000000000	1.0000000000	0.0000000000	1.0000000000	0.0000000000	0.0000000000
0.8800000000	37.7078186177	1.0000000000	770.7751185712	1.0000000000	0.0000000000	0.0000000000	0.0313270151	1.0000000000	0.0289182796	1.0000000000	0.0000000000	0.0000000000
0.8900000000	44.9773054658	1.0000000000	772.9818639313	1.0000000000	0.0000000000	0.0000000000	0.0649011432	1.0000000000	0.1163012535	1.0000000000	0.0000000000	0.0000000000
0.9000000000	52.4656807816	1.0000000000	775.4335343350	1.0000000000	0.0000000000	0.0000000000	0.1127093629	1.0000000000	0.2421165785	1.0000000000	0.0000000000	0.0000000000
0.9100000000	60.1667649978	1.0000000000	778.3679253606	1.0000000000	0.0000000000	0.0000000000	0.1462421519	1.0000000000	0.3507927965	1.0000000000	0.0000000000	0.0000000000
0.9200000000	68.0323824910	1.0000000000	781.8485767848	1.0000000000	0.0000000000	0.0000000000	0.1370771647	1.0000000000	0.3042330438	1.0000000000	0.0000000000	0.0000000000
0.9300000000	76.0385751858	1.0000000000	785.6102108732	1.0000000000	0.0000000000	0.0000000000	0.0000000000	1.0000000000	0.0000000000	1.0000000000	0.0000000000	0.0000000000
0.9400000000	84.0893883003	1.0000000000	789.2117365029	1.0000000000	0.0000000000	0.0000000000	0.0000000000	1.0000000000	0.0000000000	1.0000000000	0.0000000000	0.0000000000
0.9500000000	92.0928659567	1.0000000000	791.9383659976	1.0000000000	0.0000000000	0.0000000000	0.0000000000	1.0000000000	0.0000000000	1.0000000000	0.0000000000	0.0000000000
0.9600000000	100.0087139494	1.0000000000	792.8842013515	1.0000000000	0.0000000000	0.0000000000	0.0000000000	1.0000000000	0.0000000000	1.0000000000	0.0000000000	0.0000000000
0.9700000000	107.8393064392	1.0000000000	791.2214996367	1.0000000000	0.0000000000	0.0000000000	0.0000000000	1.0000000000	0.0000000000	1.0000000000	0.0000000000	0.0000000000
0.9800000000	115.7364667678	1.0000000000	786.0645978332	1.0000000000	0.0000000000	0.0000000000	0.0000000000	1.0000000000	0.0000000000	1.0000000000	0.0000000000	0.0000000000
0.9900000000	123.7692193312	1.0000000000	776.3769103688	1.0000000000	0.0000000000	0.0000000000	2.5608223908	1.0000000000	10.9765994131	1.0000000000	0.0000000000	0.0000000000
