name p7_grf_mean_speed_1.0
datacolumns 13
datarows 100
range 0.00000000 0.99000000
endheader
time	grf_x_l_mean	grf_x_l_var	grf_y_l_mean	grf_y_l_var	grf_z_l_mean	grf_z_l_var	grf_x_r_mean	grf_x_r_var	grf_y_r_mean	grf_y_r_var	grf_z_r_mean	grf_z_r_var
0.0000000000	71.9625106987	1.0000000000	493.6069279167	1.0000000000	0.0000000000	0.0000000000	5.2647108000	1.0000000000	11.0231177510	1.0000000000	0.0000000000	0.0000000000
0.0100000000	76.5803061988	1.0000000000	484.5296855880	1.0000000000	0.0000000000	0.0000000000	8.2085829356	1.0000000000	47.6129617299	1.0000000000	0.0000000000	0.0000000000
0.0200000000	80.9906447071	1.0000000000	469.6667873508	1.0000000000	0.0000000000	0.0000000000	9.0833787134	1.0000000000	108.0294510329	1.0000000000	0.0000000000	0.0000000000
0.0300000000	84.6785943172	1.0000000000	447.5390604193	1.0000000000	0.0000000000	0.0000000000	3.6213556313	1.0000000000	185.8541920945	1.0000000000	0.0000000000	0.0000000000
0.0400000000	86.3628082452	1.0000000000	416.3624171665	1.0000000000	0.0000000000	0.0000000000	-10.2754490659	1.0000000000	263.8555899343	1.0000000000	0.0000000000	0.0000000000
0.0500000000	85.0663417579	1.0000000000	374.8163731780	1.0000000000	0.0000000000	0.0000000000	-27.1280321694	1.0000000000	324.9981407530	1.0000000000	0.0000000000	0.0000000000
0.0600000000	80.5055228124	1.0000000000	324.0069335490	1.0000000000	0.0000000000	0.0000000000	-40.7532947084	1.0000000000	362.9086396459	1.0000000000	0.0000000000	0.0000000000
0.0700000000	71.5770810838	1.0000000000	267.1992717167	1.0000000000	0.0000000000	0.0000000000	-51.0105404202	1.0000000000	383.3450510319	1.0000000000	0.0000000000	0.0000000000
0.0800000000	59.1056556730	1.0000000000	208.7761063213	1.0000000000	0.0000000000	0.0000000000	-58.3268129926	1.0000000000	397.6799921382	1.0000000000	0.0000000000	0.0000000000
0.0900000000	45.2475131728	1.0000000000	153.2393339092	1.0000000000	0.0000000000	0.0000000000	-62.5823756179	1.0000000000	413.5435389526	1.0000000000	0.0000000000	0.0000000000
0.1000000000	30.9600593582	1.0000000000	104.3104018653	1.0000000000	0.0000000000	0.0000000000	-65.1228879188	1.0000000000	432.4335964850	1.0000000000	0.0000000000	0.0000000000
0.1100000000	18.6453100236	1.0000000000	64.1591856129	1.0000000000	0.0000000000	0.0000000000	-66.0462716581	1.0000000000	453.2879775062	1.0000000000	0.0000000000	0.0000000000
0.1200000000	9.6905336775	1.0000000000	33.9299633471	1.0000000000	0.0000000000	0.0000000000	-65.1504947992	1.0000000000	474.9519439830	1.0000000000	0.0000000000	0.0000000000
0.1300000000	3.5034602162	1.0000000000	13.8909684674	1.0000000000	0.0000000000	0.0000000000	-63.4456656313	1.0000000000	495.3487666835	1.0000000000	0.0000000000	0.0000000000
0.1400000000	0.0962242977	1.0000000000	2.7989947389	1.0000000000	0.0000000000	0.0000000000	-60.7437852196	1.0000000000	511.5459201476	1.0000000000	0.0000000000	0.0000000000
0.1500000000	0.0000000000	1.0000000000	0.0000000000	1.0000000000	0.0000000000	0.0000000000	-57.0635926117	1.0000000000	521.3656235759	1.0000000000	0.0000000000	0.0000000000
0.1600000000	0.0000000000	1.0000000000	0.0000000000	1.0000000000	0.0000000000	0.0000000000	-53.5149351931	1.0000000000	524.1409255825	1.0000000000	0.0000000000	0.0000000000
0.1700000000	0.0000000000	1.0000000000	0.0000000000	1.0000000000	0.0000000000	0.0000000000	-49.8461770053	1.0000000000	520.1063237609	1.0000000000	0.0000000000	0.0000000000
0.1800000000	0.0000000000	1.0000000000	0.0000000000	1.0000000000	0.0000000000	0.0000000000	-46.0844966459	1.0000000000	509.8686640191	1.0000000000	0.0000000000	0.0000000000
0.1900000000	0.0000000000	1.0000000000	0.0000000000	1.0000000000	0.0000000000	0.0000000000	-42.7028469069	1.0000000000	494.7521871343	1.0000000000	0.0000000000	0.0000000000
0.2000000000	0.0000000000	1.0000000000	0.0000000000	1.0000000000	0.0000000000	0.0000000000	-39.2722676012	1.0000000000	477.4900803681	1.0000000000	0.0000000000	0.0000000000
0.2100000000	-0.0813285204	1.0000000000	0.0428381094	1.0000000000	0.0000000000	0.0000000000	-35.8137167576	1.0000000000	460.9783446375	1.0000000000	0.0000000000	0.0000000000
0.2200000000	-0.0965838174	1.0000000000	0.1043491842	1.0000000000	0.0000000000	0.0000000000	-32.6639210157	1.0000000000	446.1989069857	1.0000000000	0.0000000000	0.0000000000
0.2300000000	-0.0967904073	1.0000000000	0.0496432661	1.0000000000	0.0000000000	0.0000000000	-29.4069518298	1.0000000000	433.1758081113	1.0000000000	0.0000000000	0.0000000000
0.2400000000	-0.2111836565	1.0000000000	0.0091386056	1.0000000000	0.0000000000	0.0000000000	-26.3514685040	1.0000000000	422.5603681776	1.0000000000	0.0000000000	0.0000000000
0.2500000000	0.0000000000	1.0000000000	0.0000000000	1.0000000000	0.0000000000	0.0000000000	-23.7298619777	1.0000000000	414.8849933942	1.0000000000	0.0000000000	0.0000000000
0.2600000000	0.0000000000	1.0000000000	0.0000000000	1.0000000000	0.0000000000	0.0000000000	-21.2280255211	1.0000000000	409.6543261375	1.0000000000	0.0000000000	0.0000000000
0.2700000000	0.0000000000	1.0000000000	0.0000000000	1.0000000000	0.0000000000	0.0000000000	-18.8957511134	1.0000000000	406.1948126039	1.0000000000	0.0000000000	0.0000000000
0.2800000000	0.0000000000	1.0000000000	0.0000000000	1.0000000000	0.0000000000	0.0000000000	-16.6918443596	1.0000000000	404.5034468202	1.0000000000	0.0000000000	0.0000000000
0.2900000000	0.0000000000	1.0000000000	0.0000000000	1.0000000000	0.0000000000	0.0000000000	-14.4002518387	1.0000000000	404.9035934939	1.0000000000	0.0000000000	0.0000000000
0.3000000000	0.0000000000	1.0000000000	0.0000000000	1.0000000000	0.0000000000	0.0000000000	-12.2173768644	1.0000000000	407.1684824040	1.0000000000	0.0000000000	0.0000000000
0.3100000000	0.0000000000	1.0000000000	0.0000000000	1.0000000000	0.0000000000	0.0000000000	-10.0122962087	1.0000000000	410.5384105209	1.0000000000	0.0000000000	0.0000000000
0.3200000000	0.0000000000	1.0000000000	0.0000000000	1.0000000000	0.0000000000	0.0000000000	-7.6207291083	1.0000000000	414.6128910256	1.0000000000	0.0000000000	0.0000000000
0.3300000000	0.0000000000	1.0000000000	0.0000000000	1.0000000000	0.0000000000	0.0000000000	-5.2254882336	1.0000000000	419.4480105122	1.0000000000	0.0000000000	0.0000000000
0.3400000000	0.0000000000	1.0000000000	0.0000000000	1.0000000000	0.0000000000	0.0000000000	-2.7125550879	1.0000000000	424.8256967153	1.0000000000	0.0000000000	0.0000000000
0.3500000000	0.0000000000	1.0000000000	0.0000000000	1.0000000000	0.0000000000	0.0000000000	0.0271820026	1.0000000000	430.2258530351	1.0000000000	0.0000000000	0.0000000000
0.3600000000	0.0000000000	1.0000000000	0.0000000000	1.0000000000	0.0000000000	0.0000000000	2.9423480591	1.0000000000	435.3330465483	1.0000000000	0.0000000000	0.0000000000
0.3700000000	0.0000000000	1.0000000000	0.0000000000	1.0000000000	0.0000000000	0.0000000000	6.1345905989	1.0000000000	440.2367975587	1.0000000000	0.0000000000	0.0000000000
0.3800000000	-0.1920275266	1.0000000000	0.0108649551	1.0000000000	0.0000000000	0.0000000000	9.5774633981	1.0000000000	445.1635620539	1.0000000000	0.0000000000	0.0000000000
0.3900000000	-0.1632015004	1.0000000000	0.1262305241	1.0000000000	0.0000000000	0.0000000000	13.2417207621	1.0000000000	450.0450317200	1.0000000000	0.0000000000	0.0000000000
0.4000000000	-0.1253132658	1.0000000000	0.2506677432	1.0000000000	0.0000000000	0.0000000000	17.2942736009	1.0000000000	454.7133286129	1.0000000000	0.0000000000	0.0000000000
0.4100000000	-0.1236198268	1.0000000000	0.3303994325	1.0000000000	0.0000000000	0.0000000000	21.6565401988	1.0000000000	459.3666773981	1.0000000000	0.0000000000	0.0000000000
0.4200000000	-0.1452471620	1.0000000000	0.2471653723	1.0000000000	0.0000000000	0.0000000000	26.2783123014	1.0000000000	464.3518771928	1.0000000000	0.0000000000	0.0000000000
0.4300000000	0.0000000000	1.0000000000	0.0000000000	1.0000000000	0.0000000000	0.0000000000	31.2453008524	1.0000000000	469.5888139359	1.0000000000	0.0000000000	0.0000000000
0.4400000000	0.0000000000	1.0000000000	0.0000000000	1.0000000000	0.0000000000	0.0000000000	36.4376904491	1.0000000000	474.6851380546	1.0000000000	0.0000000000	0.0000000000
0.4500000000	0.0000000000	1.0000000000	0.0000000000	1.0000000000	0.0000000000	0.0000000000	41.7843034728	1.0000000000	479.4668826903	1.0000000000	0.0000000000	0.0000000000
0.4600000000	0.0000000000	1.0000000000	0.0000000000	1.0000000000	0.0000000000	0.0000000000	47.2451046659	1.0000000000	483.8323907730	1.0000000000	0.0000000000	0.0000000000
0.4700000000	0.0000000000	1.0000000000	0.0000000000	1.0000000000	0.0000000000	0.0000000000	52.6802553532	1.0000000000	487.3242947160	1.0000000000	0.0000000000	0.0000000000
0.4800000000	0.0000000000	1.0000000000	0.0000000000	1.0000000000	0.0000000000	0.0000000000	58.1329541207	1.0000000000	489.2538548716	1.0000000000	0.0000000000	0.0000000000
0.4900000000	0.9316963157	1.0000000000	2.0271804124	1.0000000000	0.0000000000	0.0000000000	63.6699542572	1.0000000000	488.9341928701	1.0000000000	0.0000000000	0.0000000000
0.5000000000	2.0543276454	1.0000000000	22.8766335065	1.0000000000	0.0000000000	0.0000000000	69.2006762292	1.0000000000	485.6782844212	1.0000000000	0.0000000000	0.0000000000
0.5100000000	3.0182469887	1.0000000000	61.3660528522	1.0000000000	0.0000000000	0.0000000000	74.7101503226	1.0000000000	478.5218478038	1.0000000000	0.0000000000	0.0000000000
0.5200000000	2.0665353316	1.0000000000	117.9244505293	1.0000000000	0.0000000000	0.0000000000	79.9331707749	1.0000000000	465.9412076278	1.0000000000	0.0000000000	0.0000000000
0.5300000000	-3.3186730115	1.0000000000	185.6144159300	1.0000000000	0.0000000000	0.0000000000	84.1535802044	1.0000000000	446.0047113419	1.0000000000	0.0000000000	0.0000000000
0.5400000000	-13.7409977135	1.0000000000	252.5457170182	1.0000000000	0.0000000000	0.0000000000	86.4778367247	1.0000000000	416.7818631239	1.0000000000	0.0000000000	0.0000000000
0.5500000000	-26.6881345243	1.0000000000	308.8285914772	1.0000000000	0.0000000000	0.0000000000	86.0178148280	1.0000000000	377.1509018282	1.0000000000	0.0000000000	0.0000000000
0.5600000000	-39.0964563757	1.0000000000	350.9968946849	1.0000000000	0.0000000000	0.0000000000	81.8961822171	1.0000000000	327.7593486226	1.0000000000	0.0000000000	0.0000000000
0.5700000000	-49.4764245937	1.0000000000	381.6502466900	1.0000000000	0.0000000000	0.0000000000	73.5412596270	1.0000000000	271.2636625137	1.0000000000	0.0000000000	0.0000000000
0.5800000000	-57.0529065469	1.0000000000	405.8393110438	1.0000000000	0.0000000000	0.0000000000	61.3013365819	1.0000000000	211.8497790292	1.0000000000	0.0000000000	0.0000000000
0.5900000000	-61.4643899807	1.0000000000	427.4104077369	1.0000000000	0.0000000000	0.0000000000	46.6318510144	1.0000000000	154.4898223659	1.0000000000	0.0000000000	0.0000000000
0.6000000000	-63.0474807584	1.0000000000	447.9533281062	1.0000000000	0.0000000000	0.0000000000	31.6272368684	1.0000000000	103.7589810249	1.0000000000	0.0000000000	0.0000000000
0.6100000000	-62.3957718542	1.0000000000	467.4065826995	1.0000000000	0.0000000000	0.0000000000	18.5502093338	1.0000000000	62.7479428865	1.0000000000	0.0000000000	0.0000000000
0.6200000000	-60.0926995586	1.0000000000	484.6945062141	1.0000000000	0.0000000000	0.0000000000	8.9419830311	1.0000000000	32.7404007739	1.0000000000	0.0000000000	0.0000000000
0.6300000000	-56.8163255030	1.0000000000	498.2803480965	1.0000000000	0.0000000000	0.0000000000	3.0077004471	1.0000000000	13.3652608604	1.0000000000	0.0000000000	0.0000000000
0.6400000000	-52.9931494321	1.0000000000	506.8872578353	1.0000000000	0.0000000000	0.0000000000	0.0280661397	1.0000000000	2.7749881199	1.0000000000	0.0000000000	0.0000000000
0.6500000000	-48.8780957440	1.0000000000	509.7654287583	1.0000000000	0.0000000000	0.0000000000	0.0000000000	1.0000000000	0.0000000000	1.0000000000	0.0000000000	0.0000000000
0.6600000000	-44.7475989573	1.0000000000	506.6353290771	1.0000000000	0.0000000000	0.0000000000	0.0000000000	1.0000000000	0.0000000000	1.0000000000	0.0000000000	0.0000000000
0.6700000000	-40.7218751759	1.0000000000	498.0217472859	1.0000000000	0.0000000000	0.0000000000	0.0000000000	1.0000000000	0.0000000000	1.0000000000	0.0000000000	0.0000000000
0.6800000000	-36.8502787970	1.0000000000	485.3228834791	1.0000000000	0.0000000000	0.0000000000	0.0000000000	1.0000000000	0.0000000000	1.0000000000	0.0000000000	0.0000000000
0.6900000000	-33.2913197227	1.0000000000	470.2268620492	1.0000000000	0.0000000000	0.0000000000	0.0000000000	1.0000000000	0.0000000000	1.0000000000	0.0000000000	0.0000000000
0.7000000000	-30.0465285598	1.0000000000	454.3602251743	1.0000000000	0.0000000000	0.0000000000	0.0729385262	1.0000000000	0.0234013051	1.0000000000	0.0000000000	0.0000000000
0.7100000000	-27.0364071314	1.0000000000	439.2600235921	1.0000000000	0.0000000000	0.0000000000	0.1505904594	1.0000000000	0.2685597866	1.0000000000	0.0000000000	0.0000000000
0.7200000000	-24.3165028067	1.0000000000	426.1390147782	1.0000000000	0.0000000000	0.0000000000	0.1667355059	1.0000000000	0.2942691385	1.0000000000	0.0000000000	0.0000000000
0.7300000000	-21.8442524939	1.0000000000	415.6286268349	1.0000000000	0.0000000000	0.0000000000	0.1603155410	1.0000000000	0.2004487723	1.0000000000	0.0000000000	0.0000000000
0.7400000000	-19.5098830216	1.0000000000	408.0023815876	1.0000000000	0.0000000000	0.0000000000	0.1683783422	1.0000000000	0.1021254930	1.0000000000	0.0000000000	0.0000000000
0.7500000000	-17.3014403757	1.0000000000	403.3179136195	1.0000000000	0.0000000000	0.0000000000	0.1420605542	1.0000000000	0.0517099926	1.0000000000	0.0000000000	0.0000000000
0.7600000000	-15.1348721222	1.0000000000	401.2260811370	1.0000000000	0.0000000000	0.0000000000	0.1007225705	1.0000000000	0.0262145478	1.0000000000	0.0000000000	0.0000000000
0.7700000000	-12.9403789369	1.0000000000	401.2614259840	1.0000000000	0.0000000000	0.0000000000	0.0806768810	1.0000000000	0.0176976981	1.0000000000	0.0000000000	0.0000000000
0.7800000000	-10.7630209886	1.0000000000	403.0980523682	1.0000000000	0.0000000000	0.0000000000	0.0554388746	1.0000000000	0.0355392717	1.0000000000	0.0000000000	0.0000000000
0.7900000000	-8.5531875266	1.0000000000	406.3727085204	1.0000000000	0.0000000000	0.0000000000	0.0551487356	1.0000000000	0.0450709837	1.0000000000	0.0000000000	0.0000000000
0.8000000000	-6.2907388517	1.0000000000	410.7370930487	1.0000000000	0.0000000000	0.0000000000	0.0683373906	1.0000000000	0.0405391426	1.0000000000	0.0000000000	0.0000000000
0.8100000000	-3.9952923659	1.0000000000	415.9131699164	1.0000000000	0.0000000000	0.0000000000	0.0446226023	1.0000000000	0.0401737635	1.0000000000	0.0000000000	0.0000000000
0.8200000000	-1.5688567112	1.0000000000	421.6067705706	1.0000000000	0.0000000000	0.0000000000	0.0183449163	1.0000000000	0.0350787326	1.0000000000	0.0000000000	0.0000000000
0.8300000000	0.9988382346	1.0000000000	427.5029333097	1.0000000000	0.0000000000	0.0000000000	0.0035238768	1.0000000000	0.0261121498	1.0000000000	0.0000000000	0.0000000000
0.8400000000	3.7195704107	1.0000000000	433.3042553008	1.0000000000	0.0000000000	0.0000000000	-0.0175318889	1.0000000000	0.0271517086	1.0000000000	0.0000000000	0.0000000000
0.8500000000	6.6804212490	1.0000000000	438.8493739354	1.0000000000	0.0000000000	0.0000000000	-0.0228599988	1.0000000000	0.0326208646	1.0000000000	0.0000000000	0.0000000000
0.8600000000	9.8819496509	1.0000000000	444.0788496170	1.0000000000	0.0000000000	0.0000000000	-0.0039545518	1.0000000000	0.0370929098	1.0000000000	0.0000000000	0.0000000000
0.8700000000	13.3631792050	1.0000000000	448.9953743022	1.0000000000	0.0000000000	0.0000000000	0.0261568494	1.0000000000	0.0659759683	1.0000000000	0.0000000000	0.0000000000
0.8800000000	17.2424717958	1.0000000000	453.8050213888	1.0000000000	0.0000000000	0.0000000000	0.0588278012	1.0000000000	0.1522195903	1.0000000000	0.0000000000	0.0000000000
0.8900000000	21.5047903068	1.0000000000	458.7604752465	1.0000000000	0.0000000000	0.0000000000	0.0654854142	1.0000000000	0.2729269575	1.0000000000	0.0000000000	0.0000000000
0.9000000000	26.1646959566	1.0000000000	464.0480720201	1.0000000000	0.0000000000	0.0000000000	0.0316335924	1.0000000000	0.3873969351	1.0000000000	0.0000000000	0.0000000000
0.9100000000	31.2107337205	1.0000000000	469.8211397180	1.0000000000	0.0000000000	0.0000000000	-0.0341117290	1.0000000000	0.4202359177	1.0000000000	0.0000000000	0.0000000000
0.9200000000	36.4920354392	1.0000000000	476.0285524477	1.0000000000	0.0000000000	0.0000000000	-0.1351479442	1.0000000000	0.1798229763	1.0000000000	0.0000000000	0.0000000000
0.9300000000	41.9026472455	1.0000000000	482.3850696128	1.0000000000	0.0000000000	0.0000000000	0.0000000000	1.0000000000	0.0000000000	1.0000000000	0.0000000000	0.0000000000
0.9400000000	47.3361569854	1.0000000000	488.4561753803	1.0000000000	0.0000000000	0.0000000000	0.0000000000	1.0000000000	0.0000000000	1.0000000000	0.0000000000	0.0000000000
0.9500000000	52.6021850308	1.0000000000	493.6732393771	1.0000000000	0.0000000000	0.0000000000	0.0000000000	1.0000000000	0.0000000000	1.0000000000	0.0000000000	0.0000000000
0.9600000000	57.6758449526	1.0000000000	497.4612126930	1.0000000000	0.0000000000	0.0000000000	0.0000000000	1.0000000000	0.0000000000	1.0000000000	0.0000000000	0.0000000000
0.9700000000	62.5663467673	1.0000000000	499.1765916924	1.0000000000	0.0000000000	0.0000000000	0.0000000000	1.0000000000	0.0000000000	1.0000000000	0.0000000000	0.0000000000
0.9800000000	67.2739125060	1.0000000000	498.0918047036	1.0000000000	0.0000000000	0.0000000000	0.0000000000	1.0000000000	0.0000000000	1.0000000000	0.0000000000	0.0000000000
0.9900000000	71.9257707998	1.0000000000	493.4852943445	1.0000000000	0.0000000000	0.0000000000	5.2587516421	1.0000000000	11.0217753954	1.0000000000	0.0000000000	0.0000000000
