name p7_grf_mean_speed_1.4
datacolumns 13
datarows 100
range 0.00000000 0.99000000
endheader
time	grf_x_l_mean	grf_x_l_var	grf_y_l_mean	grf_y_l_var	grf_z_l_mean	grf_z_l_var	grf_x_r_mean	grf_x_r_var	grf_y_r_mean	grf_y_r_var	grf_z_r_mean	grf_z_r_var
0.0000000000	98.1415239242	1.0000000000	543.3573804772	1.0000000000	0.0000000000	0.0000000000	10.1911991589	1.0000000000	11.2468547873	1.0000000000	0.0000000000	0.0000000000
0.0100000000	102.9788599847	1.0000000000	525.6157979304	1.0000000000	0.0000000000	0.0000000000	14.4069299641	1.0000000000	50.6892412938	1.0000000000	0.0000000000	0.0000000000
0.0200000000	106.7783544793	1.0000000000	498.0939124277	1.0000000000	0.0000000000	0.0000000000	14.5305589058	1.0000000000	116.0512320890	1.0000000000	0.0000000000	0.0000000000
0.0300000000	108.7077956386	1.0000000000	460.1968761552	1.0000000000	0.0000000000	0.0000000000	4.5316851942	1.0000000000	202.9627615083	1.0000000000	0.0000000000	0.0000000000
0.0400000000	106.9010305273	1.0000000000	411.6695049953	1.0000000000	0.0000000000	0.0000000000	-18.1400696959	1.0000000000	297.1838080137	1.0000000000	0.0000000000	0.0000000000
0.0500000000	100.3235451121	1.0000000000	353.4276358447	1.0000000000	0.0000000000	0.0000000000	-45.9597497581	1.0000000000	381.7166133914	1.0000000000	0.0000000000	0.0000000000
0.0600000000	89.7590493608	1.0000000000	288.8538060289	1.0000000000	0.0000000000	0.0000000000	-68.2400476624	1.0000000000	442.9741462512	1.0000000000	0.0000000000	0.0000000000
0.0700000000	75.3570293444	1.0000000000	222.7527390903	1.0000000000	0.0000000000	0.0000000000	-82.5276119694	1.0000000000	477.3928264274	1.0000000000	0.0000000000	0.0000000000
0.0800000000	57.9139590920	1.0000000000	160.2852016751	1.0000000000	0.0000000000	0.0000000000	-90.6808997272	1.0000000000	493.2991703361	1.0000000000	0.0000000000	0.0000000000
0.0900000000	41.1280508688	1.0000000000	106.2023784560	1.0000000000	0.0000000000	0.0000000000	-94.5541520429	1.0000000000	502.4395985638	1.0000000000	0.0000000000	0.0000000000
0.1000000000	26.1908468438	1.0000000000	63.4424110959	1.0000000000	0.0000000000	0.0000000000	-96.9309056044	1.0000000000	511.8897894812	1.0000000000	0.0000000000	0.0000000000
0.1100000000	13.6017000727	1.0000000000	32.3064419102	1.0000000000	0.0000000000	0.0000000000	-99.1200406246	1.0000000000	522.8885909995	1.0000000000	0.0000000000	0.0000000000
0.1200000000	5.0371458336	1.0000000000	11.9387792364	1.0000000000	0.0000000000	0.0000000000	-99.1655941114	1.0000000000	534.7211406111	1.0000000000	0.0000000000	0.0000000000
0.1300000000	0.3035333867	1.0000000000	0.9836960658	1.0000000000	0.0000000000	0.0000000000	-96.6668825659	1.0000000000	546.4992686323	1.0000000000	0.0000000000	0.0000000000
0.1400000000	0.0000000000	1.0000000000	0.0000000000	1.0000000000	0.0000000000	0.0000000000	-92.3466000586	1.0000000000	556.0582157739	1.0000000000	0.0000000000	0.0000000000
0.1500000000	0.0000000000	1.0000000000	0.0000000000	1.0000000000	0.0000000000	0.0000000000	-85.4336615654	1.0000000000	560.8986232233	1.0000000000	0.0000000000	0.0000000000
0.1600000000	0.0000000000	1.0000000000	0.0000000000	1.0000000000	0.0000000000	0.0000000000	-76.6460583629	1.0000000000	559.2478659654	1.0000000000	0.0000000000	0.0000000000
0.1700000000	0.0000000000	1.0000000000	0.0000000000	1.0000000000	0.0000000000	0.0000000000	-68.0691675035	1.0000000000	549.9684304372	1.0000000000	0.0000000000	0.0000000000
0.1800000000	0.0000000000	1.0000000000	0.0000000000	1.0000000000	0.0000000000	0.0000000000	-59.8475644633	1.0000000000	532.6957659685	1.0000000000	0.0000000000	0.0000000000
0.1900000000	0.2475086047	1.0000000000	0.0530230574	1.0000000000	0.0000000000	0.0000000000	-52.1838682212	1.0000000000	508.6535689871	1.0000000000	0.0000000000	0.0000000000
0.2000000000	0.2269866107	1.0000000000	0.1852231458	1.0000000000	0.0000000000	0.0000000000	-45.9750582294	1.0000000000	480.1766237306	1.0000000000	0.0000000000	0.0000000000
0.2100000000	0.3281973416	1.0000000000	0.1925009141	1.0000000000	0.0000000000	0.0000000000	-40.4491316310	1.0000000000	450.2201698471	1.0000000000	0.0000000000	0.0000000000
0.2200000000	0.6295432165	1.0000000000	0.2439314582	1.0000000000	0.0000000000	0.0000000000	-35.0837902959	1.0000000000	422.1312832090	1.0000000000	0.0000000000	0.0000000000
0.2300000000	0.5570712340	1.0000000000	0.2328770016	1.0000000000	0.0000000000	0.0000000000	-30.5256468444	1.0000000000	398.0493185263	1.0000000000	0.0000000000	0.0000000000
0.2400000000	0.3841094399	1.0000000000	0.1978338859	1.0000000000	0.0000000000	0.0000000000	-26.2018966963	1.0000000000	378.3196249562	1.0000000000	0.0000000000	0.0000000000
0.2500000000	0.1700423436	1.0000000000	0.1823575214	1.0000000000	0.0000000000	0.0000000000	-21.8645384192	1.0000000000	362.7707888514	1.0000000000	0.0000000000	0.0000000000
0.2600000000	-0.2650582126	1.0000000000	0.1447298489	1.0000000000	0.0000000000	0.0000000000	-18.3167116549	1.0000000000	351.6872178034	1.0000000000	0.0000000000	0.0000000000
0.2700000000	-0.2988784645	1.0000000000	0.0653164909	1.0000000000	0.0000000000	0.0000000000	-15.2866450802	1.0000000000	345.0130619596	1.0000000000	0.0000000000	0.0000000000
0.2800000000	0.0715711045	1.0000000000	0.0348980307	1.0000000000	0.0000000000	0.0000000000	-12.3739003387	1.0000000000	341.7979134552	1.0000000000	0.0000000000	0.0000000000
0.2900000000	0.0934832361	1.0000000000	0.0975633594	1.0000000000	0.0000000000	0.0000000000	-9.8522225436	1.0000000000	341.0152982845	1.0000000000	0.0000000000	0.0000000000
0.3000000000	0.0376603618	1.0000000000	0.1202875285	1.0000000000	0.0000000000	0.0000000000	-7.4834837745	1.0000000000	342.4630485726	1.0000000000	0.0000000000	0.0000000000
0.3100000000	0.0726066343	1.0000000000	0.1090398073	1.0000000000	0.0000000000	0.0000000000	-4.9494122689	1.0000000000	346.4013925058	1.0000000000	0.0000000000	0.0000000000
0.3200000000	-0.0669297071	1.0000000000	0.1569495813	1.0000000000	0.0000000000	0.0000000000	-2.6272110328	1.0000000000	352.4779911056	1.0000000000	0.0000000000	0.0000000000
0.3300000000	-0.1227508963	1.0000000000	0.1699113534	1.0000000000	0.0000000000	0.0000000000	-0.1479067940	1.0000000000	359.8823885730	1.0000000000	0.0000000000	0.0000000000
0.3400000000	0.0834483779	1.0000000000	0.0769226378	1.0000000000	0.0000000000	0.0000000000	2.7514711852	1.0000000000	368.2288518554	1.0000000000	0.0000000000	0.0000000000
0.3500000000	0.0000000000	1.0000000000	0.0000000000	1.0000000000	0.0000000000	0.0000000000	5.7730679740	1.0000000000	377.5471595056	1.0000000000	0.0000000000	0.0000000000
0.3600000000	0.0000000000	1.0000000000	0.0000000000	1.0000000000	0.0000000000	0.0000000000	9.1515053497	1.0000000000	387.6734067835	1.0000000000	0.0000000000	0.0000000000
0.3700000000	0.0000000000	1.0000000000	0.0000000000	1.0000000000	0.0000000000	0.0000000000	13.1855376876	1.0000000000	398.3433430996	1.0000000000	0.0000000000	0.0000000000
0.3800000000	-0.1628979066	1.0000000000	0.0336939138	1.0000000000	0.0000000000	0.0000000000	17.6429917834	1.0000000000	409.4295111376	1.0000000000	0.0000000000	0.0000000000
0.3900000000	-0.3194217593	1.0000000000	0.1283052344	1.0000000000	0.0000000000	0.0000000000	22.7588084478	1.0000000000	420.9261943039	1.0000000000	0.0000000000	0.0000000000
0.4000000000	-0.2641963031	1.0000000000	0.2995971462	1.0000000000	0.0000000000	0.0000000000	28.7439105931	1.0000000000	433.2152586155	1.0000000000	0.0000000000	0.0000000000
0.4100000000	-0.2310407205	1.0000000000	0.4553887333	1.0000000000	0.0000000000	0.0000000000	35.3138722866	1.0000000000	446.7112092084	1.0000000000	0.0000000000	0.0000000000
0.4200000000	-0.2926445830	1.0000000000	0.4473555965	1.0000000000	0.0000000000	0.0000000000	42.5030850915	1.0000000000	461.1194989789	1.0000000000	0.0000000000	0.0000000000
0.4300000000	-0.4091487401	1.0000000000	0.0827051016	1.0000000000	0.0000000000	0.0000000000	50.3528276044	1.0000000000	475.9015878426	1.0000000000	0.0000000000	0.0000000000
0.4400000000	0.0000000000	1.0000000000	0.0000000000	1.0000000000	0.0000000000	0.0000000000	58.3693697584	1.0000000000	491.0076710492	1.0000000000	0.0000000000	0.0000000000
0.4500000000	0.0000000000	1.0000000000	0.0000000000	1.0000000000	0.0000000000	0.0000000000	66.4802254947	1.0000000000	506.0551617682	1.0000000000	0.0000000000	0.0000000000
0.4600000000	0.0000000000	1.0000000000	0.0000000000	1.0000000000	0.0000000000	0.0000000000	74.7190170615	1.0000000000	519.6541930749	1.0000000000	0.0000000000	0.0000000000
0.4700000000	0.0000000000	1.0000000000	0.0000000000	1.0000000000	0.0000000000	0.0000000000	82.8570833262	1.0000000000	530.3145109592	1.0000000000	0.0000000000	0.0000000000
0.4800000000	0.0000000000	1.0000000000	0.0000000000	1.0000000000	0.0000000000	0.0000000000	90.9641621404	1.0000000000	537.0970697219	1.0000000000	0.0000000000	0.0000000000
0.4900000000	0.0000000000	1.0000000000	0.0000000000	1.0000000000	0.0000000000	0.0000000000	99.1801103066	1.0000000000	539.1097994804	1.0000000000	0.0000000000	0.0000000000
0.5000000000	8.7282306490	1.0000000000	6.4050625861	1.0000000000	0.0000000000	0.0000000000	107.1946701412	1.0000000000	535.0296468279	1.0000000000	0.0000000000	0.0000000000
0.5100000000	12.8620896739	1.0000000000	37.2888930020	1.0000000000	0.0000000000	0.0000000000	114.7865553550	1.0000000000	523.3031087266	1.0000000000	0.0000000000	0.0000000000
0.5200000000	13.9863606069	1.0000000000	90.4573191052	1.0000000000	0.0000000000	0.0000000000	121.4378561956	1.0000000000	502.4893777141	1.0000000000	0.0000000000	0.0000000000
0.5300000000	6.8576539082	1.0000000000	164.9542287025	1.0000000000	0.0000000000	0.0000000000	125.7338236850	1.0000000000	471.3380331210	1.0000000000	0.0000000000	0.0000000000
0.5400000000	-11.9026832534	1.0000000000	252.0948253423	1.0000000000	0.0000000000	0.0000000000	125.8405557439	1.0000000000	428.7740295389	1.0000000000	0.0000000000	0.0000000000
0.5500000000	-38.3993394773	1.0000000000	339.1583506918	1.0000000000	0.0000000000	0.0000000000	120.3629618190	1.0000000000	374.5746017482	1.0000000000	0.0000000000	0.0000000000
0.5600000000	-64.0094799411	1.0000000000	414.1574212267	1.0000000000	0.0000000000	0.0000000000	108.8134570355	1.0000000000	310.8885284026	1.0000000000	0.0000000000	0.0000000000
0.5700000000	-83.4145188221	1.0000000000	469.8220193904	1.0000000000	0.0000000000	0.0000000000	91.6282902345	1.0000000000	242.5345584870	1.0000000000	0.0000000000	0.0000000000
0.5800000000	-96.2009833801	1.0000000000	506.1305282309	1.0000000000	0.0000000000	0.0000000000	70.5900921250	1.0000000000	175.7194902755	1.0000000000	0.0000000000	0.0000000000
0.5900000000	-103.3075408909	1.0000000000	527.9756522475	1.0000000000	0.0000000000	0.0000000000	49.2090201983	1.0000000000	116.4186841540	1.0000000000	0.0000000000	0.0000000000
0.6000000000	-106.1333393988	1.0000000000	540.8699239763	1.0000000000	0.0000000000	0.0000000000	30.5003371081	1.0000000000	68.9719569390	1.0000000000	0.0000000000	0.0000000000
0.6100000000	-106.2341598184	1.0000000000	548.9363223936	1.0000000000	0.0000000000	0.0000000000	15.8558693058	1.0000000000	34.8584295957	1.0000000000	0.0000000000	0.0000000000
0.6200000000	-103.9451885971	1.0000000000	554.4739434401	1.0000000000	0.0000000000	0.0000000000	5.9865265807	1.0000000000	13.0147441466	1.0000000000	0.0000000000	0.0000000000
0.6300000000	-99.3088708153	1.0000000000	557.8222966922	1.0000000000	0.0000000000	0.0000000000	0.7143230038	1.0000000000	1.2150471423	1.0000000000	0.0000000000	0.0000000000
0.6400000000	-92.9158982167	1.0000000000	557.9974896995	1.0000000000	0.0000000000	0.0000000000	0.0000000000	1.0000000000	0.0000000000	1.0000000000	0.0000000000	0.0000000000
0.6500000000	-85.0978656908	1.0000000000	553.9883031868	1.0000000000	0.0000000000	0.0000000000	0.0000000000	1.0000000000	0.0000000000	1.0000000000	0.0000000000	0.0000000000
0.6600000000	-76.2345549452	1.0000000000	544.9909015043	1.0000000000	0.0000000000	0.0000000000	0.0000000000	1.0000000000	0.0000000000	1.0000000000	0.0000000000	0.0000000000
0.6700000000	-67.4130796120	1.0000000000	530.0391659537	1.0000000000	0.0000000000	0.0000000000	0.0000000000	1.0000000000	0.0000000000	1.0000000000	0.0000000000	0.0000000000
0.6800000000	-59.0258714886	1.0000000000	508.8775923700	1.0000000000	0.0000000000	0.0000000000	0.0000000000	1.0000000000	0.0000000000	1.0000000000	0.0000000000	0.0000000000
0.6900000000	-51.1062011239	1.0000000000	483.0509719283	1.0000000000	0.0000000000	0.0000000000	0.0000000000	1.0000000000	0.0000000000	1.0000000000	0.0000000000	0.0000000000
0.7000000000	-44.2240812026	1.0000000000	455.0496889576	1.0000000000	0.0000000000	0.0000000000	0.3928544974	1.0000000000	0.3062389824	1.0000000000	0.0000000000	0.0000000000
0.7100000000	-38.4028109049	1.0000000000	426.9772546740	1.0000000000	0.0000000000	0.0000000000	0.5225558774	1.0000000000	0.4603316157	1.0000000000	0.0000000000	0.0000000000
0.7200000000	-33.2706132865	1.0000000000	400.7612716136	1.0000000000	0.0000000000	0.0000000000	0.6334822367	1.0000000000	0.4915399266	1.0000000000	0.0000000000	0.0000000000
0.7300000000	-28.9665660820	1.0000000000	378.2040360528	1.0000000000	0.0000000000	0.0000000000	0.5634197722	1.0000000000	0.3744016467	1.0000000000	0.0000000000	0.0000000000
0.7400000000	-25.4040709940	1.0000000000	360.1824564752	1.0000000000	0.0000000000	0.0000000000	0.3425582125	1.0000000000	0.1904231316	1.0000000000	0.0000000000	0.0000000000
0.7500000000	-22.1763190175	1.0000000000	346.7544406380	1.0000000000	0.0000000000	0.0000000000	0.2135864764	1.0000000000	0.0689418516	1.0000000000	0.0000000000	0.0000000000
0.7600000000	-19.3552150158	1.0000000000	338.0116632217	1.0000000000	0.0000000000	0.0000000000	0.1793469695	1.0000000000	0.0156324087	1.0000000000	0.0000000000	0.0000000000
0.7700000000	-16.8233744910	1.0000000000	333.8939924734	1.0000000000	0.0000000000	0.0000000000	0.0000000000	1.0000000000	0.0000000000	1.0000000000	0.0000000000	0.0000000000
0.7800000000	-14.2210471046	1.0000000000	333.6588373873	1.0000000000	0.0000000000	0.0000000000	0.0000000000	1.0000000000	0.0000000000	1.0000000000	0.0000000000	0.0000000000
0.7900000000	-11.6845909701	1.0000000000	336.4399223335	1.0000000000	0.0000000000	0.0000000000	0.0000000000	1.0000000000	0.0000000000	1.0000000000	0.0000000000	0.0000000000
0.8000000000	-9.2153396821	1.0000000000	341.7343064414	1.0000000000	0.0000000000	0.0000000000	0.0000000000	1.0000000000	0.0000000000	1.0000000000	0.0000000000	0.0000000000
0.8100000000	-6.4904807577	1.0000000000	348.9748828623	1.0000000000	0.0000000000	0.0000000000	0.0000000000	1.0000000000	0.0000000000	1.0000000000	0.0000000000	0.0000000000
0.8200000000	-3.5872012784	1.0000000000	357.4811074673	1.0000000000	0.0000000000	0.0000000000	0.0000000000	1.0000000000	0.0000000000	1.0000000000	0.0000000000	0.0000000000
0.8300000000	-0.4981753534	1.0000000000	366.9466493185	1.0000000000	0.0000000000	0.0000000000	0.0000000000	1.0000000000	0.0000000000	1.0000000000	0.0000000000	0.0000000000
0.8400000000	3.1245387162	1.0000000000	377.1801415836	1.0000000000	0.0000000000	0.0000000000	0.0467050018	1.0000000000	0.0227381588	1.0000000000	0.0000000000	0.0000000000
0.8500000000	7.3307414523	1.0000000000	387.7027462000	1.0000000000	0.0000000000	0.0000000000	0.0689944942	1.0000000000	0.0616859822	1.0000000000	0.0000000000	0.0000000000
0.8600000000	12.1449200719	1.0000000000	398.2468839351	1.0000000000	0.0000000000	0.0000000000	0.1028277618	1.0000000000	0.0924489928	1.0000000000	0.0000000000	0.0000000000
0.8700000000	17.8685463107	1.0000000000	409.1961257725	1.0000000000	0.0000000000	0.0000000000	0.1251874650	1.0000000000	0.1553931366	1.0000000000	0.0000000000	0.0000000000
0.8800000000	24.4535667798	1.0000000000	421.1318941207	1.0000000000	0.0000000000	0.0000000000	0.1230596005	1.0000000000	0.2659424725	1.0000000000	0.0000000000	0.0000000000
0.8900000000	31.7230057390	1.0000000000	434.4616105907	1.0000000000	0.0000000000	0.0000000000	0.0688288962	1.0000000000	0.4035985260	1.0000000000	0.0000000000	0.0000000000
0.9000000000	39.5634738323	1.0000000000	449.5984227540	1.0000000000	0.0000000000	0.0000000000	-0.0257565413	1.0000000000	0.5079235501	1.0000000000	0.0000000000	0.0000000000
0.9100000000	47.5253471160	1.0000000000	466.7856647746	1.0000000000	0.0000000000	0.0000000000	-0.1488429267	1.0000000000	0.4400572908	1.0000000000	0.0000000000	0.0000000000
0.9200000000	55.1838729597	1.0000000000	485.5089936956	1.0000000000	0.0000000000	0.0000000000	0.0000000000	1.0000000000	0.0000000000	1.0000000000	0.0000000000	0.0000000000
0.9300000000	62.5048803926	1.0000000000	504.4597704760	1.0000000000	0.0000000000	0.0000000000	0.0000000000	1.0000000000	0.0000000000	1.0000000000	0.0000000000	0.0000000000
0.9400000000	69.3401741382	1.0000000000	522.1662160701	1.0000000000	0.0000000000	0.0000000000	0.0000000000	1.0000000000	0.0000000000	1.0000000000	0.0000000000	0.0000000000
0.9500000000	75.6055440399	1.0000000000	537.2402070908	1.0000000000	0.0000000000	0.0000000000	0.0000000000	1.0000000000	0.0000000000	1.0000000000	0.0000000000	0.0000000000
0.9600000000	81.5612676159	1.0000000000	548.1671713487	1.0000000000	0.0000000000	0.0000000000	0.0000000000	1.0000000000	0.0000000000	1.0000000000	0.0000000000	0.0000000000
0.9700000000	87.3050974113	1.0000000000	553.5011847659	1.0000000000	0.0000000000	0.0000000000	0.0000000000	1.0000000000	0.0000000000	1.0000000000	0.0000000000	0.0000000000
0.9800000000	92.7795786770	1.0000000000	552.1527765520	1.0000000000	0.0000000000	0.0000000000	0.0000000000	1.0000000000	0.0000000000	1.0000000000	0.0000000000	0.0000000000
0.9900000000	98.0533116755	1.0000000000	543.1478064413	1.0000000000	0.0000000000	0.0000000000	10.1757869492	1.0000000000	11.2378240336	1.0000000000	0.0000000000	0.0000000000
