name p7_grf_mean_speed_1.6
datacolumns 13
datarows 100
range 0.00000000 0.99000000
endheader
time	grf_x_l_mean	grf_x_l_var	grf_y_l_mean	grf_y_l_var	grf_z_l_mean	grf_z_l_var	grf_x_r_mean	grf_x_r_var	grf_y_r_mean	grf_y_r_var	grf_z_r_mean	grf_z_r_var
0.0000000000	116.0592860272	1.0000000000	563.8595549194	1.0000000000	0.0000000000	0.0000000000	10.7893354272	1.0000000000	11.4222285312	1.0000000000	0.0000000000	0.0000000000
0.0100000000	120.6699364236	1.0000000000	539.1827604528	1.0000000000	0.0000000000	0.0000000000	14.2751924859	1.0000000000	52.9342635791	1.0000000000	0.0000000000	0.0000000000
0.0200000000	123.1574541427	1.0000000000	502.9628290861	1.0000000000	0.0000000000	0.0000000000	13.4724975567	1.0000000000	121.7274391427	1.0000000000	0.0000000000	0.0000000000
0.0300000000	122.3258040533	1.0000000000	455.1912813521	1.0000000000	0.0000000000	0.0000000000	2.1318975042	1.0000000000	214.8468326019	1.0000000000	0.0000000000	0.0000000000
0.0400000000	116.3725019322	1.0000000000	396.9149880773	1.0000000000	0.0000000000	0.0000000000	-23.4744489537	1.0000000000	318.4316883253	1.0000000000	0.0000000000	0.0000000000
0.0500000000	104.8745311414	1.0000000000	330.7732497183	1.0000000000	0.0000000000	0.0000000000	-55.9227918749	1.0000000000	413.9788042833	1.0000000000	0.0000000000	0.0000000000
0.0600000000	89.5519783161	1.0000000000	261.4165570975	1.0000000000	0.0000000000	0.0000000000	-82.7863193793	1.0000000000	485.4347808379	1.0000000000	0.0000000000	0.0000000000
0.0700000000	71.7009951206	1.0000000000	193.9329443280	1.0000000000	0.0000000000	0.0000000000	-99.9719092379	1.0000000000	526.3684439600	1.0000000000	0.0000000000	0.0000000000
0.0800000000	52.4597420729	1.0000000000	133.0867428242	1.0000000000	0.0000000000	0.0000000000	-109.4986568453	1.0000000000	543.6437291024	1.0000000000	0.0000000000	0.0000000000
0.0900000000	35.2562809498	1.0000000000	83.1242208538	1.0000000000	0.0000000000	0.0000000000	-113.5847239817	1.0000000000	550.3075207965	1.0000000000	0.0000000000	0.0000000000
0.1000000000	21.2446305382	1.0000000000	46.0947196533	1.0000000000	0.0000000000	0.0000000000	-115.3043227696	1.0000000000	556.2209077646	1.0000000000	0.0000000000	0.0000000000
0.1100000000	9.8608387828	1.0000000000	21.0245863231	1.0000000000	0.0000000000	0.0000000000	-116.7601298236	1.0000000000	564.2577756348	1.0000000000	0.0000000000	0.0000000000
0.1200000000	2.6800282876	1.0000000000	5.7003215237	1.0000000000	0.0000000000	0.0000000000	-116.7327127742	1.0000000000	573.2604433413	1.0000000000	0.0000000000	0.0000000000
0.1300000000	0.0000000000	1.0000000000	0.0000000000	1.0000000000	0.0000000000	0.0000000000	-113.5240155061	1.0000000000	582.1277651022	1.0000000000	0.0000000000	0.0000000000
0.1400000000	0.0000000000	1.0000000000	0.0000000000	1.0000000000	0.0000000000	0.0000000000	-108.2068515631	1.0000000000	589.0772157604	1.0000000000	0.0000000000	0.0000000000
0.1500000000	0.0000000000	1.0000000000	0.0000000000	1.0000000000	0.0000000000	0.0000000000	-100.2957338218	1.0000000000	591.1561887452	1.0000000000	0.0000000000	0.0000000000
0.1600000000	0.0000000000	1.0000000000	0.0000000000	1.0000000000	0.0000000000	0.0000000000	-89.5676897739	1.0000000000	585.9966938514	1.0000000000	0.0000000000	0.0000000000
0.1700000000	0.0000000000	1.0000000000	0.0000000000	1.0000000000	0.0000000000	0.0000000000	-78.0438619151	1.0000000000	572.7623113823	1.0000000000	0.0000000000	0.0000000000
0.1800000000	0.0000000000	1.0000000000	0.0000000000	1.0000000000	0.0000000000	0.0000000000	-67.3093179086	1.0000000000	551.5115129835	1.0000000000	0.0000000000	0.0000000000
0.1900000000	-0.0992645642	1.0000000000	0.2167395538	1.0000000000	0.0000000000	0.0000000000	-57.0914789550	1.0000000000	522.8874460058	1.0000000000	0.0000000000	0.0000000000
0.2000000000	0.2186587476	1.0000000000	0.4535660916	1.0000000000	0.0000000000	0.0000000000	-48.3637970686	1.0000000000	488.7460279560	1.0000000000	0.0000000000	0.0000000000
0.2100000000	0.0581649291	1.0000000000	0.4108041871	1.0000000000	0.0000000000	0.0000000000	-41.5310916996	1.0000000000	451.8783934330	1.0000000000	0.0000000000	0.0000000000
0.2200000000	0.4195281195	1.0000000000	0.3145816724	1.0000000000	0.0000000000	0.0000000000	-35.3844837529	1.0000000000	415.8728848832	1.0000000000	0.0000000000	0.0000000000
0.2300000000	0.6759248412	1.0000000000	0.1845734655	1.0000000000	0.0000000000	0.0000000000	-29.7958678528	1.0000000000	383.9592768443	1.0000000000	0.0000000000	0.0000000000
0.2400000000	0.2830520063	1.0000000000	0.0210203616	1.0000000000	0.0000000000	0.0000000000	-25.2989800781	1.0000000000	357.3312584388	1.0000000000	0.0000000000	0.0000000000
0.2500000000	0.0000000000	1.0000000000	0.0000000000	1.0000000000	0.0000000000	0.0000000000	-21.0293709675	1.0000000000	335.9000710266	1.0000000000	0.0000000000	0.0000000000
0.2600000000	0.0000000000	1.0000000000	0.0000000000	1.0000000000	0.0000000000	0.0000000000	-16.9033006013	1.0000000000	319.8718495514	1.0000000000	0.0000000000	0.0000000000
0.2700000000	0.0000000000	1.0000000000	0.0000000000	1.0000000000	0.0000000000	0.0000000000	-13.7456512364	1.0000000000	309.6058818592	1.0000000000	0.0000000000	0.0000000000
0.2800000000	-0.0627043053	1.0000000000	0.0569204097	1.0000000000	0.0000000000	0.0000000000	-11.0678337012	1.0000000000	304.4232038445	1.0000000000	0.0000000000	0.0000000000
0.2900000000	0.5019573131	1.0000000000	0.1893883911	1.0000000000	0.0000000000	0.0000000000	-8.5552095707	1.0000000000	302.9699778220	1.0000000000	0.0000000000	0.0000000000
0.3000000000	0.3085953986	1.0000000000	0.2682300438	1.0000000000	0.0000000000	0.0000000000	-6.4032435468	1.0000000000	304.3338745700	1.0000000000	0.0000000000	0.0000000000
0.3100000000	-0.0691483990	1.0000000000	0.2584736540	1.0000000000	0.0000000000	0.0000000000	-4.3186865897	1.0000000000	308.3159552585	1.0000000000	0.0000000000	0.0000000000
0.3200000000	-0.0440838517	1.0000000000	0.2490223089	1.0000000000	0.0000000000	0.0000000000	-1.8947607741	1.0000000000	314.8924138243	1.0000000000	0.0000000000	0.0000000000
0.3300000000	-0.1678545661	1.0000000000	0.2995799823	1.0000000000	0.0000000000	0.0000000000	0.4282835526	1.0000000000	323.5202347363	1.0000000000	0.0000000000	0.0000000000
0.3400000000	-0.3321018009	1.0000000000	0.2951147778	1.0000000000	0.0000000000	0.0000000000	3.0106692544	1.0000000000	333.4157940985	1.0000000000	0.0000000000	0.0000000000
0.3500000000	-0.0458285995	1.0000000000	0.1400597824	1.0000000000	0.0000000000	0.0000000000	6.3500776810	1.0000000000	344.3165028149	1.0000000000	0.0000000000	0.0000000000
0.3600000000	0.0519985471	1.0000000000	0.0443607732	1.0000000000	0.0000000000	0.0000000000	10.0643714777	1.0000000000	356.4744944347	1.0000000000	0.0000000000	0.0000000000
0.3700000000	-0.1339960659	1.0000000000	0.0920651376	1.0000000000	0.0000000000	0.0000000000	14.2269326907	1.0000000000	370.0666355961	1.0000000000	0.0000000000	0.0000000000
0.3800000000	-0.0540321352	1.0000000000	0.1604596798	1.0000000000	0.0000000000	0.0000000000	19.3592101173	1.0000000000	385.0445415597	1.0000000000	0.0000000000	0.0000000000
0.3900000000	-0.0470472006	1.0000000000	0.2723785285	1.0000000000	0.0000000000	0.0000000000	25.2325768780	1.0000000000	401.3700835506	1.0000000000	0.0000000000	0.0000000000
0.4000000000	-0.3211831554	1.0000000000	0.4393462813	1.0000000000	0.0000000000	0.0000000000	31.8312702813	1.0000000000	419.0087338975	1.0000000000	0.0000000000	0.0000000000
0.4100000000	-0.3386548459	1.0000000000	0.5520045185	1.0000000000	0.0000000000	0.0000000000	39.5284620875	1.0000000000	438.0670653397	1.0000000000	0.0000000000	0.0000000000
0.4200000000	-0.2321626778	1.0000000000	0.4905332288	1.0000000000	0.0000000000	0.0000000000	47.9987907789	1.0000000000	458.6795162168	1.0000000000	0.0000000000	0.0000000000
0.4300000000	-0.4583980727	1.0000000000	0.0723185329	1.0000000000	0.0000000000	0.0000000000	56.9855262988	1.0000000000	480.2567629029	1.0000000000	0.0000000000	0.0000000000
0.4400000000	0.0000000000	1.0000000000	0.0000000000	1.0000000000	0.0000000000	0.0000000000	66.7334896369	1.0000000000	501.4471027635	1.0000000000	0.0000000000	0.0000000000
0.4500000000	0.0000000000	1.0000000000	0.0000000000	1.0000000000	0.0000000000	0.0000000000	76.8767469212	1.0000000000	521.1699660552	1.0000000000	0.0000000000	0.0000000000
0.4600000000	0.0000000000	1.0000000000	0.0000000000	1.0000000000	0.0000000000	0.0000000000	86.8848938724	1.0000000000	538.7506678706	1.0000000000	0.0000000000	0.0000000000
0.4700000000	0.0000000000	1.0000000000	0.0000000000	1.0000000000	0.0000000000	0.0000000000	97.0852876044	1.0000000000	552.8278818070	1.0000000000	0.0000000000	0.0000000000
0.4800000000	0.0000000000	1.0000000000	0.0000000000	1.0000000000	0.0000000000	0.0000000000	107.4280891423	1.0000000000	561.3909468418	1.0000000000	0.0000000000	0.0000000000
0.4900000000	0.0000000000	1.0000000000	0.0000000000	1.0000000000	0.0000000000	0.0000000000	117.3769546433	1.0000000000	562.8450165795	1.0000000000	0.0000000000	0.0000000000
0.5000000000	9.0284044296	1.0000000000	2.2237279096	1.0000000000	0.0000000000	0.0000000000	126.7971886449	1.0000000000	556.0824449723	1.0000000000	0.0000000000	0.0000000000
0.5100000000	12.9474266208	1.0000000000	31.7789788486	1.0000000000	0.0000000000	0.0000000000	135.1693009829	1.0000000000	539.8055579622	1.0000000000	0.0000000000	0.0000000000
0.5200000000	13.9237963893	1.0000000000	84.9071331856	1.0000000000	0.0000000000	0.0000000000	141.1465392279	1.0000000000	512.5355686506	1.0000000000	0.0000000000	0.0000000000
0.5300000000	7.1490536274	1.0000000000	162.6742907682	1.0000000000	0.0000000000	0.0000000000	143.5023799904	1.0000000000	473.2069146808	1.0000000000	0.0000000000	0.0000000000
0.5400000000	-11.7549252916	1.0000000000	257.6892586160	1.0000000000	0.0000000000	0.0000000000	140.5985514305	1.0000000000	421.6967371161	1.0000000000	0.0000000000	0.0000000000
0.5500000000	-41.2944868483	1.0000000000	356.5497234804	1.0000000000	0.0000000000	0.0000000000	130.5450013770	1.0000000000	359.4613855926	1.0000000000	0.0000000000	0.0000000000
0.5600000000	-72.0008860144	1.0000000000	444.7730947432	1.0000000000	0.0000000000	0.0000000000	113.8221824278	1.0000000000	290.2650862820	1.0000000000	0.0000000000	0.0000000000
0.5700000000	-95.3103820579	1.0000000000	511.0572831879	1.0000000000	0.0000000000	0.0000000000	92.7528319922	1.0000000000	219.6518495691	1.0000000000	0.0000000000	0.0000000000
0.5800000000	-110.3146791252	1.0000000000	552.3575663856	1.0000000000	0.0000000000	0.0000000000	69.4048788476	1.0000000000	153.4037446940	1.0000000000	0.0000000000	0.0000000000
0.5900000000	-118.6753933714	1.0000000000	574.0668472504	1.0000000000	0.0000000000	0.0000000000	47.0870070581	1.0000000000	96.6599177459	1.0000000000	0.0000000000	0.0000000000
0.6000000000	-121.4971566483	1.0000000000	584.2509843160	1.0000000000	0.0000000000	0.0000000000	28.9001557816	1.0000000000	53.1514901599	1.0000000000	0.0000000000	0.0000000000
0.6100000000	-121.0569377881	1.0000000000	588.9109620622	1.0000000000	0.0000000000	0.0000000000	14.9469311752	1.0000000000	23.8711194181	1.0000000000	0.0000000000	0.0000000000
0.6200000000	-118.6392143297	1.0000000000	591.1117173065	1.0000000000	0.0000000000	0.0000000000	5.3242646524	1.0000000000	6.6074954867	1.0000000000	0.0000000000	0.0000000000
0.6300000000	-113.4007705114	1.0000000000	591.7314445183	1.0000000000	0.0000000000	0.0000000000	0.0000000000	1.0000000000	0.0000000000	1.0000000000	0.0000000000	0.0000000000
0.6400000000	-105.9086688669	1.0000000000	589.8608786117	1.0000000000	0.0000000000	0.0000000000	0.0000000000	1.0000000000	0.0000000000	1.0000000000	0.0000000000	0.0000000000
0.6500000000	-97.1426581542	1.0000000000	583.8341128356	1.0000000000	0.0000000000	0.0000000000	0.0000000000	1.0000000000	0.0000000000	1.0000000000	0.0000000000	0.0000000000
0.6600000000	-86.7224742364	1.0000000000	572.5923854275	1.0000000000	0.0000000000	0.0000000000	0.0000000000	1.0000000000	0.0000000000	1.0000000000	0.0000000000	0.0000000000
0.6700000000	-75.5907173845	1.0000000000	555.4477199481	1.0000000000	0.0000000000	0.0000000000	0.0000000000	1.0000000000	0.0000000000	1.0000000000	0.0000000000	0.0000000000
0.6800000000	-65.4340436008	1.0000000000	531.6886336496	1.0000000000	0.0000000000	0.0000000000	0.0000000000	1.0000000000	0.0000000000	1.0000000000	0.0000000000	0.0000000000
0.6900000000	-55.8676221654	1.0000000000	501.7521024915	1.0000000000	0.0000000000	0.0000000000	1.0816664382	1.0000000000	0.0758201115	1.0000000000	0.0000000000	0.0000000000
0.7000000000	-46.9933534112	1.0000000000	468.0277445958	1.0000000000	0.0000000000	0.0000000000	1.2628168626	1.0000000000	0.2492570485	1.0000000000	0.0000000000	0.0000000000
0.7100000000	-39.8870949921	1.0000000000	433.3253039368	1.0000000000	0.0000000000	0.0000000000	0.8895148575	1.0000000000	0.4100100320	1.0000000000	0.0000000000	0.0000000000
0.7200000000	-33.9573624436	1.0000000000	399.6103723999	1.0000000000	0.0000000000	0.0000000000	0.7047556786	1.0000000000	0.6431002021	1.0000000000	0.0000000000	0.0000000000
0.7300000000	-28.6213277126	1.0000000000	368.7798165352	1.0000000000	0.0000000000	0.0000000000	1.0460893402	1.0000000000	0.7241753389	1.0000000000	0.0000000000	0.0000000000
0.7400000000	-24.4390990172	1.0000000000	342.8395317791	1.0000000000	0.0000000000	0.0000000000	0.9407649191	1.0000000000	0.5170725485	1.0000000000	0.0000000000	0.0000000000
0.7500000000	-21.0670321278	1.0000000000	322.7441786140	1.0000000000	0.0000000000	0.0000000000	0.5558732667	1.0000000000	0.3218340023	1.0000000000	0.0000000000	0.0000000000
0.7600000000	-17.7762832175	1.0000000000	308.2806365717	1.0000000000	0.0000000000	0.0000000000	0.5198892868	1.0000000000	0.3002143556	1.0000000000	0.0000000000	0.0000000000
0.7700000000	-15.2051559037	1.0000000000	299.2354495087	1.0000000000	0.0000000000	0.0000000000	0.4467638014	1.0000000000	0.0765003810	1.0000000000	0.0000000000	0.0000000000
0.7800000000	-13.1539621075	1.0000000000	295.5143243371	1.0000000000	0.0000000000	0.0000000000	0.0000000000	1.0000000000	0.0000000000	1.0000000000	0.0000000000	0.0000000000
0.7900000000	-10.7665251521	1.0000000000	296.2957557835	1.0000000000	0.0000000000	0.0000000000	0.0000000000	1.0000000000	0.0000000000	1.0000000000	0.0000000000	0.0000000000
0.8000000000	-8.5425782505	1.0000000000	300.3660076828	1.0000000000	0.0000000000	0.0000000000	0.0000000000	1.0000000000	0.0000000000	1.0000000000	0.0000000000	0.0000000000
0.8100000000	-6.5873794854	1.0000000000	307.1110044954	1.0000000000	0.0000000000	0.0000000000	0.0000000000	1.0000000000	0.0000000000	1.0000000000	0.0000000000	0.0000000000
0.8200000000	-3.9359291244	1.0000000000	316.1993460490	1.0000000000	0.0000000000	0.0000000000	0.0000000000	1.0000000000	0.0000000000	1.0000000000	0.0000000000	0.0000000000
0.8300000000	-0.7229753174	1.0000000000	326.9475529348	1.0000000000	0.0000000000	0.0000000000	0.0000000000	1.0000000000	0.0000000000	1.0000000000	0.0000000000	0.0000000000
0.8400000000	2.8239521121	1.0000000000	338.8917918267	1.0000000000	0.0000000000	0.0000000000	0.2562828198	1.0000000000	0.1619721187	1.0000000000	0.0000000000	0.0000000000
0.8500000000	7.5600309026	1.0000000000	352.0964969360	1.0000000000	0.0000000000	0.0000000000	0.2559279781	1.0000000000	0.4672152023	1.0000000000	0.0000000000	0.0000000000
0.8600000000	13.6065608399	1.0000000000	366.4973623222	1.0000000000	0.0000000000	0.0000000000	0.4532810515	1.0000000000	0.6069519136	1.0000000000	0.0000000000	0.0000000000
0.8700000000	20.4753888583	1.0000000000	381.9643127110	1.0000000000	0.0000000000	0.0000000000	0.4957561777	1.0000000000	0.6519891571	1.0000000000	0.0000000000	0.0000000000
0.8800000000	28.4906008675	1.0000000000	399.2258512008	1.0000000000	0.0000000000	0.0000000000	0.4231467737	1.0000000000	0.7449688439	1.0000000000	0.0000000000	0.0000000000
0.8900000000	37.4538152883	1.0000000000	419.4883489407	1.0000000000	0.0000000000	0.0000000000	0.2610254511	1.0000000000	0.8879647689	1.0000000000	0.0000000000	0.0000000000
0.9000000000	46.3531750390	1.0000000000	442.9135520347	1.0000000000	0.0000000000	0.0000000000	-0.1025952569	1.0000000000	0.9244661487	1.0000000000	0.0000000000	0.0000000000
0.9100000000	55.1478387611	1.0000000000	468.5280297291	1.0000000000	0.0000000000	0.0000000000	-0.4072298591	1.0000000000	0.6448329940	1.0000000000	0.0000000000	0.0000000000
0.9200000000	63.8592186848	1.0000000000	495.2037332021	1.0000000000	0.0000000000	0.0000000000	0.0000000000	1.0000000000	0.0000000000	1.0000000000	0.0000000000	0.0000000000
0.9300000000	71.9598004189	1.0000000000	521.5190800870	1.0000000000	0.0000000000	0.0000000000	0.0000000000	1.0000000000	0.0000000000	1.0000000000	0.0000000000	0.0000000000
0.9400000000	79.7427166254	1.0000000000	545.1893044327	1.0000000000	0.0000000000	0.0000000000	0.0000000000	1.0000000000	0.0000000000	1.0000000000	0.0000000000	0.0000000000
0.9500000000	87.7204286629	1.0000000000	563.9023387588	1.0000000000	0.0000000000	0.0000000000	0.0000000000	1.0000000000	0.0000000000	1.0000000000	0.0000000000	0.0000000000
0.9600000000	95.4317076145	1.0000000000	576.3259462377	1.0000000000	0.0000000000	0.0000000000	0.0000000000	1.0000000000	0.0000000000	1.0000000000	0.0000000000	0.0000000000
0.9700000000	102.7327006633	1.0000000000	581.4643147578	1.0000000000	0.0000000000	0.0000000000	0.0000000000	1.0000000000	0.0000000000	1.0000000000	0.0000000000	0.0000000000
0.9800000000	109.8486645032	1.0000000000	577.8884711006	1.0000000000	0.0000000000	0.0000000000	0.0000000000	1.0000000000	0.0000000000	1.0000000000	0.0000000000	0.0000000000
0.9900000000	116.1153125459	1.0000000000	564.1898689302	1.0000000000	0.0000000000	0.0000000000	10.8460979638	1.0000000000	11.4213900691	1.0000000000	0.0000000000	0.0000000000
