name p8_grf_mean_speed_1.4
datacolumns 13
datarows 100
range 0.00000000 0.99000000
endheader
time	grf_x_l_mean	grf_x_l_var	grf_y_l_mean	grf_y_l_var	grf_z_l_mean	grf_z_l_var	grf_x_r_mean	grf_x_r_var	grf_y_r_mean	grf_y_r_var	grf_z_r_mean	grf_z_r_var
0.0000000000	149.3714296134	1.0000000000	664.4997158777	1.0000000000	0.0000000000	0.0000000000	4.7230924948	1.0000000000	11.2618771176	1.0000000000	0.0000000000	0.0000000000
0.0100000000	159.3073365268	1.0000000000	646.7341153721	1.0000000000	0.0000000000	0.0000000000	4.6734775693	1.0000000000	49.1199580366	1.0000000000	0.0000000000	0.0000000000
0.0200000000	166.6530954729	1.0000000000	618.2426717591	1.0000000000	0.0000000000	0.0000000000	1.0452124107	1.0000000000	111.4944297024	1.0000000000	0.0000000000	0.0000000000
0.0300000000	170.0723853222	1.0000000000	577.6675275151	1.0000000000	0.0000000000	0.0000000000	-10.0618328592	1.0000000000	195.5710543299	1.0000000000	0.0000000000	0.0000000000
0.0400000000	166.9076217333	1.0000000000	523.7157138871	1.0000000000	0.0000000000	0.0000000000	-30.2466665148	1.0000000000	291.6454961820	1.0000000000	0.0000000000	0.0000000000
0.0500000000	155.6766316017	1.0000000000	456.4526385712	1.0000000000	0.0000000000	0.0000000000	-54.6775097179	1.0000000000	387.7117646834	1.0000000000	0.0000000000	0.0000000000
0.0600000000	136.3995988308	1.0000000000	378.8605306199	1.0000000000	0.0000000000	0.0000000000	-78.4488660966	1.0000000000	474.8781747852	1.0000000000	0.0000000000	0.0000000000
0.0700000000	109.1290488262	1.0000000000	297.0952448197	1.0000000000	0.0000000000	0.0000000000	-99.4402827902	1.0000000000	548.8498062183	1.0000000000	0.0000000000	0.0000000000
0.0800000000	78.2879956404	1.0000000000	218.7295147308	1.0000000000	0.0000000000	0.0000000000	-116.8266486439	1.0000000000	610.2720504770	1.0000000000	0.0000000000	0.0000000000
0.0900000000	49.6130466539	1.0000000000	150.7871919816	1.0000000000	0.0000000000	0.0000000000	-129.8337268222	1.0000000000	662.6689948351	1.0000000000	0.0000000000	0.0000000000
0.1000000000	27.0315732362	1.0000000000	97.2075876537	1.0000000000	0.0000000000	0.0000000000	-138.9553063456	1.0000000000	708.1876287058	1.0000000000	0.0000000000	0.0000000000
0.1100000000	11.8969699262	1.0000000000	57.9113000869	1.0000000000	0.0000000000	0.0000000000	-144.0109414781	1.0000000000	746.3277716985	1.0000000000	0.0000000000	0.0000000000
0.1200000000	3.3306753737	1.0000000000	30.8887609539	1.0000000000	0.0000000000	0.0000000000	-144.1617514599	1.0000000000	775.5005499148	1.0000000000	0.0000000000	0.0000000000
0.1300000000	-1.0026031136	1.0000000000	13.7922787811	1.0000000000	0.0000000000	0.0000000000	-140.3490246271	1.0000000000	795.1542057247	1.0000000000	0.0000000000	0.0000000000
0.1400000000	-2.7233244158	1.0000000000	4.2675779221	1.0000000000	0.0000000000	0.0000000000	-133.6257730390	1.0000000000	805.7934719300	1.0000000000	0.0000000000	0.0000000000
0.1500000000	0.0000000000	1.0000000000	0.0000000000	1.0000000000	0.0000000000	0.0000000000	-124.1608682718	1.0000000000	807.7562404909	1.0000000000	0.0000000000	0.0000000000
0.1600000000	0.0000000000	1.0000000000	0.0000000000	1.0000000000	0.0000000000	0.0000000000	-113.0772045892	1.0000000000	801.7067210695	1.0000000000	0.0000000000	0.0000000000
0.1700000000	0.0000000000	1.0000000000	0.0000000000	1.0000000000	0.0000000000	0.0000000000	-101.4577414348	1.0000000000	788.6366768047	1.0000000000	0.0000000000	0.0000000000
0.1800000000	0.0000000000	1.0000000000	0.0000000000	1.0000000000	0.0000000000	0.0000000000	-89.3655562122	1.0000000000	769.4605240024	1.0000000000	0.0000000000	0.0000000000
0.1900000000	0.0000000000	1.0000000000	0.0000000000	1.0000000000	0.0000000000	0.0000000000	-77.5370612728	1.0000000000	744.9409438951	1.0000000000	0.0000000000	0.0000000000
0.2000000000	0.0000000000	1.0000000000	0.0000000000	1.0000000000	0.0000000000	0.0000000000	-66.4797834693	1.0000000000	715.8800008165	1.0000000000	0.0000000000	0.0000000000
0.2100000000	-0.0055751042	1.0000000000	0.0789728405	1.0000000000	0.0000000000	0.0000000000	-56.1331236642	1.0000000000	683.5418287769	1.0000000000	0.0000000000	0.0000000000
0.2200000000	-0.0403823272	1.0000000000	0.0949334600	1.0000000000	0.0000000000	0.0000000000	-46.6551959805	1.0000000000	649.5133889681	1.0000000000	0.0000000000	0.0000000000
0.2300000000	-0.0288987791	1.0000000000	0.0794499621	1.0000000000	0.0000000000	0.0000000000	-38.5185524735	1.0000000000	615.4873972480	1.0000000000	0.0000000000	0.0000000000
0.2400000000	0.0598904548	1.0000000000	0.0882017016	1.0000000000	0.0000000000	0.0000000000	-31.2267061214	1.0000000000	583.1035436355	1.0000000000	0.0000000000	0.0000000000
0.2500000000	0.0930564705	1.0000000000	0.1187285722	1.0000000000	0.0000000000	0.0000000000	-24.7543258722	1.0000000000	553.6622485238	1.0000000000	0.0000000000	0.0000000000
0.2600000000	-0.0650265825	1.0000000000	0.1195152984	1.0000000000	0.0000000000	0.0000000000	-19.1811180172	1.0000000000	527.7634563572	1.0000000000	0.0000000000	0.0000000000
0.2700000000	-0.1872840624	1.0000000000	0.0826818873	1.0000000000	0.0000000000	0.0000000000	-14.2029333933	1.0000000000	505.9500035486	1.0000000000	0.0000000000	0.0000000000
0.2800000000	-0.2015116232	1.0000000000	0.0351076976	1.0000000000	0.0000000000	0.0000000000	-9.6404198687	1.0000000000	488.8676156081	1.0000000000	0.0000000000	0.0000000000
0.2900000000	0.0000000000	1.0000000000	0.0000000000	1.0000000000	0.0000000000	0.0000000000	-5.5459128327	1.0000000000	476.3616719094	1.0000000000	0.0000000000	0.0000000000
0.3000000000	0.0000000000	1.0000000000	0.0000000000	1.0000000000	0.0000000000	0.0000000000	-1.5385779860	1.0000000000	467.8490868611	1.0000000000	0.0000000000	0.0000000000
0.3100000000	0.0000000000	1.0000000000	0.0000000000	1.0000000000	0.0000000000	0.0000000000	2.4034417052	1.0000000000	463.2796983982	1.0000000000	0.0000000000	0.0000000000
0.3200000000	0.0000000000	1.0000000000	0.0000000000	1.0000000000	0.0000000000	0.0000000000	6.2587038573	1.0000000000	462.6638224456	1.0000000000	0.0000000000	0.0000000000
0.3300000000	0.0000000000	1.0000000000	0.0000000000	1.0000000000	0.0000000000	0.0000000000	10.2932446566	1.0000000000	465.4041330427	1.0000000000	0.0000000000	0.0000000000
0.3400000000	0.0000000000	1.0000000000	0.0000000000	1.0000000000	0.0000000000	0.0000000000	14.6640271676	1.0000000000	470.8857937086	1.0000000000	0.0000000000	0.0000000000
0.3500000000	0.0000000000	1.0000000000	0.0000000000	1.0000000000	0.0000000000	0.0000000000	19.1796019893	1.0000000000	478.8915467856	1.0000000000	0.0000000000	0.0000000000
0.3600000000	0.0000000000	1.0000000000	0.0000000000	1.0000000000	0.0000000000	0.0000000000	24.0838552693	1.0000000000	489.2867817886	1.0000000000	0.0000000000	0.0000000000
0.3700000000	-0.0233332977	1.0000000000	0.0578910515	1.0000000000	0.0000000000	0.0000000000	29.4528084824	1.0000000000	501.8972246799	1.0000000000	0.0000000000	0.0000000000
0.3800000000	-0.0548835752	1.0000000000	0.1745952167	1.0000000000	0.0000000000	0.0000000000	35.2218624204	1.0000000000	516.4394693756	1.0000000000	0.0000000000	0.0000000000
0.3900000000	-0.1019878609	1.0000000000	0.3404726681	1.0000000000	0.0000000000	0.0000000000	41.6781457302	1.0000000000	532.4661537161	1.0000000000	0.0000000000	0.0000000000
0.4000000000	-0.1309408847	1.0000000000	0.5037797967	1.0000000000	0.0000000000	0.0000000000	49.0186458518	1.0000000000	549.5816327801	1.0000000000	0.0000000000	0.0000000000
0.4100000000	-0.1507344948	1.0000000000	0.5469771408	1.0000000000	0.0000000000	0.0000000000	57.2164071103	1.0000000000	567.5331810182	1.0000000000	0.0000000000	0.0000000000
0.4200000000	-0.1546485395	1.0000000000	0.2616556942	1.0000000000	0.0000000000	0.0000000000	66.3829890802	1.0000000000	585.7959380456	1.0000000000	0.0000000000	0.0000000000
0.4300000000	0.0000000000	1.0000000000	0.0000000000	1.0000000000	0.0000000000	0.0000000000	76.5432532593	1.0000000000	603.4824216861	1.0000000000	0.0000000000	0.0000000000
0.4400000000	0.0000000000	1.0000000000	0.0000000000	1.0000000000	0.0000000000	0.0000000000	87.4906241392	1.0000000000	619.8323796117	1.0000000000	0.0000000000	0.0000000000
0.4500000000	0.0000000000	1.0000000000	0.0000000000	1.0000000000	0.0000000000	0.0000000000	99.2772159619	1.0000000000	634.2381887220	1.0000000000	0.0000000000	0.0000000000
0.4600000000	0.0000000000	1.0000000000	0.0000000000	1.0000000000	0.0000000000	0.0000000000	111.8253857387	1.0000000000	645.7613546690	1.0000000000	0.0000000000	0.0000000000
0.4700000000	0.0000000000	1.0000000000	0.0000000000	1.0000000000	0.0000000000	0.0000000000	124.7654986381	1.0000000000	653.0462222636	1.0000000000	0.0000000000	0.0000000000
0.4800000000	0.0000000000	1.0000000000	0.0000000000	1.0000000000	0.0000000000	0.0000000000	137.9520807074	1.0000000000	654.6637287627	1.0000000000	0.0000000000	0.0000000000
0.4900000000	0.0000000000	1.0000000000	0.0000000000	1.0000000000	0.0000000000	0.0000000000	150.9767040040	1.0000000000	649.1819140918	1.0000000000	0.0000000000	0.0000000000
0.5000000000	0.5713074402	1.0000000000	29.2767711149	1.0000000000	0.0000000000	0.0000000000	162.8464175633	1.0000000000	635.0185837934	1.0000000000	0.0000000000	0.0000000000
0.5100000000	-3.8438159116	1.0000000000	84.2311148284	1.0000000000	0.0000000000	0.0000000000	172.3959028592	1.0000000000	610.3220411035	1.0000000000	0.0000000000	0.0000000000
0.5200000000	-13.5786356598	1.0000000000	166.6341853804	1.0000000000	0.0000000000	0.0000000000	177.9102587149	1.0000000000	573.1889595242	1.0000000000	0.0000000000	0.0000000000
0.5300000000	-31.9713524134	1.0000000000	268.8731493004	1.0000000000	0.0000000000	0.0000000000	176.7796539424	1.0000000000	522.2615453118	1.0000000000	0.0000000000	0.0000000000
0.5400000000	-58.2132703798	1.0000000000	376.0780017176	1.0000000000	0.0000000000	0.0000000000	166.5201554058	1.0000000000	457.5084267009	1.0000000000	0.0000000000	0.0000000000
0.5500000000	-86.5703718468	1.0000000000	474.4788371309	1.0000000000	0.0000000000	0.0000000000	146.9843796582	1.0000000000	381.5590024330	1.0000000000	0.0000000000	0.0000000000
0.5600000000	-112.3974915214	1.0000000000	556.7485887792	1.0000000000	0.0000000000	0.0000000000	119.7832098726	1.0000000000	300.5325212019	1.0000000000	0.0000000000	0.0000000000
0.5700000000	-133.6463214824	1.0000000000	622.1540671710	1.0000000000	0.0000000000	0.0000000000	88.7597269102	1.0000000000	222.1729848474	1.0000000000	0.0000000000	0.0000000000
0.5800000000	-149.0728019865	1.0000000000	674.4417433002	1.0000000000	0.0000000000	0.0000000000	59.8472901551	1.0000000000	153.2266229508	1.0000000000	0.0000000000	0.0000000000
0.5900000000	-158.1661445229	1.0000000000	717.9189587169	1.0000000000	0.0000000000	0.0000000000	36.5165269440	1.0000000000	98.0352716276	1.0000000000	0.0000000000	0.0000000000
0.6000000000	-161.7188087749	1.0000000000	754.6521462111	1.0000000000	0.0000000000	0.0000000000	19.4047626263	1.0000000000	57.7377157371	1.0000000000	0.0000000000	0.0000000000
0.6100000000	-160.0015879515	1.0000000000	783.9740342594	1.0000000000	0.0000000000	0.0000000000	8.2014778316	1.0000000000	30.5405852547	1.0000000000	0.0000000000	0.0000000000
0.6200000000	-153.7396928299	1.0000000000	804.5608913628	1.0000000000	0.0000000000	0.0000000000	2.0491189039	1.0000000000	13.6602642735	1.0000000000	0.0000000000	0.0000000000
0.6300000000	-144.5623479997	1.0000000000	816.0868503018	1.0000000000	0.0000000000	0.0000000000	-0.8987014992	1.0000000000	4.6699416186	1.0000000000	0.0000000000	0.0000000000
0.6400000000	-133.2099458943	1.0000000000	818.6021315497	1.0000000000	0.0000000000	0.0000000000	-2.0298293444	1.0000000000	1.0148995870	1.0000000000	0.0000000000	0.0000000000
0.6500000000	-120.3909716050	1.0000000000	812.3851234164	1.0000000000	0.0000000000	0.0000000000	-2.0899492951	1.0000000000	0.2642273065	1.0000000000	0.0000000000	0.0000000000
0.6600000000	-107.4175744637	1.0000000000	798.2737814309	1.0000000000	0.0000000000	0.0000000000	-1.7155863623	1.0000000000	0.6984729119	1.0000000000	0.0000000000	0.0000000000
0.6700000000	-94.4865974558	1.0000000000	777.3453402117	1.0000000000	0.0000000000	0.0000000000	-1.2403452778	1.0000000000	1.3768131350	1.0000000000	0.0000000000	0.0000000000
0.6800000000	-81.5732779839	1.0000000000	750.4918142899	1.0000000000	0.0000000000	0.0000000000	-0.7991131971	1.0000000000	1.8726677756	1.0000000000	0.0000000000	0.0000000000
0.6900000000	-69.4820763610	1.0000000000	718.8815503542	1.0000000000	0.0000000000	0.0000000000	-0.5811632005	1.0000000000	2.0595933046	1.0000000000	0.0000000000	0.0000000000
0.7000000000	-58.3902350365	1.0000000000	684.1093755870	1.0000000000	0.0000000000	0.0000000000	-0.5731737419	1.0000000000	1.9905311881	1.0000000000	0.0000000000	0.0000000000
0.7100000000	-48.1399457307	1.0000000000	647.6393454325	1.0000000000	0.0000000000	0.0000000000	-0.5878279616	1.0000000000	1.7767828473	1.0000000000	0.0000000000	0.0000000000
0.7200000000	-39.2811623651	1.0000000000	611.0607573127	1.0000000000	0.0000000000	0.0000000000	-0.5458502874	1.0000000000	1.5218606260	1.0000000000	0.0000000000	0.0000000000
0.7300000000	-31.7498072759	1.0000000000	576.3644405316	1.0000000000	0.0000000000	0.0000000000	-0.4050998978	1.0000000000	1.3080878213	1.0000000000	0.0000000000	0.0000000000
0.7400000000	-24.9382765657	1.0000000000	545.2361055256	1.0000000000	0.0000000000	0.0000000000	-0.1608020859	1.0000000000	1.1692884339	1.0000000000	0.0000000000	0.0000000000
0.7500000000	-19.0153146972	1.0000000000	518.5135921229	1.0000000000	0.0000000000	0.0000000000	0.0027714881	1.0000000000	1.0387953851	1.0000000000	0.0000000000	0.0000000000
0.7600000000	-13.8907505973	1.0000000000	496.6923386079	1.0000000000	0.0000000000	0.0000000000	-0.0275764618	1.0000000000	0.8513659772	1.0000000000	0.0000000000	0.0000000000
0.7700000000	-9.0153552471	1.0000000000	480.1381670648	1.0000000000	0.0000000000	0.0000000000	-0.0911108765	1.0000000000	0.6338801413	1.0000000000	0.0000000000	0.0000000000
0.7800000000	-4.4893937767	1.0000000000	468.6219354759	1.0000000000	0.0000000000	0.0000000000	-0.1029982216	1.0000000000	0.4290247557	1.0000000000	0.0000000000	0.0000000000
0.7900000000	-0.4314866630	1.0000000000	461.5440467872	1.0000000000	0.0000000000	0.0000000000	-0.0452928777	1.0000000000	0.2517233800	1.0000000000	0.0000000000	0.0000000000
0.8000000000	3.6387502589	1.0000000000	458.5592440956	1.0000000000	0.0000000000	0.0000000000	0.0579191744	1.0000000000	0.1024344733	1.0000000000	0.0000000000	0.0000000000
0.8100000000	7.6634460413	1.0000000000	459.4068895324	1.0000000000	0.0000000000	0.0000000000	0.1283948292	1.0000000000	0.0021000269	1.0000000000	0.0000000000	0.0000000000
0.8200000000	11.5834835626	1.0000000000	463.4845380874	1.0000000000	0.0000000000	0.0000000000	0.0000000000	1.0000000000	0.0000000000	1.0000000000	0.0000000000	0.0000000000
0.8300000000	15.6948475298	1.0000000000	470.1756890626	1.0000000000	0.0000000000	0.0000000000	0.0000000000	1.0000000000	0.0000000000	1.0000000000	0.0000000000	0.0000000000
0.8400000000	19.9575158941	1.0000000000	479.2054013046	1.0000000000	0.0000000000	0.0000000000	0.0000000000	1.0000000000	0.0000000000	1.0000000000	0.0000000000	0.0000000000
0.8500000000	24.2448685273	1.0000000000	490.3629829359	1.0000000000	0.0000000000	0.0000000000	0.0000000000	1.0000000000	0.0000000000	1.0000000000	0.0000000000	0.0000000000
0.8600000000	28.8928049772	1.0000000000	503.4806442906	1.0000000000	0.0000000000	0.0000000000	0.0443744126	1.0000000000	0.0228690157	1.0000000000	0.0000000000	0.0000000000
0.8700000000	34.0145602853	1.0000000000	518.6569162166	1.0000000000	0.0000000000	0.0000000000	0.0624221002	1.0000000000	0.0975607783	1.0000000000	0.0000000000	0.0000000000
0.8800000000	39.6002187672	1.0000000000	535.8616688303	1.0000000000	0.0000000000	0.0000000000	0.0481385750	1.0000000000	0.2243303902	1.0000000000	0.0000000000	0.0000000000
0.8900000000	45.9806210562	1.0000000000	554.5039399542	1.0000000000	0.0000000000	0.0000000000	0.0044746131	1.0000000000	0.3819179198	1.0000000000	0.0000000000	0.0000000000
0.9000000000	53.2277573916	1.0000000000	573.9054311974	1.0000000000	0.0000000000	0.0000000000	-0.0540913962	1.0000000000	0.4966690940	1.0000000000	0.0000000000	0.0000000000
0.9100000000	61.2091497659	1.0000000000	593.5887548093	1.0000000000	0.0000000000	0.0000000000	-0.1219545097	1.0000000000	0.4222449726	1.0000000000	0.0000000000	0.0000000000
0.9200000000	70.1626761428	1.0000000000	612.8549950562	1.0000000000	0.0000000000	0.0000000000	0.0000000000	1.0000000000	0.0000000000	1.0000000000	0.0000000000	0.0000000000
0.9300000000	80.0498584481	1.0000000000	630.7349619197	1.0000000000	0.0000000000	0.0000000000	0.0000000000	1.0000000000	0.0000000000	1.0000000000	0.0000000000	0.0000000000
0.9400000000	90.5835237150	1.0000000000	646.5241598140	1.0000000000	0.0000000000	0.0000000000	0.0000000000	1.0000000000	0.0000000000	1.0000000000	0.0000000000	0.0000000000
0.9500000000	101.8559970207	1.0000000000	659.6990650172	1.0000000000	0.0000000000	0.0000000000	0.0000000000	1.0000000000	0.0000000000	1.0000000000	0.0000000000	0.0000000000
0.9600000000	113.7802425510	1.0000000000	669.3223810566	1.0000000000	0.0000000000	0.0000000000	0.0000000000	1.0000000000	0.0000000000	1.0000000000	0.0000000000	0.0000000000
0.9700000000	125.8839927609	1.0000000000	674.1388412472	1.0000000000	0.0000000000	0.0000000000	0.0000000000	1.0000000000	0.0000000000	1.0000000000	0.0000000000	0.0000000000
0.9800000000	137.8941009834	1.0000000000	672.9060946685	1.0000000000	0.0000000000	0.0000000000	0.0000000000	1.0000000000	0.0000000000	1.0000000000	0.0000000000	0.0000000000
0.9900000000	149.3586925078	1.0000000000	664.2079704205	1.0000000000	0.0000000000	0.0000000000	4.7296412614	1.0000000000	11.2577454226	1.0000000000	0.0000000000	0.0000000000
