name p8_grf_mean_speed_1.8
datacolumns 13
datarows 100
range 0.00000000 0.99000000
endheader
time	grf_x_l_mean	grf_x_l_var	grf_y_l_mean	grf_y_l_var	grf_z_l_mean	grf_z_l_var	grf_x_r_mean	grf_x_r_var	grf_y_r_mean	grf_y_r_var	grf_z_r_mean	grf_z_r_var
0.0000000000	169.1634797654	1.0000000000	602.0856932959	1.0000000000	0.0000000000	0.0000000000	5.3336442580	1.0000000000	11.7697320220	1.0000000000	0.0000000000	0.0000000000
0.0100000000	174.6830632900	1.0000000000	576.6220077586	1.0000000000	0.0000000000	0.0000000000	4.0125070563	1.0000000000	58.3351390248	1.0000000000	0.0000000000	0.0000000000
0.0200000000	174.7025856790	1.0000000000	538.5291228006	1.0000000000	0.0000000000	0.0000000000	-1.0124905441	1.0000000000	135.5331196115	1.0000000000	0.0000000000	0.0000000000
0.0300000000	168.0217475488	1.0000000000	487.8949005709	1.0000000000	0.0000000000	0.0000000000	-12.2953484801	1.0000000000	243.5391883178	1.0000000000	0.0000000000	0.0000000000
0.0400000000	153.7423806783	1.0000000000	426.3779769351	1.0000000000	0.0000000000	0.0000000000	-33.0023728963	1.0000000000	372.0554306179	1.0000000000	0.0000000000	0.0000000000
0.0500000000	131.6405194657	1.0000000000	357.2511940140	1.0000000000	0.0000000000	0.0000000000	-61.9958979705	1.0000000000	502.8578007707	1.0000000000	0.0000000000	0.0000000000
0.0600000000	104.5694274461	1.0000000000	285.2151513237	1.0000000000	0.0000000000	0.0000000000	-92.8313512524	1.0000000000	619.2253512780	1.0000000000	0.0000000000	0.0000000000
0.0700000000	77.1251931947	1.0000000000	216.1401604907	1.0000000000	0.0000000000	0.0000000000	-119.8354199761	1.0000000000	711.5266225645	1.0000000000	0.0000000000	0.0000000000
0.0800000000	52.1168138342	1.0000000000	155.0942496148	1.0000000000	0.0000000000	0.0000000000	-140.6148966915	1.0000000000	778.0715848623	1.0000000000	0.0000000000	0.0000000000
0.0900000000	31.8583268131	1.0000000000	104.9121901160	1.0000000000	0.0000000000	0.0000000000	-155.5328035073	1.0000000000	825.0531667705	1.0000000000	0.0000000000	0.0000000000
0.1000000000	17.1356661264	1.0000000000	66.5994515516	1.0000000000	0.0000000000	0.0000000000	-163.9686367673	1.0000000000	860.0473542271	1.0000000000	0.0000000000	0.0000000000
0.1100000000	7.6180974745	1.0000000000	39.7453243468	1.0000000000	0.0000000000	0.0000000000	-165.6818340259	1.0000000000	886.2486886865	1.0000000000	0.0000000000	0.0000000000
0.1200000000	2.2147768218	1.0000000000	22.6515234759	1.0000000000	0.0000000000	0.0000000000	-162.0569667380	1.0000000000	903.8495907462	1.0000000000	0.0000000000	0.0000000000
0.1300000000	-0.2320751049	1.0000000000	12.8864675343	1.0000000000	0.0000000000	0.0000000000	-154.1492614664	1.0000000000	913.0771993672	1.0000000000	0.0000000000	0.0000000000
0.1400000000	-0.1899675016	1.0000000000	8.2198716842	1.0000000000	0.0000000000	0.0000000000	-143.2511239776	1.0000000000	914.3919176026	1.0000000000	0.0000000000	0.0000000000
0.1500000000	0.5316376062	1.0000000000	6.7259592117	1.0000000000	0.0000000000	0.0000000000	-130.6039162853	1.0000000000	907.8346408178	1.0000000000	0.0000000000	0.0000000000
0.1600000000	1.1762816763	1.0000000000	6.6714801850	1.0000000000	0.0000000000	0.0000000000	-117.5087091990	1.0000000000	893.2063212229	1.0000000000	0.0000000000	0.0000000000
0.1700000000	1.7762541289	1.0000000000	6.9498284480	1.0000000000	0.0000000000	0.0000000000	-103.6897807951	1.0000000000	870.8202948720	1.0000000000	0.0000000000	0.0000000000
0.1800000000	2.1343783095	1.0000000000	7.0740762702	1.0000000000	0.0000000000	0.0000000000	-89.4186072250	1.0000000000	842.0946519162	1.0000000000	0.0000000000	0.0000000000
0.1900000000	2.0280955164	1.0000000000	6.9534860778	1.0000000000	0.0000000000	0.0000000000	-75.8270905724	1.0000000000	808.7547843079	1.0000000000	0.0000000000	0.0000000000
0.2000000000	1.6167246347	1.0000000000	6.7155643155	1.0000000000	0.0000000000	0.0000000000	-62.7723276632	1.0000000000	771.8130939442	1.0000000000	0.0000000000	0.0000000000
0.2100000000	1.5475637890	1.0000000000	6.2515087616	1.0000000000	0.0000000000	0.0000000000	-50.3065686751	1.0000000000	731.8401138207	1.0000000000	0.0000000000	0.0000000000
0.2200000000	1.2689490538	1.0000000000	5.3696798272	1.0000000000	0.0000000000	0.0000000000	-38.7188911661	1.0000000000	689.8277341138	1.0000000000	0.0000000000	0.0000000000
0.2300000000	0.6792571971	1.0000000000	4.3337360927	1.0000000000	0.0000000000	0.0000000000	-28.6111277581	1.0000000000	647.1960133089	1.0000000000	0.0000000000	0.0000000000
0.2400000000	0.3698638584	1.0000000000	3.5233247573	1.0000000000	0.0000000000	0.0000000000	-19.7501293998	1.0000000000	605.5427471731	1.0000000000	0.0000000000	0.0000000000
0.2500000000	0.3778203325	1.0000000000	2.9431335072	1.0000000000	0.0000000000	0.0000000000	-11.8676024661	1.0000000000	566.5165450973	1.0000000000	0.0000000000	0.0000000000
0.2600000000	0.4143426591	1.0000000000	2.4206604485	1.0000000000	0.0000000000	0.0000000000	-5.4475804959	1.0000000000	530.9857901810	1.0000000000	0.0000000000	0.0000000000
0.2700000000	0.4237459707	1.0000000000	1.9498957756	1.0000000000	0.0000000000	0.0000000000	-0.0936661731	1.0000000000	498.9458482617	1.0000000000	0.0000000000	0.0000000000
0.2800000000	0.6861858634	1.0000000000	1.5947057664	1.0000000000	0.0000000000	0.0000000000	4.6178917646	1.0000000000	470.6150242311	1.0000000000	0.0000000000	0.0000000000
0.2900000000	0.8086204883	1.0000000000	1.2438991842	1.0000000000	0.0000000000	0.0000000000	8.5985642940	1.0000000000	446.7079099166	1.0000000000	0.0000000000	0.0000000000
0.3000000000	0.5194464693	1.0000000000	0.8735815933	1.0000000000	0.0000000000	0.0000000000	11.8209549387	1.0000000000	427.7162471196	1.0000000000	0.0000000000	0.0000000000
0.3100000000	0.2231564110	1.0000000000	0.5599695073	1.0000000000	0.0000000000	0.0000000000	14.8218216468	1.0000000000	413.5145852698	1.0000000000	0.0000000000	0.0000000000
0.3200000000	0.0239024759	1.0000000000	0.2936864656	1.0000000000	0.0000000000	0.0000000000	17.9317060434	1.0000000000	403.7940121798	1.0000000000	0.0000000000	0.0000000000
0.3300000000	-0.2300282863	1.0000000000	0.0528894118	1.0000000000	0.0000000000	0.0000000000	21.0394515039	1.0000000000	398.4792057448	1.0000000000	0.0000000000	0.0000000000
0.3400000000	0.0000000000	1.0000000000	0.0000000000	1.0000000000	0.0000000000	0.0000000000	24.4206375012	1.0000000000	397.7620558883	1.0000000000	0.0000000000	0.0000000000
0.3500000000	0.0000000000	1.0000000000	0.0000000000	1.0000000000	0.0000000000	0.0000000000	28.3018443785	1.0000000000	401.7504401027	1.0000000000	0.0000000000	0.0000000000
0.3600000000	0.0000000000	1.0000000000	0.0000000000	1.0000000000	0.0000000000	0.0000000000	32.6582319333	1.0000000000	409.8926293531	1.0000000000	0.0000000000	0.0000000000
0.3700000000	0.3860155530	1.0000000000	0.2631120053	1.0000000000	0.0000000000	0.0000000000	37.5294945065	1.0000000000	421.2022874567	1.0000000000	0.0000000000	0.0000000000
0.3800000000	0.2436377515	1.0000000000	0.6000819026	1.0000000000	0.0000000000	0.0000000000	43.3590869769	1.0000000000	435.1502451166	1.0000000000	0.0000000000	0.0000000000
0.3900000000	0.0543329200	1.0000000000	0.8650867091	1.0000000000	0.0000000000	0.0000000000	50.2661883896	1.0000000000	451.6384008760	1.0000000000	0.0000000000	0.0000000000
0.4000000000	-0.1336907888	1.0000000000	0.9541261918	1.0000000000	0.0000000000	0.0000000000	58.0406466277	1.0000000000	470.3206115704	1.0000000000	0.0000000000	0.0000000000
0.4100000000	-0.2476204330	1.0000000000	0.6217808755	1.0000000000	0.0000000000	0.0000000000	66.9414449388	1.0000000000	490.3874455179	1.0000000000	0.0000000000	0.0000000000
0.4200000000	0.0000000000	1.0000000000	0.0000000000	1.0000000000	0.0000000000	0.0000000000	77.0729579688	1.0000000000	510.8199735867	1.0000000000	0.0000000000	0.0000000000
0.4300000000	0.0000000000	1.0000000000	0.0000000000	1.0000000000	0.0000000000	0.0000000000	88.2455649397	1.0000000000	530.6262114350	1.0000000000	0.0000000000	0.0000000000
0.4400000000	0.0000000000	1.0000000000	0.0000000000	1.0000000000	0.0000000000	0.0000000000	100.2410446949	1.0000000000	548.8530334032	1.0000000000	0.0000000000	0.0000000000
0.4500000000	0.0000000000	1.0000000000	0.0000000000	1.0000000000	0.0000000000	0.0000000000	112.9210159085	1.0000000000	564.5024249631	1.0000000000	0.0000000000	0.0000000000
0.4600000000	0.0000000000	1.0000000000	0.0000000000	1.0000000000	0.0000000000	0.0000000000	125.9740712314	1.0000000000	576.3246747291	1.0000000000	0.0000000000	0.0000000000
0.4700000000	0.0000000000	1.0000000000	0.0000000000	1.0000000000	0.0000000000	0.0000000000	138.6794348499	1.0000000000	582.6853193518	1.0000000000	0.0000000000	0.0000000000
0.4800000000	0.0000000000	1.0000000000	0.0000000000	1.0000000000	0.0000000000	0.0000000000	150.3292172816	1.0000000000	581.7922164633	1.0000000000	0.0000000000	0.0000000000
0.4900000000	1.6861884000	1.0000000000	4.0175358629	1.0000000000	0.0000000000	0.0000000000	159.9898273560	1.0000000000	572.0235706630	1.0000000000	0.0000000000	0.0000000000
0.5000000000	-0.8972531967	1.0000000000	43.6303686789	1.0000000000	0.0000000000	0.0000000000	166.1747607549	1.0000000000	552.0493201686	1.0000000000	0.0000000000	0.0000000000
0.5100000000	-6.7435502937	1.0000000000	112.0814362168	1.0000000000	0.0000000000	0.0000000000	167.3539644869	1.0000000000	520.8437923099	1.0000000000	0.0000000000	0.0000000000
0.5200000000	-17.4941196968	1.0000000000	211.4199955695	1.0000000000	0.0000000000	0.0000000000	162.3987056262	1.0000000000	477.9337463695	1.0000000000	0.0000000000	0.0000000000
0.5300000000	-35.7398112137	1.0000000000	333.7751362247	1.0000000000	0.0000000000	0.0000000000	150.5826806518	1.0000000000	424.2401936906	1.0000000000	0.0000000000	0.0000000000
0.5400000000	-62.6056637597	1.0000000000	461.7199337704	1.0000000000	0.0000000000	0.0000000000	131.8522903941	1.0000000000	362.5859180098	1.0000000000	0.0000000000	0.0000000000
0.5500000000	-94.0285476572	1.0000000000	577.4835256570	1.0000000000	0.0000000000	0.0000000000	108.2106103378	1.0000000000	297.0877042639	1.0000000000	0.0000000000	0.0000000000
0.5600000000	-123.4776080723	1.0000000000	671.4859063707	1.0000000000	0.0000000000	0.0000000000	83.7156863175	1.0000000000	232.6595592367	1.0000000000	0.0000000000	0.0000000000
0.5700000000	-147.2265945358	1.0000000000	742.7743903198	1.0000000000	0.0000000000	0.0000000000	61.3704936361	1.0000000000	174.1479777482	1.0000000000	0.0000000000	0.0000000000
0.5800000000	-164.7181665828	1.0000000000	796.3799378981	1.0000000000	0.0000000000	0.0000000000	42.3757313557	1.0000000000	124.9746145534	1.0000000000	0.0000000000	0.0000000000
0.5900000000	-175.4934754249	1.0000000000	838.6980483325	1.0000000000	0.0000000000	0.0000000000	27.7139585594	1.0000000000	86.6882116047	1.0000000000	0.0000000000	0.0000000000
0.6000000000	-178.4057290679	1.0000000000	872.8623235991	1.0000000000	0.0000000000	0.0000000000	17.5642025507	1.0000000000	59.2379173483	1.0000000000	0.0000000000	0.0000000000
0.6100000000	-174.4754604195	1.0000000000	898.8348134105	1.0000000000	0.0000000000	0.0000000000	11.2073662581	1.0000000000	41.4307538603	1.0000000000	0.0000000000	0.0000000000
0.6200000000	-166.0417328863	1.0000000000	915.7762727226	1.0000000000	0.0000000000	0.0000000000	7.6250865083	1.0000000000	31.0162375514	1.0000000000	0.0000000000	0.0000000000
0.6300000000	-154.4687550370	1.0000000000	922.8376968973	1.0000000000	0.0000000000	0.0000000000	6.0604702160	1.0000000000	25.2218269550	1.0000000000	0.0000000000	0.0000000000
0.6400000000	-140.8724109163	1.0000000000	919.8145822379	1.0000000000	0.0000000000	0.0000000000	5.5970197847	1.0000000000	21.9581388529	1.0000000000	0.0000000000	0.0000000000
0.6500000000	-126.6263776383	1.0000000000	907.2285074569	1.0000000000	0.0000000000	0.0000000000	5.0134686961	1.0000000000	20.1317815068	1.0000000000	0.0000000000	0.0000000000
0.6600000000	-112.3857041449	1.0000000000	885.8597880648	1.0000000000	0.0000000000	0.0000000000	4.1042760039	1.0000000000	19.0343731379	1.0000000000	0.0000000000	0.0000000000
0.6700000000	-98.0059587528	1.0000000000	856.9132401019	1.0000000000	0.0000000000	0.0000000000	3.2894864414	1.0000000000	18.0115698609	1.0000000000	0.0000000000	0.0000000000
0.6800000000	-83.9421958053	1.0000000000	821.9425880747	1.0000000000	0.0000000000	0.0000000000	2.5362219744	1.0000000000	16.6614455900	1.0000000000	0.0000000000	0.0000000000
0.6900000000	-70.8218777919	1.0000000000	782.7153754459	1.0000000000	0.0000000000	0.0000000000	1.8096419671	1.0000000000	15.1619716045	1.0000000000	0.0000000000	0.0000000000
0.7000000000	-58.3729830748	1.0000000000	740.7981054652	1.0000000000	0.0000000000	0.0000000000	1.3680927146	1.0000000000	13.8588188722	1.0000000000	0.0000000000	0.0000000000
0.7100000000	-46.6757645164	1.0000000000	697.5448776865	1.0000000000	0.0000000000	0.0000000000	1.2944538792	1.0000000000	12.8417923781	1.0000000000	0.0000000000	0.0000000000
0.7200000000	-36.3376303504	1.0000000000	654.2715426773	1.0000000000	0.0000000000	0.0000000000	1.2436585687	1.0000000000	11.9645756390	1.0000000000	0.0000000000	0.0000000000
0.7300000000	-27.3153685841	1.0000000000	612.0357589385	1.0000000000	0.0000000000	0.0000000000	1.1711122846	1.0000000000	11.1026674685	1.0000000000	0.0000000000	0.0000000000
0.7400000000	-19.1021159489	1.0000000000	571.7598810459	1.0000000000	0.0000000000	0.0000000000	1.2418622825	1.0000000000	10.2869871833	1.0000000000	0.0000000000	0.0000000000
0.7500000000	-11.8029086834	1.0000000000	534.4694536770	1.0000000000	0.0000000000	0.0000000000	1.2691220010	1.0000000000	9.6185426730	1.0000000000	0.0000000000	0.0000000000
0.7600000000	-5.6512340588	1.0000000000	501.1173732979	1.0000000000	0.0000000000	0.0000000000	1.1619885426	1.0000000000	9.1341843503	1.0000000000	0.0000000000	0.0000000000
0.7700000000	-0.3138393976	1.0000000000	472.2794886237	1.0000000000	0.0000000000	0.0000000000	1.2919333864	1.0000000000	8.6871100549	1.0000000000	0.0000000000	0.0000000000
0.7800000000	4.4320934116	1.0000000000	448.1343358859	1.0000000000	0.0000000000	0.0000000000	1.6658026714	1.0000000000	8.0259264773	1.0000000000	0.0000000000	0.0000000000
0.7900000000	8.4222532710	1.0000000000	428.8340569570	1.0000000000	0.0000000000	0.0000000000	1.8128758611	1.0000000000	7.1220584229	1.0000000000	0.0000000000	0.0000000000
0.8000000000	11.8796661238	1.0000000000	414.6501509153	1.0000000000	0.0000000000	0.0000000000	1.6472598514	1.0000000000	6.1977718521	1.0000000000	0.0000000000	0.0000000000
0.8100000000	15.3885088285	1.0000000000	405.5901258929	1.0000000000	0.0000000000	0.0000000000	1.3614716835	1.0000000000	5.3782116015	1.0000000000	0.0000000000	0.0000000000
0.8200000000	19.0024044345	1.0000000000	401.1654798742	1.0000000000	0.0000000000	0.0000000000	1.0471955821	1.0000000000	4.5639999101	1.0000000000	0.0000000000	0.0000000000
0.8300000000	22.6389038719	1.0000000000	400.8308391138	1.0000000000	0.0000000000	0.0000000000	0.7517149690	1.0000000000	3.6350224172	1.0000000000	0.0000000000	0.0000000000
0.8400000000	26.6393336908	1.0000000000	404.4094894466	1.0000000000	0.0000000000	0.0000000000	0.6266026839	1.0000000000	2.6845091848	1.0000000000	0.0000000000	0.0000000000
0.8500000000	31.1642573809	1.0000000000	411.8584977500	1.0000000000	0.0000000000	0.0000000000	0.6677055251	1.0000000000	1.9804915579	1.0000000000	0.0000000000	0.0000000000
0.8600000000	36.0652770601	1.0000000000	422.8449428963	1.0000000000	0.0000000000	0.0000000000	0.5052962378	1.0000000000	1.6741964974	1.0000000000	0.0000000000	0.0000000000
0.8700000000	41.4378993146	1.0000000000	436.8496495585	1.0000000000	0.0000000000	0.0000000000	0.1241323074	1.0000000000	1.6426310126	1.0000000000	0.0000000000	0.0000000000
0.8800000000	47.6176110092	1.0000000000	453.4874647495	1.0000000000	0.0000000000	0.0000000000	-0.1698653367	1.0000000000	1.6608149361	1.0000000000	0.0000000000	0.0000000000
0.8900000000	54.6075744475	1.0000000000	472.4762642958	1.0000000000	0.0000000000	0.0000000000	-0.3000666383	1.0000000000	1.5866990642	1.0000000000	0.0000000000	0.0000000000
0.9000000000	62.3600730484	1.0000000000	493.4036822835	1.0000000000	0.0000000000	0.0000000000	-0.3333146552	1.0000000000	1.3245824811	1.0000000000	0.0000000000	0.0000000000
0.9100000000	71.2175710839	1.0000000000	515.6748607771	1.0000000000	0.0000000000	0.0000000000	-0.2732859175	1.0000000000	0.6765083016	1.0000000000	0.0000000000	0.0000000000
0.9200000000	81.3249207588	1.0000000000	538.5124502006	1.0000000000	0.0000000000	0.0000000000	0.0000000000	1.0000000000	0.0000000000	1.0000000000	0.0000000000	0.0000000000
0.9300000000	92.4388634532	1.0000000000	560.8171307315	1.0000000000	0.0000000000	0.0000000000	0.0000000000	1.0000000000	0.0000000000	1.0000000000	0.0000000000	0.0000000000
0.9400000000	104.4604256013	1.0000000000	581.1824085884	1.0000000000	0.0000000000	0.0000000000	0.0000000000	1.0000000000	0.0000000000	1.0000000000	0.0000000000	0.0000000000
0.9500000000	117.3393332008	1.0000000000	598.0893457119	1.0000000000	0.0000000000	0.0000000000	0.0000000000	1.0000000000	0.0000000000	1.0000000000	0.0000000000	0.0000000000
0.9600000000	130.5816003868	1.0000000000	609.9988091134	1.0000000000	0.0000000000	0.0000000000	0.0000000000	1.0000000000	0.0000000000	1.0000000000	0.0000000000	0.0000000000
0.9700000000	143.4688157478	1.0000000000	615.2618570814	1.0000000000	0.0000000000	0.0000000000	0.0000000000	1.0000000000	0.0000000000	1.0000000000	0.0000000000	0.0000000000
0.9800000000	155.2561814271	1.0000000000	612.0164050427	1.0000000000	0.0000000000	0.0000000000	0.0000000000	1.0000000000	0.0000000000	1.0000000000	0.0000000000	0.0000000000
0.9900000000	164.7215107679	1.0000000000	598.4185117259	1.0000000000	0.0000000000	0.0000000000	4.9632122967	1.0000000000	11.7833161821	1.0000000000	0.0000000000	0.0000000000
