name p8_grf_mean_speed_1.0
datacolumns 13
datarows 100
range 0.00000000 0.99000000
endheader
time	grf_x_l_mean	grf_x_l_var	grf_y_l_mean	grf_y_l_var	grf_z_l_mean	grf_z_l_var	grf_x_r_mean	grf_x_r_var	grf_y_r_mean	grf_y_r_var	grf_z_r_mean	grf_z_r_var
0.0000000000	97.5427126320	1.0000000000	640.6023876902	1.0000000000	0.0000000000	0.0000000000	3.3329378241	1.0000000000	10.8236162866	1.0000000000	0.0000000000	0.0000000000
0.0100000000	105.6378118934	1.0000000000	630.2350199762	1.0000000000	0.0000000000	0.0000000000	3.9353852604	1.0000000000	42.1313722733	1.0000000000	0.0000000000	0.0000000000
0.0200000000	113.2784486812	1.0000000000	613.6328737508	1.0000000000	0.0000000000	0.0000000000	1.1235059426	1.0000000000	93.2054778158	1.0000000000	0.0000000000	0.0000000000
0.0300000000	119.5278848768	1.0000000000	589.1280848686	1.0000000000	0.0000000000	0.0000000000	-8.6489649399	1.0000000000	160.0409310497	1.0000000000	0.0000000000	0.0000000000
0.0400000000	123.4682582663	1.0000000000	554.8917224994	1.0000000000	0.0000000000	0.0000000000	-24.0155473106	1.0000000000	234.8577470738	1.0000000000	0.0000000000	0.0000000000
0.0500000000	124.4541243426	1.0000000000	509.7395814727	1.0000000000	0.0000000000	0.0000000000	-41.0073053485	1.0000000000	309.6029840645	1.0000000000	0.0000000000	0.0000000000
0.0600000000	120.5750655100	1.0000000000	453.3553467412	1.0000000000	0.0000000000	0.0000000000	-57.0129601838	1.0000000000	377.5013965421	1.0000000000	0.0000000000	0.0000000000
0.0700000000	111.0519311864	1.0000000000	386.7553461423	1.0000000000	0.0000000000	0.0000000000	-70.2166715258	1.0000000000	434.4825504709	1.0000000000	0.0000000000	0.0000000000
0.0800000000	95.0030336101	1.0000000000	313.4701920355	1.0000000000	0.0000000000	0.0000000000	-80.2227820455	1.0000000000	481.1212324045	1.0000000000	0.0000000000	0.0000000000
0.0900000000	73.4553561296	1.0000000000	239.2104248722	1.0000000000	0.0000000000	0.0000000000	-87.5863656513	1.0000000000	520.2816160684	1.0000000000	0.0000000000	0.0000000000
0.1000000000	49.9904124664	1.0000000000	170.5893520760	1.0000000000	0.0000000000	0.0000000000	-91.9120503233	1.0000000000	554.6130661400	1.0000000000	0.0000000000	0.0000000000
0.1100000000	28.5726596900	1.0000000000	113.1506070221	1.0000000000	0.0000000000	0.0000000000	-93.5135884672	1.0000000000	585.6333995637	1.0000000000	0.0000000000	0.0000000000
0.1200000000	12.7946472379	1.0000000000	69.2403124339	1.0000000000	0.0000000000	0.0000000000	-92.7978480940	1.0000000000	613.2505861148	1.0000000000	0.0000000000	0.0000000000
0.1300000000	3.5833739730	1.0000000000	38.0384360854	1.0000000000	0.0000000000	0.0000000000	-89.9929771923	1.0000000000	636.3100087630	1.0000000000	0.0000000000	0.0000000000
0.1400000000	-0.9335208300	1.0000000000	17.5851055783	1.0000000000	0.0000000000	0.0000000000	-86.0415156858	1.0000000000	654.4810840349	1.0000000000	0.0000000000	0.0000000000
0.1500000000	-2.3118607162	1.0000000000	5.7107239656	1.0000000000	0.0000000000	0.0000000000	-81.3947795055	1.0000000000	668.4245064817	1.0000000000	0.0000000000	0.0000000000
0.1600000000	-2.0570815266	1.0000000000	0.0116091880	1.0000000000	0.0000000000	0.0000000000	-76.2228157497	1.0000000000	678.6626375244	1.0000000000	0.0000000000	0.0000000000
0.1700000000	0.0000000000	1.0000000000	0.0000000000	1.0000000000	0.0000000000	0.0000000000	-70.6578574826	1.0000000000	685.0960576390	1.0000000000	0.0000000000	0.0000000000
0.1800000000	0.0000000000	1.0000000000	0.0000000000	1.0000000000	0.0000000000	0.0000000000	-64.6463480194	1.0000000000	687.3863732548	1.0000000000	0.0000000000	0.0000000000
0.1900000000	0.0000000000	1.0000000000	0.0000000000	1.0000000000	0.0000000000	0.0000000000	-58.5129167556	1.0000000000	684.8823391540	1.0000000000	0.0000000000	0.0000000000
0.2000000000	0.0000000000	1.0000000000	0.0000000000	1.0000000000	0.0000000000	0.0000000000	-52.5121705027	1.0000000000	676.9380787629	1.0000000000	0.0000000000	0.0000000000
0.2100000000	0.0000000000	1.0000000000	0.0000000000	1.0000000000	0.0000000000	0.0000000000	-46.8137327758	1.0000000000	664.0244069311	1.0000000000	0.0000000000	0.0000000000
0.2200000000	0.0000000000	1.0000000000	0.0000000000	1.0000000000	0.0000000000	0.0000000000	-41.5736216813	1.0000000000	647.8421099504	1.0000000000	0.0000000000	0.0000000000
0.2300000000	-0.0456092753	1.0000000000	0.0358476429	1.0000000000	0.0000000000	0.0000000000	-36.6886136301	1.0000000000	630.6500869081	1.0000000000	0.0000000000	0.0000000000
0.2400000000	-0.0567312635	1.0000000000	0.0266425311	1.0000000000	0.0000000000	0.0000000000	-32.1215550236	1.0000000000	614.6857075814	1.0000000000	0.0000000000	0.0000000000
0.2500000000	-0.0504260566	1.0000000000	0.0088011269	1.0000000000	0.0000000000	0.0000000000	-27.7433727639	1.0000000000	601.1184863936	1.0000000000	0.0000000000	0.0000000000
0.2600000000	0.0000000000	1.0000000000	0.0000000000	1.0000000000	0.0000000000	0.0000000000	-23.4644753720	1.0000000000	590.2923084942	1.0000000000	0.0000000000	0.0000000000
0.2700000000	0.0000000000	1.0000000000	0.0000000000	1.0000000000	0.0000000000	0.0000000000	-19.3652401810	1.0000000000	582.4470076573	1.0000000000	0.0000000000	0.0000000000
0.2800000000	0.0000000000	1.0000000000	0.0000000000	1.0000000000	0.0000000000	0.0000000000	-15.2698091461	1.0000000000	577.2321109895	1.0000000000	0.0000000000	0.0000000000
0.2900000000	0.0000000000	1.0000000000	0.0000000000	1.0000000000	0.0000000000	0.0000000000	-11.1576355079	1.0000000000	573.9372939452	1.0000000000	0.0000000000	0.0000000000
0.3000000000	0.0000000000	1.0000000000	0.0000000000	1.0000000000	0.0000000000	0.0000000000	-7.0354181847	1.0000000000	572.2650718978	1.0000000000	0.0000000000	0.0000000000
0.3100000000	0.0000000000	1.0000000000	0.0000000000	1.0000000000	0.0000000000	0.0000000000	-2.8271554787	1.0000000000	572.0010346363	1.0000000000	0.0000000000	0.0000000000
0.3200000000	0.0000000000	1.0000000000	0.0000000000	1.0000000000	0.0000000000	0.0000000000	1.3818392932	1.0000000000	572.7458894440	1.0000000000	0.0000000000	0.0000000000
0.3300000000	0.0000000000	1.0000000000	0.0000000000	1.0000000000	0.0000000000	0.0000000000	5.5805837678	1.0000000000	574.1939531798	1.0000000000	0.0000000000	0.0000000000
0.3400000000	0.0000000000	1.0000000000	0.0000000000	1.0000000000	0.0000000000	0.0000000000	9.7432117473	1.0000000000	576.2937406891	1.0000000000	0.0000000000	0.0000000000
0.3500000000	0.0000000000	1.0000000000	0.0000000000	1.0000000000	0.0000000000	0.0000000000	13.7654043386	1.0000000000	579.1067507418	1.0000000000	0.0000000000	0.0000000000
0.3600000000	0.0000000000	1.0000000000	0.0000000000	1.0000000000	0.0000000000	0.0000000000	17.7177317568	1.0000000000	582.5330176077	1.0000000000	0.0000000000	0.0000000000
0.3700000000	0.0000000000	1.0000000000	0.0000000000	1.0000000000	0.0000000000	0.0000000000	21.6279820201	1.0000000000	586.3430732888	1.0000000000	0.0000000000	0.0000000000
0.3800000000	-0.0066689151	1.0000000000	0.0037771237	1.0000000000	0.0000000000	0.0000000000	25.5517540002	1.0000000000	590.5190599092	1.0000000000	0.0000000000	0.0000000000
0.3900000000	-0.0075411486	1.0000000000	0.0578955256	1.0000000000	0.0000000000	0.0000000000	29.6563262900	1.0000000000	595.1397683797	1.0000000000	0.0000000000	0.0000000000
0.4000000000	-0.0105841970	1.0000000000	0.1444083659	1.0000000000	0.0000000000	0.0000000000	34.0508024756	1.0000000000	600.0906702861	1.0000000000	0.0000000000	0.0000000000
0.4100000000	-0.0187046334	1.0000000000	0.2325497091	1.0000000000	0.0000000000	0.0000000000	38.8871883777	1.0000000000	605.2870917296	1.0000000000	0.0000000000	0.0000000000
0.4200000000	-0.0322325939	1.0000000000	0.2334848659	1.0000000000	0.0000000000	0.0000000000	44.3191102215	1.0000000000	610.7422905197	1.0000000000	0.0000000000	0.0000000000
0.4300000000	0.0000000000	1.0000000000	0.0000000000	1.0000000000	0.0000000000	0.0000000000	50.3563148653	1.0000000000	616.3117197363	1.0000000000	0.0000000000	0.0000000000
0.4400000000	0.0000000000	1.0000000000	0.0000000000	1.0000000000	0.0000000000	0.0000000000	57.0873332688	1.0000000000	621.6418687499	1.0000000000	0.0000000000	0.0000000000
0.4500000000	0.0000000000	1.0000000000	0.0000000000	1.0000000000	0.0000000000	0.0000000000	64.5585676616	1.0000000000	626.2662476264	1.0000000000	0.0000000000	0.0000000000
0.4600000000	0.0000000000	1.0000000000	0.0000000000	1.0000000000	0.0000000000	0.0000000000	72.6817189227	1.0000000000	629.7153478233	1.0000000000	0.0000000000	0.0000000000
0.4700000000	0.0000000000	1.0000000000	0.0000000000	1.0000000000	0.0000000000	0.0000000000	81.3808092808	1.0000000000	631.3930387776	1.0000000000	0.0000000000	0.0000000000
0.4800000000	0.0000000000	1.0000000000	0.0000000000	1.0000000000	0.0000000000	0.0000000000	90.5201540770	1.0000000000	630.4592108861	1.0000000000	0.0000000000	0.0000000000
0.4900000000	0.9063609065	1.0000000000	4.5799262439	1.0000000000	0.0000000000	0.0000000000	99.8437342304	1.0000000000	625.9771922557	1.0000000000	0.0000000000	0.0000000000
0.5000000000	0.3458202639	1.0000000000	27.3728534049	1.0000000000	0.0000000000	0.0000000000	109.1530086500	1.0000000000	616.9569171394	1.0000000000	0.0000000000	0.0000000000
0.5100000000	-2.3041473588	1.0000000000	69.0729193094	1.0000000000	0.0000000000	0.0000000000	118.0351144597	1.0000000000	602.1622994366	1.0000000000	0.0000000000	0.0000000000
0.5200000000	-9.2206449509	1.0000000000	130.6042675244	1.0000000000	0.0000000000	0.0000000000	125.7973801669	1.0000000000	579.9608117555	1.0000000000	0.0000000000	0.0000000000
0.5300000000	-22.0200463439	1.0000000000	206.8078676314	1.0000000000	0.0000000000	0.0000000000	131.3333846848	1.0000000000	548.4923225174	1.0000000000	0.0000000000	0.0000000000
0.5400000000	-39.7282386864	1.0000000000	288.3089088651	1.0000000000	0.0000000000	0.0000000000	133.1500261416	1.0000000000	506.1466513184	1.0000000000	0.0000000000	0.0000000000
0.5500000000	-59.1516951657	1.0000000000	365.5587413690	1.0000000000	0.0000000000	0.0000000000	129.7165628005	1.0000000000	452.2299007428	1.0000000000	0.0000000000	0.0000000000
0.5600000000	-77.1558103545	1.0000000000	432.2187296623	1.0000000000	0.0000000000	0.0000000000	119.8788374554	1.0000000000	387.8121600429	1.0000000000	0.0000000000	0.0000000000
0.5700000000	-91.8798107294	1.0000000000	486.7955908806	1.0000000000	0.0000000000	0.0000000000	103.4954469901	1.0000000000	316.4663386668	1.0000000000	0.0000000000	0.0000000000
0.5800000000	-102.6114570975	1.0000000000	531.8894715184	1.0000000000	0.0000000000	0.0000000000	82.2272513089	1.0000000000	244.0402239198	1.0000000000	0.0000000000	0.0000000000
0.5900000000	-109.3254051774	1.0000000000	571.0806074836	1.0000000000	0.0000000000	0.0000000000	59.2804759015	1.0000000000	176.9452282629	1.0000000000	0.0000000000	0.0000000000
0.6000000000	-112.2173015821	1.0000000000	606.2358137692	1.0000000000	0.0000000000	0.0000000000	38.3855316577	1.0000000000	120.0259671014	1.0000000000	0.0000000000	0.0000000000
0.6100000000	-111.6533244996	1.0000000000	637.0189540989	1.0000000000	0.0000000000	0.0000000000	22.1181981852	1.0000000000	75.6361389604	1.0000000000	0.0000000000	0.0000000000
0.6200000000	-108.3261378663	1.0000000000	662.2224858351	1.0000000000	0.0000000000	0.0000000000	11.0477175470	1.0000000000	43.7688221320	1.0000000000	0.0000000000	0.0000000000
0.6300000000	-102.9888702299	1.0000000000	681.1593683608	1.0000000000	0.0000000000	0.0000000000	4.4171991707	1.0000000000	22.8541282857	1.0000000000	0.0000000000	0.0000000000
0.6400000000	-96.3925280942	1.0000000000	693.8372112969	1.0000000000	0.0000000000	0.0000000000	1.0177179642	1.0000000000	10.6174523295	1.0000000000	0.0000000000	0.0000000000
0.6500000000	-89.1396910195	1.0000000000	700.5377169502	1.0000000000	0.0000000000	0.0000000000	-0.4264716142	1.0000000000	4.5196437603	1.0000000000	0.0000000000	0.0000000000
0.6600000000	-81.4718776703	1.0000000000	701.5484259510	1.0000000000	0.0000000000	0.0000000000	-0.8430514815	1.0000000000	2.0933493208	1.0000000000	0.0000000000	0.0000000000
0.6700000000	-73.6512669612	1.0000000000	697.0387864177	1.0000000000	0.0000000000	0.0000000000	-0.8401439278	1.0000000000	1.4258629327	1.0000000000	0.0000000000	0.0000000000
0.6800000000	-65.9114943921	1.0000000000	687.1242676604	1.0000000000	0.0000000000	0.0000000000	-0.7597327930	1.0000000000	1.3557105787	1.0000000000	0.0000000000	0.0000000000
0.6900000000	-58.4131699036	1.0000000000	672.2977863279	1.0000000000	0.0000000000	0.0000000000	-0.7012439177	1.0000000000	1.3495837520	1.0000000000	0.0000000000	0.0000000000
0.7000000000	-51.4375703033	1.0000000000	653.9077024522	1.0000000000	0.0000000000	0.0000000000	-0.6659844966	1.0000000000	1.2600762318	1.0000000000	0.0000000000	0.0000000000
0.7100000000	-45.0478842260	1.0000000000	633.9149130258	1.0000000000	0.0000000000	0.0000000000	-0.6498618262	1.0000000000	1.1068900050	1.0000000000	0.0000000000	0.0000000000
0.7200000000	-39.1777988228	1.0000000000	614.4214297821	1.0000000000	0.0000000000	0.0000000000	-0.6395028192	1.0000000000	0.9485713865	1.0000000000	0.0000000000	0.0000000000
0.7300000000	-33.7704020456	1.0000000000	597.2053063109	1.0000000000	0.0000000000	0.0000000000	-0.6209768062	1.0000000000	0.8193005438	1.0000000000	0.0000000000	0.0000000000
0.7400000000	-28.6657815249	1.0000000000	583.2707791332	1.0000000000	0.0000000000	0.0000000000	-0.6006173514	1.0000000000	0.7245876272	1.0000000000	0.0000000000	0.0000000000
0.7500000000	-23.8262443152	1.0000000000	572.9325572907	1.0000000000	0.0000000000	0.0000000000	-0.5731298703	1.0000000000	0.6644955572	1.0000000000	0.0000000000	0.0000000000
0.7600000000	-19.2523759118	1.0000000000	566.0081540102	1.0000000000	0.0000000000	0.0000000000	-0.5297557842	1.0000000000	0.6196823486	1.0000000000	0.0000000000	0.0000000000
0.7700000000	-14.8163483997	1.0000000000	562.0589291011	1.0000000000	0.0000000000	0.0000000000	-0.4811055092	1.0000000000	0.5730720279	1.0000000000	0.0000000000	0.0000000000
0.7800000000	-10.5501236854	1.0000000000	560.5893354076	1.0000000000	0.0000000000	0.0000000000	-0.4353328315	1.0000000000	0.5261818161	1.0000000000	0.0000000000	0.0000000000
0.7900000000	-6.3760243271	1.0000000000	561.0579322772	1.0000000000	0.0000000000	0.0000000000	-0.3896112582	1.0000000000	0.4772894086	1.0000000000	0.0000000000	0.0000000000
0.8000000000	-2.2612109767	1.0000000000	562.9600980681	1.0000000000	0.0000000000	0.0000000000	-0.3492741262	1.0000000000	0.4278331049	1.0000000000	0.0000000000	0.0000000000
0.8100000000	1.7320195148	1.0000000000	565.8379536925	1.0000000000	0.0000000000	0.0000000000	-0.3143446694	1.0000000000	0.3779003566	1.0000000000	0.0000000000	0.0000000000
0.8200000000	5.6380447279	1.0000000000	569.4233729862	1.0000000000	0.0000000000	0.0000000000	-0.2749970563	1.0000000000	0.3224613490	1.0000000000	0.0000000000	0.0000000000
0.8300000000	9.4458246630	1.0000000000	573.6251583121	1.0000000000	0.0000000000	0.0000000000	-0.2409115293	1.0000000000	0.2737851753	1.0000000000	0.0000000000	0.0000000000
0.8400000000	13.1759040230	1.0000000000	578.3892231067	1.0000000000	0.0000000000	0.0000000000	-0.2068971394	1.0000000000	0.2325570914	1.0000000000	0.0000000000	0.0000000000
0.8500000000	16.9147409426	1.0000000000	583.7166941616	1.0000000000	0.0000000000	0.0000000000	-0.1705410919	1.0000000000	0.1969393322	1.0000000000	0.0000000000	0.0000000000
0.8600000000	20.6784009637	1.0000000000	589.5313604351	1.0000000000	0.0000000000	0.0000000000	-0.1379477104	1.0000000000	0.1703734561	1.0000000000	0.0000000000	0.0000000000
0.8700000000	24.5139501252	1.0000000000	595.6742481217	1.0000000000	0.0000000000	0.0000000000	-0.1027924334	1.0000000000	0.1467644348	1.0000000000	0.0000000000	0.0000000000
0.8800000000	28.4829182429	1.0000000000	601.9846134888	1.0000000000	0.0000000000	0.0000000000	-0.0749576617	1.0000000000	0.1485484941	1.0000000000	0.0000000000	0.0000000000
0.8900000000	32.5906645415	1.0000000000	608.3166568734	1.0000000000	0.0000000000	0.0000000000	-0.0639107686	1.0000000000	0.1994146657	1.0000000000	0.0000000000	0.0000000000
0.9000000000	36.9419668837	1.0000000000	614.5652927526	1.0000000000	0.0000000000	0.0000000000	-0.0653998471	1.0000000000	0.2872595156	1.0000000000	0.0000000000	0.0000000000
0.9100000000	41.6346723488	1.0000000000	620.6310455854	1.0000000000	0.0000000000	0.0000000000	-0.0848529686	1.0000000000	0.3654176196	1.0000000000	0.0000000000	0.0000000000
0.9200000000	46.7377758556	1.0000000000	626.4920394788	1.0000000000	0.0000000000	0.0000000000	-0.1292334702	1.0000000000	0.3115530727	1.0000000000	0.0000000000	0.0000000000
0.9300000000	52.3700990279	1.0000000000	632.0926147385	1.0000000000	0.0000000000	0.0000000000	0.0000000000	1.0000000000	0.0000000000	1.0000000000	0.0000000000	0.0000000000
0.9400000000	58.5534158955	1.0000000000	637.2844498401	1.0000000000	0.0000000000	0.0000000000	0.0000000000	1.0000000000	0.0000000000	1.0000000000	0.0000000000	0.0000000000
0.9500000000	65.3173250991	1.0000000000	641.7910777164	1.0000000000	0.0000000000	0.0000000000	0.0000000000	1.0000000000	0.0000000000	1.0000000000	0.0000000000	0.0000000000
0.9600000000	72.6673723814	1.0000000000	645.0482250722	1.0000000000	0.0000000000	0.0000000000	0.0000000000	1.0000000000	0.0000000000	1.0000000000	0.0000000000	0.0000000000
0.9700000000	80.4852825263	1.0000000000	646.3222428987	1.0000000000	0.0000000000	0.0000000000	0.0000000000	1.0000000000	0.0000000000	1.0000000000	0.0000000000	0.0000000000
0.9800000000	88.6292007052	1.0000000000	644.7232293193	1.0000000000	0.0000000000	0.0000000000	0.0000000000	1.0000000000	0.0000000000	1.0000000000	0.0000000000	0.0000000000
0.9900000000	96.8666446129	1.0000000000	639.2751447474	1.0000000000	0.0000000000	0.0000000000	3.2590765802	1.0000000000	10.8132860674	1.0000000000	0.0000000000	0.0000000000
