name p9_grf_mean_speed_1.0
datacolumns 13
datarows 100
range 0.00000000 0.99000000
endheader
time	grf_x_l_mean	grf_x_l_var	grf_y_l_mean	grf_y_l_var	grf_z_l_mean	grf_z_l_var	grf_x_r_mean	grf_x_r_var	grf_y_r_mean	grf_y_r_var	grf_z_r_mean	grf_z_r_var
0.0000000000	73.8580403163	1.0000000000	725.1006808949	1.0000000000	0.0000000000	0.0000000000	14.1330812560	1.0000000000	10.7642014686	1.0000000000	0.0000000000	0.0000000000
0.0100000000	79.9364950100	1.0000000000	715.5092995847	1.0000000000	0.0000000000	0.0000000000	24.5979620261	1.0000000000	36.9318324113	1.0000000000	0.0000000000	0.0000000000
0.0200000000	86.7942325883	1.0000000000	699.9275619237	1.0000000000	0.0000000000	0.0000000000	31.4959430140	1.0000000000	79.0858120421	1.0000000000	0.0000000000	0.0000000000
0.0300000000	93.3353925966	1.0000000000	676.7090028519	1.0000000000	0.0000000000	0.0000000000	27.8047767452	1.0000000000	138.3850755006	1.0000000000	0.0000000000	0.0000000000
0.0400000000	99.0668699499	1.0000000000	644.5064203641	1.0000000000	0.0000000000	0.0000000000	13.3831724355	1.0000000000	215.8848980259	1.0000000000	0.0000000000	0.0000000000
0.0500000000	103.5787843924	1.0000000000	602.3973300010	1.0000000000	0.0000000000	0.0000000000	-8.0197517697	1.0000000000	309.7368046595	1.0000000000	0.0000000000	0.0000000000
0.0600000000	105.5154865484	1.0000000000	549.7667206671	1.0000000000	0.0000000000	0.0000000000	-33.6852870923	1.0000000000	410.3946649322	1.0000000000	0.0000000000	0.0000000000
0.0700000000	103.9875006121	1.0000000000	486.5392942952	1.0000000000	0.0000000000	0.0000000000	-58.6964702425	1.0000000000	503.4583648611	1.0000000000	0.0000000000	0.0000000000
0.0800000000	98.3053465856	1.0000000000	414.4690282119	1.0000000000	0.0000000000	0.0000000000	-77.9344457058	1.0000000000	577.8560698121	1.0000000000	0.0000000000	0.0000000000
0.0900000000	87.6207520848	1.0000000000	337.1855540750	1.0000000000	0.0000000000	0.0000000000	-90.5011397317	1.0000000000	630.1107248167	1.0000000000	0.0000000000	0.0000000000
0.1000000000	72.1343664665	1.0000000000	259.5754315965	1.0000000000	0.0000000000	0.0000000000	-96.8985968042	1.0000000000	663.2268445874	1.0000000000	0.0000000000	0.0000000000
0.1100000000	53.6079182425	1.0000000000	187.4003333155	1.0000000000	0.0000000000	0.0000000000	-98.1762150002	1.0000000000	682.9907118292	1.0000000000	0.0000000000	0.0000000000
0.1200000000	34.7966850587	1.0000000000	125.5738491583	1.0000000000	0.0000000000	0.0000000000	-96.8785824008	1.0000000000	695.4892030701	1.0000000000	0.0000000000	0.0000000000
0.1300000000	19.0880699241	1.0000000000	76.3473625976	1.0000000000	0.0000000000	0.0000000000	-93.9012934408	1.0000000000	705.3036933970	1.0000000000	0.0000000000	0.0000000000
0.1400000000	8.1205105097	1.0000000000	39.9821043159	1.0000000000	0.0000000000	0.0000000000	-89.4850344417	1.0000000000	714.5699435566	1.0000000000	0.0000000000	0.0000000000
0.1500000000	1.6926778279	1.0000000000	15.8499533273	1.0000000000	0.0000000000	0.0000000000	-84.5448915112	1.0000000000	723.0749779394	1.0000000000	0.0000000000	0.0000000000
0.1600000000	-1.0511837625	1.0000000000	2.4639735737	1.0000000000	0.0000000000	0.0000000000	-78.8391015311	1.0000000000	728.9110407120	1.0000000000	0.0000000000	0.0000000000
0.1700000000	0.0000000000	1.0000000000	0.0000000000	1.0000000000	0.0000000000	0.0000000000	-72.1074417682	1.0000000000	729.4465633746	1.0000000000	0.0000000000	0.0000000000
0.1800000000	0.0000000000	1.0000000000	0.0000000000	1.0000000000	0.0000000000	0.0000000000	-65.1837755021	1.0000000000	723.2156733312	1.0000000000	0.0000000000	0.0000000000
0.1900000000	0.0000000000	1.0000000000	0.0000000000	1.0000000000	0.0000000000	0.0000000000	-58.1711168345	1.0000000000	711.1053637899	1.0000000000	0.0000000000	0.0000000000
0.2000000000	0.0000000000	1.0000000000	0.0000000000	1.0000000000	0.0000000000	0.0000000000	-51.2509890730	1.0000000000	695.4931907821	1.0000000000	0.0000000000	0.0000000000
0.2100000000	0.0000000000	1.0000000000	0.0000000000	1.0000000000	0.0000000000	0.0000000000	-44.8795428157	1.0000000000	678.6955790874	1.0000000000	0.0000000000	0.0000000000
0.2200000000	0.0000000000	1.0000000000	0.0000000000	1.0000000000	0.0000000000	0.0000000000	-38.7685858083	1.0000000000	662.9570037737	1.0000000000	0.0000000000	0.0000000000
0.2300000000	0.0000000000	1.0000000000	0.0000000000	1.0000000000	0.0000000000	0.0000000000	-32.9883632751	1.0000000000	650.2990479618	1.0000000000	0.0000000000	0.0000000000
0.2400000000	0.1384169557	1.0000000000	0.0288463186	1.0000000000	0.0000000000	0.0000000000	-27.7899056179	1.0000000000	641.4209522770	1.0000000000	0.0000000000	0.0000000000
0.2500000000	0.1145077446	1.0000000000	0.0007946145	1.0000000000	0.0000000000	0.0000000000	-22.8427380133	1.0000000000	635.8528706995	1.0000000000	0.0000000000	0.0000000000
0.2600000000	0.0000000000	1.0000000000	0.0000000000	1.0000000000	0.0000000000	0.0000000000	-18.1643771492	1.0000000000	632.8435701026	1.0000000000	0.0000000000	0.0000000000
0.2700000000	0.0000000000	1.0000000000	0.0000000000	1.0000000000	0.0000000000	0.0000000000	-13.8854538339	1.0000000000	631.8779482797	1.0000000000	0.0000000000	0.0000000000
0.2800000000	0.0000000000	1.0000000000	0.0000000000	1.0000000000	0.0000000000	0.0000000000	-9.7178121949	1.0000000000	632.6532529755	1.0000000000	0.0000000000	0.0000000000
0.2900000000	0.0000000000	1.0000000000	0.0000000000	1.0000000000	0.0000000000	0.0000000000	-5.6322903078	1.0000000000	634.5092026448	1.0000000000	0.0000000000	0.0000000000
0.3000000000	0.0000000000	1.0000000000	0.0000000000	1.0000000000	0.0000000000	0.0000000000	-1.6826553297	1.0000000000	636.9852137601	1.0000000000	0.0000000000	0.0000000000
0.3100000000	0.0000000000	1.0000000000	0.0000000000	1.0000000000	0.0000000000	0.0000000000	2.2088586309	1.0000000000	640.3614439879	1.0000000000	0.0000000000	0.0000000000
0.3200000000	0.0000000000	1.0000000000	0.0000000000	1.0000000000	0.0000000000	0.0000000000	5.9789489835	1.0000000000	644.5741596165	1.0000000000	0.0000000000	0.0000000000
0.3300000000	0.0000000000	1.0000000000	0.0000000000	1.0000000000	0.0000000000	0.0000000000	9.5454987824	1.0000000000	649.1329870231	1.0000000000	0.0000000000	0.0000000000
0.3400000000	0.0000000000	1.0000000000	0.0000000000	1.0000000000	0.0000000000	0.0000000000	13.0225974519	1.0000000000	654.0706386421	1.0000000000	0.0000000000	0.0000000000
0.3500000000	0.0000000000	1.0000000000	0.0000000000	1.0000000000	0.0000000000	0.0000000000	16.4615330479	1.0000000000	659.6664209352	1.0000000000	0.0000000000	0.0000000000
0.3600000000	0.0000000000	1.0000000000	0.0000000000	1.0000000000	0.0000000000	0.0000000000	19.9598832867	1.0000000000	666.0508943589	1.0000000000	0.0000000000	0.0000000000
0.3700000000	0.0000000000	1.0000000000	0.0000000000	1.0000000000	0.0000000000	0.0000000000	23.7402245168	1.0000000000	673.2689783390	1.0000000000	0.0000000000	0.0000000000
0.3800000000	0.0554996429	1.0000000000	0.0259993643	1.0000000000	0.0000000000	0.0000000000	27.9370878909	1.0000000000	681.1685914281	1.0000000000	0.0000000000	0.0000000000
0.3900000000	0.0449132234	1.0000000000	0.0827889019	1.0000000000	0.0000000000	0.0000000000	32.4700137678	1.0000000000	689.5422982058	1.0000000000	0.0000000000	0.0000000000
0.4000000000	-0.0098778426	1.0000000000	0.1174581108	1.0000000000	0.0000000000	0.0000000000	37.2311428258	1.0000000000	698.0600366482	1.0000000000	0.0000000000	0.0000000000
0.4100000000	-0.1512104326	1.0000000000	0.0536792203	1.0000000000	0.0000000000	0.0000000000	42.0868133561	1.0000000000	706.0734574366	1.0000000000	0.0000000000	0.0000000000
0.4200000000	0.0000000000	1.0000000000	0.0000000000	1.0000000000	0.0000000000	0.0000000000	46.8211434970	1.0000000000	713.1337929594	1.0000000000	0.0000000000	0.0000000000
0.4300000000	0.0000000000	1.0000000000	0.0000000000	1.0000000000	0.0000000000	0.0000000000	51.3237579155	1.0000000000	719.2991353791	1.0000000000	0.0000000000	0.0000000000
0.4400000000	0.0000000000	1.0000000000	0.0000000000	1.0000000000	0.0000000000	0.0000000000	55.5195002399	1.0000000000	724.6240774610	1.0000000000	0.0000000000	0.0000000000
0.4500000000	0.0000000000	1.0000000000	0.0000000000	1.0000000000	0.0000000000	0.0000000000	59.4677718106	1.0000000000	729.0302937382	1.0000000000	0.0000000000	0.0000000000
0.4600000000	0.0000000000	1.0000000000	0.0000000000	1.0000000000	0.0000000000	0.0000000000	63.4428227678	1.0000000000	732.5971993966	1.0000000000	0.0000000000	0.0000000000
0.4700000000	0.0000000000	1.0000000000	0.0000000000	1.0000000000	0.0000000000	0.0000000000	67.6672360494	1.0000000000	735.2589039004	1.0000000000	0.0000000000	0.0000000000
0.4800000000	9.9453085873	1.0000000000	4.9983933248	1.0000000000	0.0000000000	0.0000000000	72.2229311785	1.0000000000	736.2335792313	1.0000000000	0.0000000000	0.0000000000
0.4900000000	18.5163421912	1.0000000000	20.3974709689	1.0000000000	0.0000000000	0.0000000000	77.3598160792	1.0000000000	734.1149160735	1.0000000000	0.0000000000	0.0000000000
0.5000000000	26.1541312996	1.0000000000	47.0255200480	1.0000000000	0.0000000000	0.0000000000	83.1854261927	1.0000000000	727.3629116626	1.0000000000	0.0000000000	0.0000000000
0.5100000000	27.6951735634	1.0000000000	87.0039785523	1.0000000000	0.0000000000	0.0000000000	89.3112622462	1.0000000000	714.4973770411	1.0000000000	0.0000000000	0.0000000000
0.5200000000	20.3408035496	1.0000000000	142.2184742995	1.0000000000	0.0000000000	0.0000000000	95.3667370350	1.0000000000	694.0400132489	1.0000000000	0.0000000000	0.0000000000
0.5300000000	5.4802639806	1.0000000000	213.1252968518	1.0000000000	0.0000000000	0.0000000000	100.9401668326	1.0000000000	664.6275327628	1.0000000000	0.0000000000	0.0000000000
0.5400000000	-13.8932487335	1.0000000000	295.7994015974	1.0000000000	0.0000000000	0.0000000000	105.0857383949	1.0000000000	625.3166259659	1.0000000000	0.0000000000	0.0000000000
0.5500000000	-34.6828883815	1.0000000000	380.5362028124	1.0000000000	0.0000000000	0.0000000000	106.7860880657	1.0000000000	575.8442935943	1.0000000000	0.0000000000	0.0000000000
0.5600000000	-53.4929858056	1.0000000000	455.4304639978	1.0000000000	0.0000000000	0.0000000000	105.0899480327	1.0000000000	516.9143157998	1.0000000000	0.0000000000	0.0000000000
0.5700000000	-67.7117862371	1.0000000000	512.2550377575	1.0000000000	0.0000000000	0.0000000000	99.4365457136	1.0000000000	450.4337964738	1.0000000000	0.0000000000	0.0000000000
0.5800000000	-76.6721703776	1.0000000000	549.8329762412	1.0000000000	0.0000000000	0.0000000000	90.0506447829	1.0000000000	379.4162158944	1.0000000000	0.0000000000	0.0000000000
0.5900000000	-81.1854433384	1.0000000000	573.1305472630	1.0000000000	0.0000000000	0.0000000000	77.6481511648	1.0000000000	307.7283694116	1.0000000000	0.0000000000	0.0000000000
0.6000000000	-82.6405322109	1.0000000000	589.3249530093	1.0000000000	0.0000000000	0.0000000000	63.3766419625	1.0000000000	239.3473748878	1.0000000000	0.0000000000	0.0000000000
0.6100000000	-82.4867442834	1.0000000000	604.1033267702	1.0000000000	0.0000000000	0.0000000000	48.5791721150	1.0000000000	177.2754999934	1.0000000000	0.0000000000	0.0000000000
0.6200000000	-81.6658717232	1.0000000000	620.6256721198	1.0000000000	0.0000000000	0.0000000000	34.5679763850	1.0000000000	123.4445648310	1.0000000000	0.0000000000	0.0000000000
0.6300000000	-80.2667494296	1.0000000000	639.9726606698	1.0000000000	0.0000000000	0.0000000000	22.4582724252	1.0000000000	79.2989290578	1.0000000000	0.0000000000	0.0000000000
0.6400000000	-78.2608902006	1.0000000000	661.0950366850	1.0000000000	0.0000000000	0.0000000000	12.9663210715	1.0000000000	45.5315843449	1.0000000000	0.0000000000	0.0000000000
0.6500000000	-75.5554257999	1.0000000000	681.2828645658	1.0000000000	0.0000000000	0.0000000000	6.2232744856	1.0000000000	21.7958741408	1.0000000000	0.0000000000	0.0000000000
0.6600000000	-71.9408185409	1.0000000000	697.8085581468	1.0000000000	0.0000000000	0.0000000000	2.0506550958	1.0000000000	7.1340410339	1.0000000000	0.0000000000	0.0000000000
0.6700000000	-67.5338771920	1.0000000000	709.0163229515	1.0000000000	0.0000000000	0.0000000000	0.0000000000	1.0000000000	0.0000000000	1.0000000000	0.0000000000	0.0000000000
0.6800000000	-62.5960751079	1.0000000000	714.4625845037	1.0000000000	0.0000000000	0.0000000000	0.0000000000	1.0000000000	0.0000000000	1.0000000000	0.0000000000	0.0000000000
0.6900000000	-57.2658097540	1.0000000000	714.8752256093	1.0000000000	0.0000000000	0.0000000000	0.0000000000	1.0000000000	0.0000000000	1.0000000000	0.0000000000	0.0000000000
0.7000000000	-51.7591454691	1.0000000000	711.4239217900	1.0000000000	0.0000000000	0.0000000000	0.0000000000	1.0000000000	0.0000000000	1.0000000000	0.0000000000	0.0000000000
0.7100000000	-46.2604414360	1.0000000000	704.8986288255	1.0000000000	0.0000000000	0.0000000000	0.0000000000	1.0000000000	0.0000000000	1.0000000000	0.0000000000	0.0000000000
0.7200000000	-40.8538731313	1.0000000000	696.0210554302	1.0000000000	0.0000000000	0.0000000000	0.0000000000	1.0000000000	0.0000000000	1.0000000000	0.0000000000	0.0000000000
0.7300000000	-35.6067585482	1.0000000000	685.7060482378	1.0000000000	0.0000000000	0.0000000000	0.0053703137	1.0000000000	0.0100661187	1.0000000000	0.0000000000	0.0000000000
0.7400000000	-30.5119032676	1.0000000000	674.7241586287	1.0000000000	0.0000000000	0.0000000000	0.0305957300	1.0000000000	0.1118188410	1.0000000000	0.0000000000	0.0000000000
0.7500000000	-25.5697437115	1.0000000000	663.7477578621	1.0000000000	0.0000000000	0.0000000000	0.0276923094	1.0000000000	0.1092537349	1.0000000000	0.0000000000	0.0000000000
0.7600000000	-20.7825113342	1.0000000000	653.4015874915	1.0000000000	0.0000000000	0.0000000000	0.0162679923	1.0000000000	0.0714767170	1.0000000000	0.0000000000	0.0000000000
0.7700000000	-16.1113229462	1.0000000000	644.0546298832	1.0000000000	0.0000000000	0.0000000000	0.0059307838	1.0000000000	0.0334275988	1.0000000000	0.0000000000	0.0000000000
0.7800000000	-11.5913676628	1.0000000000	636.0434745384	1.0000000000	0.0000000000	0.0000000000	0.0000314461	1.0000000000	0.0068159303	1.0000000000	0.0000000000	0.0000000000
0.7900000000	-7.2783345723	1.0000000000	629.9110964942	1.0000000000	0.0000000000	0.0000000000	0.0000000000	1.0000000000	0.0000000000	1.0000000000	0.0000000000	0.0000000000
0.8000000000	-3.0903887389	1.0000000000	626.1148289400	1.0000000000	0.0000000000	0.0000000000	0.0000000000	1.0000000000	0.0000000000	1.0000000000	0.0000000000	0.0000000000
0.8100000000	1.0394890005	1.0000000000	624.8390072560	1.0000000000	0.0000000000	0.0000000000	0.0000000000	1.0000000000	0.0000000000	1.0000000000	0.0000000000	0.0000000000
0.8200000000	5.1667423161	1.0000000000	626.1768986991	1.0000000000	0.0000000000	0.0000000000	0.0000000000	1.0000000000	0.0000000000	1.0000000000	0.0000000000	0.0000000000
0.8300000000	9.3567150444	1.0000000000	629.9854226814	1.0000000000	0.0000000000	0.0000000000	0.0000000000	1.0000000000	0.0000000000	1.0000000000	0.0000000000	0.0000000000
0.8400000000	13.5764825009	1.0000000000	635.7682483967	1.0000000000	0.0000000000	0.0000000000	0.0000000000	1.0000000000	0.0000000000	1.0000000000	0.0000000000	0.0000000000
0.8500000000	17.7723736649	1.0000000000	642.9980124738	1.0000000000	0.0000000000	0.0000000000	0.0000000000	1.0000000000	0.0000000000	1.0000000000	0.0000000000	0.0000000000
0.8600000000	21.9507716123	1.0000000000	651.2625878562	1.0000000000	0.0000000000	0.0000000000	0.0000000000	1.0000000000	0.0000000000	1.0000000000	0.0000000000	0.0000000000
0.8700000000	26.1204767036	1.0000000000	660.1718063302	1.0000000000	0.0000000000	0.0000000000	0.0251320466	1.0000000000	0.0179444278	1.0000000000	0.0000000000	0.0000000000
0.8800000000	30.3499190794	1.0000000000	669.4343291864	1.0000000000	0.0000000000	0.0000000000	0.0446126690	1.0000000000	0.0643885898	1.0000000000	0.0000000000	0.0000000000
0.8900000000	34.6952870659	1.0000000000	678.9606168682	1.0000000000	0.0000000000	0.0000000000	0.0586838590	1.0000000000	0.1376057686	1.0000000000	0.0000000000	0.0000000000
0.9000000000	39.1082823782	1.0000000000	688.7168425993	1.0000000000	0.0000000000	0.0000000000	0.0439647609	1.0000000000	0.2186864675	1.0000000000	0.0000000000	0.0000000000
0.9100000000	43.4952396963	1.0000000000	698.5330361802	1.0000000000	0.0000000000	0.0000000000	-0.0395639247	1.0000000000	0.2459279689	1.0000000000	0.0000000000	0.0000000000
0.9200000000	47.6984556796	1.0000000000	708.0307438572	1.0000000000	0.0000000000	0.0000000000	-0.2420128579	1.0000000000	0.0928689142	1.0000000000	0.0000000000	0.0000000000
0.9300000000	51.5402112393	1.0000000000	716.6014979931	1.0000000000	0.0000000000	0.0000000000	0.0000000000	1.0000000000	0.0000000000	1.0000000000	0.0000000000	0.0000000000
0.9400000000	54.9424890010	1.0000000000	723.5731555259	1.0000000000	0.0000000000	0.0000000000	0.0000000000	1.0000000000	0.0000000000	1.0000000000	0.0000000000	0.0000000000
0.9500000000	58.0261096699	1.0000000000	728.5204827898	1.0000000000	0.0000000000	0.0000000000	0.0000000000	1.0000000000	0.0000000000	1.0000000000	0.0000000000	0.0000000000
0.9600000000	61.1128644319	1.0000000000	731.3478117310	1.0000000000	0.0000000000	0.0000000000	0.0000000000	1.0000000000	0.0000000000	1.0000000000	0.0000000000	0.0000000000
0.9700000000	64.5814017691	1.0000000000	732.0430045401	1.0000000000	0.0000000000	0.0000000000	0.0000000000	1.0000000000	0.0000000000	1.0000000000	0.0000000000	0.0000000000
0.9800000000	68.7588492714	1.0000000000	730.2823998976	1.0000000000	0.0000000000	0.0000000000	0.0000000000	1.0000000000	0.0000000000	1.0000000000	0.0000000000	0.0000000000
0.9900000000	73.8826536896	1.0000000000	725.2540889554	1.0000000000	0.0000000000	0.0000000000	14.1505458977	1.0000000000	10.7630996959	1.0000000000	0.0000000000	0.0000000000
