name p9_grf_mean_speed_1.4
datacolumns 13
datarows 100
range 0.00000000 0.99000000
endheader
time	grf_x_l_mean	grf_x_l_var	grf_y_l_mean	grf_y_l_var	grf_z_l_mean	grf_z_l_var	grf_x_r_mean	grf_x_r_var	grf_y_r_mean	grf_y_r_var	grf_z_r_mean	grf_z_r_var
0.0000000000	123.2760505213	1.0000000000	761.0541799091	1.0000000000	0.0000000000	0.0000000000	11.7339531005	1.0000000000	11.2529653430	1.0000000000	0.0000000000	0.0000000000
0.0100000000	133.2969716461	1.0000000000	746.1496464777	1.0000000000	0.0000000000	0.0000000000	19.6591243556	1.0000000000	48.5512818315	1.0000000000	0.0000000000	0.0000000000
0.0200000000	143.7836563767	1.0000000000	722.0199085486	1.0000000000	0.0000000000	0.0000000000	26.0156188352	1.0000000000	110.1869668324	1.0000000000	0.0000000000	0.0000000000
0.0300000000	153.2352944158	1.0000000000	686.6061222339	1.0000000000	0.0000000000	0.0000000000	22.9073276011	1.0000000000	196.0967721186	1.0000000000	0.0000000000	0.0000000000
0.0400000000	158.8657465352	1.0000000000	638.3784223275	1.0000000000	0.0000000000	0.0000000000	4.5796160967	1.0000000000	301.0493145682	1.0000000000	0.0000000000	0.0000000000
0.0500000000	159.3580282320	1.0000000000	577.0788559442	1.0000000000	0.0000000000	0.0000000000	-25.3343734841	1.0000000000	416.5529581671	1.0000000000	0.0000000000	0.0000000000
0.0600000000	153.9230431627	1.0000000000	504.4240876893	1.0000000000	0.0000000000	0.0000000000	-58.7074155860	1.0000000000	530.4310818338	1.0000000000	0.0000000000	0.0000000000
0.0700000000	141.4909199150	1.0000000000	423.3486091334	1.0000000000	0.0000000000	0.0000000000	-90.7506097896	1.0000000000	629.6886822049	1.0000000000	0.0000000000	0.0000000000
0.0800000000	121.9098516034	1.0000000000	338.2306554127	1.0000000000	0.0000000000	0.0000000000	-117.4016321658	1.0000000000	707.2832405917	1.0000000000	0.0000000000	0.0000000000
0.0900000000	97.8582570112	1.0000000000	255.2967006801	1.0000000000	0.0000000000	0.0000000000	-135.3087628429	1.0000000000	762.4071060408	1.0000000000	0.0000000000	0.0000000000
0.1000000000	72.1076507581	1.0000000000	180.5940494537	1.0000000000	0.0000000000	0.0000000000	-144.6113225695	1.0000000000	797.4767855946	1.0000000000	0.0000000000	0.0000000000
0.1100000000	47.5445618390	1.0000000000	117.8243205397	1.0000000000	0.0000000000	0.0000000000	-146.9136207372	1.0000000000	816.5118825388	1.0000000000	0.0000000000	0.0000000000
0.1200000000	28.1743648125	1.0000000000	68.7339247473	1.0000000000	0.0000000000	0.0000000000	-143.3883026798	1.0000000000	824.5109373889	1.0000000000	0.0000000000	0.0000000000
0.1300000000	14.9868017808	1.0000000000	34.0840391440	1.0000000000	0.0000000000	0.0000000000	-135.9191770311	1.0000000000	826.1006449653	1.0000000000	0.0000000000	0.0000000000
0.1400000000	7.0069508050	1.0000000000	12.7337132439	1.0000000000	0.0000000000	0.0000000000	-126.7544716150	1.0000000000	823.1129489459	1.0000000000	0.0000000000	0.0000000000
0.1500000000	3.1779057316	1.0000000000	1.8086923702	1.0000000000	0.0000000000	0.0000000000	-115.4032217409	1.0000000000	814.8682351101	1.0000000000	0.0000000000	0.0000000000
0.1600000000	0.0000000000	1.0000000000	0.0000000000	1.0000000000	0.0000000000	0.0000000000	-102.5243780048	1.0000000000	800.6346681278	1.0000000000	0.0000000000	0.0000000000
0.1700000000	0.0000000000	1.0000000000	0.0000000000	1.0000000000	0.0000000000	0.0000000000	-89.8648210705	1.0000000000	780.4452755113	1.0000000000	0.0000000000	0.0000000000
0.1800000000	0.0000000000	1.0000000000	0.0000000000	1.0000000000	0.0000000000	0.0000000000	-77.7579673717	1.0000000000	754.4854482766	1.0000000000	0.0000000000	0.0000000000
0.1900000000	3.5842753376	1.0000000000	0.1408985311	1.0000000000	0.0000000000	0.0000000000	-65.8624517804	1.0000000000	723.3904573707	1.0000000000	0.0000000000	0.0000000000
0.2000000000	3.8480306861	1.0000000000	0.9184537613	1.0000000000	0.0000000000	0.0000000000	-55.5062738454	1.0000000000	688.8647228318	1.0000000000	0.0000000000	0.0000000000
0.2100000000	3.9420969998	1.0000000000	1.2066841743	1.0000000000	0.0000000000	0.0000000000	-46.6363013193	1.0000000000	653.2759041235	1.0000000000	0.0000000000	0.0000000000
0.2200000000	4.0434565622	1.0000000000	1.1520408165	1.0000000000	0.0000000000	0.0000000000	-38.7261376829	1.0000000000	619.4898489781	1.0000000000	0.0000000000	0.0000000000
0.2300000000	3.6416795795	1.0000000000	0.8294859020	1.0000000000	0.0000000000	0.0000000000	-32.0834142466	1.0000000000	589.7445948219	1.0000000000	0.0000000000	0.0000000000
0.2400000000	3.0329828768	1.0000000000	0.3969673479	1.0000000000	0.0000000000	0.0000000000	-26.5351128056	1.0000000000	564.9673736475	1.0000000000	0.0000000000	0.0000000000
0.2500000000	0.0000000000	1.0000000000	0.0000000000	1.0000000000	0.0000000000	0.0000000000	-21.1880013856	1.0000000000	545.6219283396	1.0000000000	0.0000000000	0.0000000000
0.2600000000	0.0000000000	1.0000000000	0.0000000000	1.0000000000	0.0000000000	0.0000000000	-16.5229303004	1.0000000000	532.3513973522	1.0000000000	0.0000000000	0.0000000000
0.2700000000	0.0000000000	1.0000000000	0.0000000000	1.0000000000	0.0000000000	0.0000000000	-12.5347069439	1.0000000000	525.2360182715	1.0000000000	0.0000000000	0.0000000000
0.2800000000	0.0000000000	1.0000000000	0.0000000000	1.0000000000	0.0000000000	0.0000000000	-8.4778097936	1.0000000000	523.1206984941	1.0000000000	0.0000000000	0.0000000000
0.2900000000	0.0000000000	1.0000000000	0.0000000000	1.0000000000	0.0000000000	0.0000000000	-4.3414925758	1.0000000000	524.4751299949	1.0000000000	0.0000000000	0.0000000000
0.3000000000	0.0000000000	1.0000000000	0.0000000000	1.0000000000	0.0000000000	0.0000000000	-0.3342659273	1.0000000000	528.6107542248	1.0000000000	0.0000000000	0.0000000000
0.3100000000	0.0000000000	1.0000000000	0.0000000000	1.0000000000	0.0000000000	0.0000000000	4.1238410074	1.0000000000	535.6425861707	1.0000000000	0.0000000000	0.0000000000
0.3200000000	0.0000000000	1.0000000000	0.0000000000	1.0000000000	0.0000000000	0.0000000000	9.0404100284	1.0000000000	545.1048117974	1.0000000000	0.0000000000	0.0000000000
0.3300000000	0.0000000000	1.0000000000	0.0000000000	1.0000000000	0.0000000000	0.0000000000	14.1564305826	1.0000000000	556.1067484403	1.0000000000	0.0000000000	0.0000000000
0.3400000000	0.0000000000	1.0000000000	0.0000000000	1.0000000000	0.0000000000	0.0000000000	19.8141540483	1.0000000000	568.9459535854	1.0000000000	0.0000000000	0.0000000000
0.3500000000	0.0000000000	1.0000000000	0.0000000000	1.0000000000	0.0000000000	0.0000000000	25.7434556521	1.0000000000	584.4670060558	1.0000000000	0.0000000000	0.0000000000
0.3600000000	0.0000000000	1.0000000000	0.0000000000	1.0000000000	0.0000000000	0.0000000000	31.5763990021	1.0000000000	602.2962146286	1.0000000000	0.0000000000	0.0000000000
0.3700000000	2.5745550936	1.0000000000	0.4624299843	1.0000000000	0.0000000000	0.0000000000	37.4202458353	1.0000000000	621.2763174274	1.0000000000	0.0000000000	0.0000000000
0.3800000000	2.3328310441	1.0000000000	1.0181343746	1.0000000000	0.0000000000	0.0000000000	43.4309763180	1.0000000000	640.8446998675	1.0000000000	0.0000000000	0.0000000000
0.3900000000	2.1645661544	1.0000000000	1.5519155715	1.0000000000	0.0000000000	0.0000000000	49.4682670148	1.0000000000	660.7132969080	1.0000000000	0.0000000000	0.0000000000
0.4000000000	2.0956510296	1.0000000000	1.9328594030	1.0000000000	0.0000000000	0.0000000000	55.8462910892	1.0000000000	680.2687329795	1.0000000000	0.0000000000	0.0000000000
0.4100000000	1.9787843741	1.0000000000	1.9918384980	1.0000000000	0.0000000000	0.0000000000	62.6672651337	1.0000000000	698.8670028292	1.0000000000	0.0000000000	0.0000000000
0.4200000000	1.5692642549	1.0000000000	1.5282585356	1.0000000000	0.0000000000	0.0000000000	69.8074291079	1.0000000000	715.9152283065	1.0000000000	0.0000000000	0.0000000000
0.4300000000	1.0759867405	1.0000000000	0.2854091416	1.0000000000	0.0000000000	0.0000000000	77.3499572053	1.0000000000	730.9267335925	1.0000000000	0.0000000000	0.0000000000
0.4400000000	0.0000000000	1.0000000000	0.0000000000	1.0000000000	0.0000000000	0.0000000000	85.2488877275	1.0000000000	743.7788711551	1.0000000000	0.0000000000	0.0000000000
0.4500000000	0.0000000000	1.0000000000	0.0000000000	1.0000000000	0.0000000000	0.0000000000	93.2376196866	1.0000000000	754.3458799975	1.0000000000	0.0000000000	0.0000000000
0.4600000000	0.0000000000	1.0000000000	0.0000000000	1.0000000000	0.0000000000	0.0000000000	101.5078251680	1.0000000000	761.7784001110	1.0000000000	0.0000000000	0.0000000000
0.4700000000	0.0000000000	1.0000000000	0.0000000000	1.0000000000	0.0000000000	0.0000000000	110.2203192727	1.0000000000	765.0721659664	1.0000000000	0.0000000000	0.0000000000
0.4800000000	13.1597698018	1.0000000000	8.3851553458	1.0000000000	0.0000000000	0.0000000000	119.2472487868	1.0000000000	763.6285822611	1.0000000000	0.0000000000	0.0000000000
0.4900000000	21.7949664538	1.0000000000	34.0811791256	1.0000000000	0.0000000000	0.0000000000	128.3727379266	1.0000000000	756.3251357181	1.0000000000	0.0000000000	0.0000000000
0.5000000000	29.9664274722	1.0000000000	79.0222702849	1.0000000000	0.0000000000	0.0000000000	137.2878639991	1.0000000000	740.8938862931	1.0000000000	0.0000000000	0.0000000000
0.5100000000	30.4320897976	1.0000000000	145.2570450529	1.0000000000	0.0000000000	0.0000000000	145.1794746962	1.0000000000	715.0038085243	1.0000000000	0.0000000000	0.0000000000
0.5200000000	16.8159094896	1.0000000000	231.4230793650	1.0000000000	0.0000000000	0.0000000000	150.5450973762	1.0000000000	677.3630946992	1.0000000000	0.0000000000	0.0000000000
0.5300000000	-9.5764345072	1.0000000000	333.0831907094	1.0000000000	0.0000000000	0.0000000000	152.3456897495	1.0000000000	627.7337247050	1.0000000000	0.0000000000	0.0000000000
0.5400000000	-41.8123398487	1.0000000000	441.2252940461	1.0000000000	0.0000000000	0.0000000000	150.1224595217	1.0000000000	566.9639583393	1.0000000000	0.0000000000	0.0000000000
0.5500000000	-74.2970592005	1.0000000000	541.7281459244	1.0000000000	0.0000000000	0.0000000000	143.2139324877	1.0000000000	496.8055592379	1.0000000000	0.0000000000	0.0000000000
0.5600000000	-103.6627773467	1.0000000000	621.8676106494	1.0000000000	0.0000000000	0.0000000000	130.9251173498	1.0000000000	419.9240125890	1.0000000000	0.0000000000	0.0000000000
0.5700000000	-126.0513517084	1.0000000000	676.9222457655	1.0000000000	0.0000000000	0.0000000000	114.1176600142	1.0000000000	340.4015666808	1.0000000000	0.0000000000	0.0000000000
0.5800000000	-140.1775091920	1.0000000000	710.7475425625	1.0000000000	0.0000000000	0.0000000000	94.6173773923	1.0000000000	263.0704273796	1.0000000000	0.0000000000	0.0000000000
0.5900000000	-147.7579904998	1.0000000000	731.9807271813	1.0000000000	0.0000000000	0.0000000000	73.4290862513	1.0000000000	192.1831286600	1.0000000000	0.0000000000	0.0000000000
0.6000000000	-149.9779082720	1.0000000000	748.7854867822	1.0000000000	0.0000000000	0.0000000000	52.8890123690	1.0000000000	130.8610707181	1.0000000000	0.0000000000	0.0000000000
0.6100000000	-147.6667010295	1.0000000000	765.2611220120	1.0000000000	0.0000000000	0.0000000000	35.5488341710	1.0000000000	81.4439161574	1.0000000000	0.0000000000	0.0000000000
0.6200000000	-142.6274489379	1.0000000000	781.1226030664	1.0000000000	0.0000000000	0.0000000000	22.1284002005	1.0000000000	44.7797434490	1.0000000000	0.0000000000	0.0000000000
0.6300000000	-135.5822839268	1.0000000000	794.2341608814	1.0000000000	0.0000000000	0.0000000000	12.3499598942	1.0000000000	20.1006253579	1.0000000000	0.0000000000	0.0000000000
0.6400000000	-126.5622521017	1.0000000000	802.4298330615	1.0000000000	0.0000000000	0.0000000000	6.1500195274	1.0000000000	5.7738720820	1.0000000000	0.0000000000	0.0000000000
0.6500000000	-116.5984562410	1.0000000000	803.5533668279	1.0000000000	0.0000000000	0.0000000000	0.0000000000	1.0000000000	0.0000000000	1.0000000000	0.0000000000	0.0000000000
0.6600000000	-106.4418075721	1.0000000000	796.0436668484	1.0000000000	0.0000000000	0.0000000000	0.0000000000	1.0000000000	0.0000000000	1.0000000000	0.0000000000	0.0000000000
0.6700000000	-95.6472202003	1.0000000000	780.0804090809	1.0000000000	0.0000000000	0.0000000000	0.0000000000	1.0000000000	0.0000000000	1.0000000000	0.0000000000	0.0000000000
0.6800000000	-84.6854725253	1.0000000000	757.2132468221	1.0000000000	0.0000000000	0.0000000000	0.0000000000	1.0000000000	0.0000000000	1.0000000000	0.0000000000	0.0000000000
0.6900000000	-74.2892497614	1.0000000000	728.7340403887	1.0000000000	0.0000000000	0.0000000000	0.0000000000	1.0000000000	0.0000000000	1.0000000000	0.0000000000	0.0000000000
0.7000000000	-64.2748080827	1.0000000000	695.9526041719	1.0000000000	0.0000000000	0.0000000000	3.2177016655	1.0000000000	0.7193490852	1.0000000000	0.0000000000	0.0000000000
0.7100000000	-54.7414400352	1.0000000000	661.1739848510	1.0000000000	0.0000000000	0.0000000000	3.3430668932	1.0000000000	1.0109392571	1.0000000000	0.0000000000	0.0000000000
0.7200000000	-46.0759966401	1.0000000000	626.8551563733	1.0000000000	0.0000000000	0.0000000000	2.9262233243	1.0000000000	0.9433411779	1.0000000000	0.0000000000	0.0000000000
0.7300000000	-38.0197014492	1.0000000000	594.7981452003	1.0000000000	0.0000000000	0.0000000000	2.3679485239	1.0000000000	0.6885739991	1.0000000000	0.0000000000	0.0000000000
0.7400000000	-30.5443407265	1.0000000000	566.7363857159	1.0000000000	0.0000000000	0.0000000000	1.9483523898	1.0000000000	0.3414313081	1.0000000000	0.0000000000	0.0000000000
0.7500000000	-23.9580197070	1.0000000000	544.2116667301	1.0000000000	0.0000000000	0.0000000000	0.0000000000	1.0000000000	0.0000000000	1.0000000000	0.0000000000	0.0000000000
0.7600000000	-17.8497070583	1.0000000000	527.5618417544	1.0000000000	0.0000000000	0.0000000000	0.0000000000	1.0000000000	0.0000000000	1.0000000000	0.0000000000	0.0000000000
0.7700000000	-12.1436750869	1.0000000000	516.3242319684	1.0000000000	0.0000000000	0.0000000000	0.0000000000	1.0000000000	0.0000000000	1.0000000000	0.0000000000	0.0000000000
0.7800000000	-7.1342524894	1.0000000000	510.1102875505	1.0000000000	0.0000000000	0.0000000000	0.0000000000	1.0000000000	0.0000000000	1.0000000000	0.0000000000	0.0000000000
0.7900000000	-2.3061510620	1.0000000000	508.2352471936	1.0000000000	0.0000000000	0.0000000000	0.0000000000	1.0000000000	0.0000000000	1.0000000000	0.0000000000	0.0000000000
0.8000000000	2.7379918007	1.0000000000	509.7258079063	1.0000000000	0.0000000000	0.0000000000	0.0000000000	1.0000000000	0.0000000000	1.0000000000	0.0000000000	0.0000000000
0.8100000000	7.6789875358	1.0000000000	514.3497961387	1.0000000000	0.0000000000	0.0000000000	0.0000000000	1.0000000000	0.0000000000	1.0000000000	0.0000000000	0.0000000000
0.8200000000	12.7851077206	1.0000000000	522.5418444840	1.0000000000	0.0000000000	0.0000000000	0.0000000000	1.0000000000	0.0000000000	1.0000000000	0.0000000000	0.0000000000
0.8300000000	18.4652851206	1.0000000000	534.2670577815	1.0000000000	0.0000000000	0.0000000000	0.0000000000	1.0000000000	0.0000000000	1.0000000000	0.0000000000	0.0000000000
0.8400000000	24.4091881492	1.0000000000	549.0240458065	1.0000000000	0.0000000000	0.0000000000	0.0000000000	1.0000000000	0.0000000000	1.0000000000	0.0000000000	0.0000000000
0.8500000000	30.4156937795	1.0000000000	566.5347532367	1.0000000000	0.0000000000	0.0000000000	0.0000000000	1.0000000000	0.0000000000	1.0000000000	0.0000000000	0.0000000000
0.8600000000	36.5893106775	1.0000000000	586.4700457785	1.0000000000	0.0000000000	0.0000000000	0.0000000000	1.0000000000	0.0000000000	1.0000000000	0.0000000000	0.0000000000
0.8700000000	42.6302296604	1.0000000000	607.8971134551	1.0000000000	0.0000000000	0.0000000000	0.0000000000	1.0000000000	0.0000000000	1.0000000000	0.0000000000	0.0000000000
0.8800000000	48.5148771076	1.0000000000	629.7797298052	1.0000000000	0.0000000000	0.0000000000	0.7726369569	1.0000000000	0.1029236832	1.0000000000	0.0000000000	0.0000000000
0.8900000000	54.5584092614	1.0000000000	651.6313186822	1.0000000000	0.0000000000	0.0000000000	0.6310411446	1.0000000000	0.2512764347	1.0000000000	0.0000000000	0.0000000000
0.9000000000	60.6613044577	1.0000000000	673.1920413624	1.0000000000	0.0000000000	0.0000000000	0.4549760510	1.0000000000	0.3509892512	1.0000000000	0.0000000000	0.0000000000
0.9100000000	66.7508825919	1.0000000000	693.9739337583	1.0000000000	0.0000000000	0.0000000000	0.2144144228	1.0000000000	0.2593500552	1.0000000000	0.0000000000	0.0000000000
0.9200000000	73.1572077622	1.0000000000	713.4588690711	1.0000000000	0.0000000000	0.0000000000	0.0000000000	1.0000000000	0.0000000000	1.0000000000	0.0000000000	0.0000000000
0.9300000000	79.7600698555	1.0000000000	731.2499956951	1.0000000000	0.0000000000	0.0000000000	0.0000000000	1.0000000000	0.0000000000	1.0000000000	0.0000000000	0.0000000000
0.9400000000	86.2438821793	1.0000000000	746.7006830188	1.0000000000	0.0000000000	0.0000000000	0.0000000000	1.0000000000	0.0000000000	1.0000000000	0.0000000000	0.0000000000
0.9500000000	92.7644253249	1.0000000000	758.8499209114	1.0000000000	0.0000000000	0.0000000000	0.0000000000	1.0000000000	0.0000000000	1.0000000000	0.0000000000	0.0000000000
0.9600000000	99.5093546687	1.0000000000	766.9493966005	1.0000000000	0.0000000000	0.0000000000	0.0000000000	1.0000000000	0.0000000000	1.0000000000	0.0000000000	0.0000000000
0.9700000000	106.5862531485	1.0000000000	770.5303356091	1.0000000000	0.0000000000	0.0000000000	0.0000000000	1.0000000000	0.0000000000	1.0000000000	0.0000000000	0.0000000000
0.9800000000	114.4502393786	1.0000000000	768.9923658556	1.0000000000	0.0000000000	0.0000000000	0.0000000000	1.0000000000	0.0000000000	1.0000000000	0.0000000000	0.0000000000
0.9900000000	123.4726199273	1.0000000000	761.3804032005	1.0000000000	0.0000000000	0.0000000000	11.7031994052	1.0000000000	11.2463808935	1.0000000000	0.0000000000	0.0000000000
